S.no.	ID	Name	Email-id	Mobile no.	Address	City	State	Sector	Website
1	AR/2018/0201462	AALO YIJO WOMEN WELFARE SOCIETY	kenbiingo@gmail.com	8730802393	AALO YIJO COLONY, AALO WEST SIANG DIST. ARUNACHAL PRADESH	AALO				
2	AR/2019/0245139	AANE SIANG SOCIETY	rrlengineers@yahoo.com	9436696478	Jomlo Mobuk, District: Siang, Arunachal Pradesh-791003	Jomlo Mobuk	ARUNACHAL PRADESH, 	Art & Culture,Education & Literacy,Aged/Elderly,Health & Family Welfare,Vocational Training,Women's Development & Empowerment,		
3	AR/2016/0099868	AARRO WELFARE SOCIETY	aarrows10@yahoo.com	9436050404	Yahung Tekseng Simar Colony Yingkiong PO/PS Yingkiong -791002 District Upper Siang Arunachal Pradesh	Yingkiong	ARUNACHAL PRADESH, 	Art & Culture,Environment & Forests,Health & Family Welfare,HIV/AIDS,		
4	AR/2017/0160322	abo tani philanthropic mission	sorakito@yahoo.com	8256934678	near st xaviers international school. old agri farm. bogdo. PO.PS Aalo	Aalo	ARUNACHAL PRADESH, 	Agriculture,Animal Husbandry, Dairying  &  Fisheries,Art & Culture,Children,Disaster Management,Education & Literacy,Environment & Forests,Science & Technology,Vocational Training,Women's Development & Empowerment,		
5	AR/2018/0188049	ABO-TANI EDUCATIONAL & CULTURAL SOCIETY	atecsoc@gmail.com	9402992197	DAPORIJO, UPPER SUBANSIRI DISTRICT, ARUNACHAL PRADESH	DAPORIJO	ARUNACHAL PRADESH, 	Agriculture,Children,Disaster Management,Drinking Water,Health & Family Welfare,Information & Communication Technology,Legal Awareness & Aid,Micro Finance (SHGs),Micro Small & Medium Enterprises,Right to Information & Advocacy,Rural Development & Poverty Alleviation,Science & Technology,Tourism,Tribal Affairs,Urban Development & Poverty Alleviation,Vocational Training,Water Resources,Women's Development & Empowerment,Youth Affairs,Any Other,		
6	AR/2017/0161801	Abotani Ashram Welfare Association	aawaculture@gmail.com	9485233166	GExtn., Dam Site, Near St Thomas School P.O.- Naharlagun, Distt. - Papumpare-791110 Arunachal Pradesh.	Naharlagun	ARUNACHAL PRADESH, 	Art & Culture,Civic Issues,Youth Affairs,Education & Literacy,Vocational Training,		
7	AR/2016/0107204	Abralow Memorial Multipurpose Society	ammshunli@gmail.com	9436639631	ABRALOW MEMORIAL MULTIPURPOSE SOCIETY HEAD OFFICE : HUNLI, CORRESPONDENCE / BRANCH OFFICE : EZENGO, ROING ,DISTRICT : LOWER DIBANG VALLEY ,ARUNACHAL PRADESH, PIN-792110	Roing	ARUNACHAL PRADESH, 	Animal Husbandry, Dairying  &  Fisheries,Aged/Elderly,Agriculture,Art & Culture,Biotechnology,Children,Civic Issues,Differently Abled,Disaster Management,Dalit Upliftment,Drinking Water,Education & Literacy,Environment & Forests,Food Processing,Health & Family Welfare,HIV/AIDS,Housing,Human Rights,Information & Communication Technology,Legal Awareness & Aid,Labour & Employment,Land Resources,Micro Finance (SHGs),Minority Issues,Micro Small & Medium Enterprises,	http://www.ammsociety.org	
8	AR/2017/0174419	ABU TALANG MEMORIAL SOCIETY	abutalangmemorialsociety@gmail.com	9862907734	H.Q P SECTOR, NEAR QTR N. 58 (TYPE III) PO ITANAGAR DIST PAPUM PARE STATE ARUNACHAL PRADESH PIN NO 791111	ITANAGAR	ARUNACHAL PRADESH, 	Agriculture,Animal Husbandry, Dairying  &  Fisheries,Art & Culture,Biotechnology,Children,Civic Issues,Disaster Management,Drinking Water,Education & Literacy,Health & Family Welfare,Human Rights,Information & Communication Technology,Micro Finance (SHGs),Right to Information & Advocacy,Vocational Training,Water Resources,Women's Development & Empowerment,Youth Affairs,Any Other,		
9	AR/2017/0156752	Achukuru Welfare Society	achukuru47@rediffmail.com	9774886646	Ziro, P.O. Ziro	Ziro	ARUNACHAL PRADESH, 	Children,Differently Abled,Aged/Elderly,Rural Development & Poverty Alleviation,Tourism,Vocational Training,Women's Development & Empowerment,Any Other,		
10	AR/2020/0258638	AGAM MULTIPURPOSE COOPERATIVE SOCIETY LTD	agammpcs_123@rediffmail.com	8974716006	EAST SIANG DISTRICT, PASIGHAT, ARUNACHAL PRADESH	DIKING	ARUNACHAL PRADESH, 	Agriculture,Animal Husbandry, Dairying  &  Fisheries,Art & Culture,Children,Civic Issues,Disaster Management,Drinking Water,Education & Literacy,Aged/Elderly,Environment & Forests,Food Processing,Health & Family Welfare,HIV/AIDS,Housing,Human Rights,Information & Communication Technology,Labour & Employment,Land Resources,Legal Awareness & Aid,Micro Finance (SHGs),Micro Small & Medium Enterprises,Minority Issues,New & Renewable Energy,Nutrition,Panchayati Raj,Right to Information & Advocacy,Rural Development & Poverty Alleviation,Tourism,Tribal Affairs,Urban Development & Poverty Alleviation,		
11	AR/2017/0178828	Agency For Culture Human Resources & Environment Development	joymvmiao@gmail.com	7085602472	P.O Khonsa	Khonsa	ARUNACHAL PRADESH, 	Art & Culture,Civic Issues,Disaster Management,Drinking Water,Education & Literacy,Environment & Forests,Health & Family Welfare,Human Rights,Land Resources,Rural Development & Poverty Alleviation,Tribal Affairs,Vocational Training,Water Resources,Youth Affairs,Any Other,		
12	AR/2015/0093145	AJEN ANNA SOCIETY	ajenannasociety@gmail.com	9436833343	VILLAGE POMA PO.PS. ITANAGAR PAPUMPARE DISTRICT PIN 791111	ITANAGAR	ARUNACHAL PRADESH, 	Agriculture,Art & Culture,Children,Education & Literacy,Environment & Forests,Food Processing,HIV/AIDS,Labour & Employment,Micro Finance (SHGs),Panchayati Raj,Scientific & Industrial Research,Tourism,Any Other,Animal Husbandry, Dairying  &  Fisheries,Biotechnology,Civic Issues,Dalit Upliftment,Differently Abled,Disaster Management,Drinking Water,Aged/Elderly,Health & Family Welfare,Housing,Human Rights,Information & Communication Technology,Land Resources,Legal Awareness & Aid,Micro Small & Medium Enterprises,Minority Issues,New & Renewable Energy,Nutrition,Prisoner's Issues,Right to Information & Advocacy,Rural Development & Poverty Alleviation,Science & Technology,Sports,Tribal Affairs,Urban Development & Poverty Alleviation,Vocational Training,Water Resources,Women's Development & Empowerment,		
13	AR/2020/0263123	AJIN APII ARTISANS AND WEAVERS COOPERATIVE SOCIETY LTD	ajinapiiartisans@gmail.com	7085319543	GURUDUWARA LINE HAPOLI PO ZIRO DIST. LOWER SUNBANSIRI , ARUNACHAL PRADESH 791120	ZIRO				
14	AR/2018/0199325	AKARUM SOCIETY FOR ECO TOURISM & WILDLIFE CONSERVATION	maisengmorang@gmail.com	9378131767	JAIRAMPUR, CHANGLANG DISTRICT, ARUNACHAL PRADESH792121	JAIRAMPUR	ARUNACHAL PRADESH, 	Agriculture,Animal Husbandry, Dairying  &  Fisheries,Art & Culture,Children,Civic Issues,Disaster Management,Drinking Water,Education & Literacy,Food Processing,Health & Family Welfare,HIV/AIDS,Human Rights,Information & Communication Technology,Labour & Employment,Legal Awareness & Aid,Micro Finance (SHGs),Rural Development & Poverty Alleviation,Science & Technology,Scientific & Industrial Research,Sports,Tourism,Urban Development & Poverty Alleviation,Vocational Training,Water Resources,Women's Development & Empowerment,Youth Affairs,Any Other,		
15	AR/2019/0239999	ALL ARUNACHAL PRADESH DIVYANG WELFARE SOCIETY	cscnlg1@gmail.com	9402050488	TAKAR COLONY BORAPANI NAHARLAGUN	NAHARLAGUN				
16	AR/2019/0227007	ALL ARUNACHAL PRADESH GORKHA WELFARE SOCIETY 	rajengurung78@gmail.com	9615177584	OFFICE OF THEALL ARUNACHAL PRADESH GORKHA WELFARE SOCIETYGOVT.REGD NO.SR/ITA/4057ESTD-13THAPRIL 2007H.Q ITANAGAR PIN-791111G-SECTOR OPP R.K. MISSION HOSPITALDISTRICT PAPUM PARE (A.P)	ITANAGAR	ARUNACHAL PRADESH, 	Women's Development & Empowerment,		
17	AR/2019/0239721	ALL ARUNACHAL PRADESH WELFARE SOCIETY	rksahuji2002@yahoo.com	9402996222	ESS Sector, Near RWD Colony, Itanagar, Dist.-Papum Pare, Arunachal Pradesh-791111	Itanagar				
18	AR/2018/0201867	ALL ATO PAKTU AO WELFARE SOCIETY	lollenm15@gmail.com	9436236686	OPPOSITE SIDE OF MOPIN MANDIR, AALO NEAR INDUSTRY ROAD, AALO	AALO	ARUNACHAL PRADESH, 	Tribal Affairs,Any Other,Women's Development & Empowerment,Art & Culture,Civic Issues,Education & Literacy,Health & Family Welfare,Youth Affairs,	htp://www.aapaws.com	
19	AR/2017/0116381	ALL BADA PANCHAYAT WELFARE SOCIETY	abpws2003@gmail.com	9615287509	H.Q.-MENGIO DISTRICT - PAPUM PARE PIN NO. - 791119 STATE - ARUNACHAL PRADESH	ITANAGAR	ARUNACHAL PRADESH, 	Animal Husbandry, Dairying  &  Fisheries,Aged/Elderly,Agriculture,Art & Culture,Disaster Management,Drinking Water,Education & Literacy,Environment & Forests,Food Processing,Housing,Human Rights,Information & Communication Technology,Legal Awareness & Aid,Labour & Employment,Land Resources,Micro Finance (SHGs),Minority Issues,Micro Small & Medium Enterprises,New & Renewable Energy,Panchayati Raj,Right to Information & Advocacy,Rural Development & Poverty Alleviation,Scientific & Industrial Research,Science & Technology,Vocational Training,		
20	AR/2018/0200818	All Beyong Welfare Society	harisono1982@gmail.com	9436676232	All Beyong Welfare Society H. O. Pakke P. O. /P. S. Bameng East Kameng District Seppa Arunachal Pradesh	Seppa	ARUNACHAL PRADESH, 	Agriculture,Animal Husbandry, Dairying  &  Fisheries,Children,Civic Issues,Disaster Management,Environment & Forests,Food Processing,Health & Family Welfare,Land Resources,Micro Small & Medium Enterprises,New & Renewable Energy,Tribal Affairs,Vocational Training,Women's Development & Empowerment,Youth Affairs,		
21	AR/2020/0258068	ALL LEKANG AREA YOUTH ASSOCIATION	alaya.lekang@gmail.com	7005248322	NH-52B, MAHADEVPUR, LEKANG CIRCLE	MAHADEVPUR	ARUNACHAL PRADESH, 	Micro Small & Medium Enterprises,Rural Development & Poverty Alleviation,		
22	AR/2010/0038276	ALOMBRO MAYU YAKU CHI AMEY AROGA AMYAA	amyaaforchange@gmail.com	9436634127	AMYAA OFFICE MAYU-II, ROING LOWER DIBANG VALLEY DISTRICT ARUNACHAL PRADESH	ROING	ARUNACHAL PRADESH, 	Animal Husbandry, Dairying  &  Fisheries,Aged/Elderly,Agriculture,Art & Culture,Children,Civic Issues,Disaster Management,Drinking Water,Education & Literacy,Environment & Forests,Food Processing,Health & Family Welfare,HIV/AIDS,Human Rights,Legal Awareness & Aid,Labour & Employment,Micro Finance (SHGs),Minority Issues,Micro Small & Medium Enterprises,Nutrition,Right to Information & Advocacy,Rural Development & Poverty Alleviation,Tribal Affairs,Vocational Training,Women's Development & Empowerment,	http://amyaaforchange.com	
23	AR/2017/0114615	Ama Aba MPCS Ltd	amaabampcs@gmail.com	9615287779	Ama Aba MPCS Ltd  Plot No. 52, PO & PS Ziro  Dist Lower Subanasir   Arunachal Pradesh  Pin No. : 791120	Lower Subanasir	ARUNACHAL PRADESH, 	Animal Husbandry, Dairying  &  Fisheries,Aged/Elderly,Agriculture,Art & Culture,Biotechnology,Children,Civic Issues,Differently Abled,Disaster Management,Dalit Upliftment,Drinking Water,Education & Literacy,Environment & Forests,Food Processing,Health & Family Welfare,HIV/AIDS,Housing,Human Rights,Information & Communication Technology,Legal Awareness & Aid,Labour & Employment,Land Resources,Micro Finance (SHGs),Minority Issues,Micro Small & Medium Enterprises,		
24	AR/2009/0009702	Amik Matai Society	amikmatai@gmail.com	9436226987	Amik Matai Society Post Box No 8  New Mekailiang Tezu  PO Tezu  Lohit District  Arunachal Pradesh  792 001	Tezu	ARUNACHAL PRADESH, 	Animal Husbandry, Dairying  &  Fisheries,Agriculture,Art & Culture,Disaster Management,Drinking Water,Education & Literacy,Environment & Forests,Health & Family Welfare,HIV/AIDS,Housing,Information & Communication Technology,Labour & Employment,Land Resources,Micro Finance (SHGs),Micro Small & Medium Enterprises,Panchayati Raj,Right to Information & Advocacy,Rural Development & Poverty Alleviation,Sports,Tribal Affairs,Tourism,Vocational Training,	http://ngo.india.gov.in	
25	AR/2020/0262188	ANE ABO WELFARE SOCIETY	aneabowelfaresociety2020@gmail.com	8414992143	BASAR, LEPARADA DIST ARUNACHAL PRADESH	ARUNACHAL PRADESH		Agriculture,Animal Husbandry, Dairying  &  Fisheries,Art & Culture,Biotechnology,Children,Civic Issues,Dalit Upliftment,Differently Abled,Disaster Management,Drinking Water,Education & Literacy,Aged/Elderly,Environment & Forests,Food Processing,Health & Family Welfare,HIV/AIDS,Housing,Human Rights,Information & Communication Technology,Labour & Employment,Land Resources,Legal Awareness & Aid,Micro Finance (SHGs),Micro Small & Medium Enterprises,Minority Issues,New & Renewable Energy,Nutrition,Panchayati Raj,Prisoner's Issues,Right to Information & Advocacy,Rural Development & Poverty Alleviation,Science & Technology,Scientific & Industrial Research,Sports,Tourism,Tribal Affairs,Urban Development & Poverty Alleviation,Vocational Training,Water Resources,Women's Development & Empowerment,		
26	AR/2018/0215259	ANE RURAL DEVELOPMENT SOCIETY	etenitulollen@gmail.com	8787575147	AALO, WEST SIANG	AALO 	ARUNACHAL PRADESH, 	Children,Civic Issues,Women's Development & Empowerment,	http://www.aneruraldevsociety.com	
27	AR/2019/0237807	ANE SIANG WELFARE SOCIETY	anesiangwelfaresociety@gmail.com	7005204726	TABING HOUSE, LOWER BANSKOTA BACKSIDE KAMPO BAKERY	PASIGHAT		Education & Literacy,Aged/Elderly,Environment & Forests,Health & Family Welfare,HIV/AIDS,Information & Communication Technology,Minority Issues,Prisoner's Issues,Rural Development & Poverty Alleviation,Tribal Affairs,Vocational Training,Women's Development & Empowerment,		
28	AR/2020/0263396	ANGONG AJON MULTIPURPOSE COOPERATIVE SOCIETY LTD.	Sitangtagum6@gmail.com	9612542010	VillPangin P.O/P.SPangin DistrictSiang StateArunachal Pradesh	Pangin				
29	AR/2017/0154449	Anne Yadung Memorial Trust	anneytrust@gmail.com	8014072247	Post Box No. 290, Rakap Colony Naharlagun, Papum Pare District	Naharlagun	ARUNACHAL PRADESH, 	Dalit Upliftment,		
30	AR/2010/0029255	APACETS	apacets888@gmail.com	9612673445	Near M/S Rupa Lamps Ltd, Rupa, PO/PS Rupa West Kameng District Arunachal pradesh PIN 790003	RUPA	ARUNACHAL PRADESH, 	Animal Husbandry, Dairying  &  Fisheries,Aged/Elderly,Agriculture,Art & Culture,Biotechnology,Children,HIV/AIDS,Housing,Human Rights,Information & Communication Technology,Legal Awareness & Aid,Labour & Employment,Micro Finance (SHGs),Minority Issues,Micro Small & Medium Enterprises,New & Renewable Energy,Panchayati Raj,		
31	AR/2021/0274493	Apex Professional University	apu@apexuniversity.edu.in	8729852468	NH 52, Gumin Nagar	Pasighat	ARUNACHAL PRADESH, 		http://www.apexuniversity.edu.in	
32	AR/2016/0104210	ARUN KUTIR UDYOG COOPERATIVE SOCIETY LTD	akucoopsocietyltd@gmail.com	8731834178	VILLAGE AND PO SALANG, ZIRO DIST LOWER SUBANSIRI ARUNACHAL PRADESH PIN 791120	ZIRO	ARUNACHAL PRADESH, 	Animal Husbandry, Dairying  &  Fisheries,Aged/Elderly,Agriculture,Art & Culture,Biotechnology,Children,Civic Issues,Differently Abled,Disaster Management,Dalit Upliftment,Drinking Water,Education & Literacy,Environment & Forests,Food Processing,Health & Family Welfare,HIV/AIDS,Housing,Human Rights,Information & Communication Technology,Legal Awareness & Aid,Labour & Employment,Land Resources,Micro Finance (SHGs),Minority Issues,Micro Small & Medium Enterprises,		
33	AR/2020/0256498	ARUNACHAL FARMERS DEVELOPMENT SOCIETY	nimethongon@gmail.com	8753954565	AALO DISTRICT WEST SIANG	WEST SIANG	ARUNACHAL PRADESH, 			
34	AR/2017/0162049	ARUNACHAL GRACE OF GREEN SOCIETY	dada.demo34@gmail.com	9436227423	ARUNACHAL GRACE OF GREEN SOCIETY,D.N Road PO RK MISSION Vivek Vihar Itanagar Itanagar, Lohit Valley Itanagar Arunachal Pradesh- 791113	Itanagar	ARUNACHAL PRADESH, 	Art & Culture,Children,Drinking Water,Education & Literacy,Environment & Forests,Health & Family Welfare,HIV/AIDS,Information & Communication Technology,Rural Development & Poverty Alleviation,Sports,Vocational Training,		
35	AR/2020/0270614	ARUNACHAL HEALTH ORGANISATION	arhealthorg@gmail.com	8132886678	Itanagar	Itanagar				
36	AR/2019/0222700	ARUNACHAL HINDI SANSTHAN	massotakam14@gmail.com	7005669353	NITIVIHAR VIP ROAD ITANAGAR PO/PS-ITANAGAR	ITANAGAR	ARUNACHAL PRADESH, 	Agriculture,Animal Husbandry, Dairying  &  Fisheries,Art & Culture,Biotechnology,Children,Civic Issues,Dalit Upliftment,Differently Abled,Disaster Management,Drinking Water,Education & Literacy,Aged/Elderly,Environment & Forests,Food Processing,Health & Family Welfare,HIV/AIDS,Housing,Human Rights,Information & Communication Technology,Labour & Employment,Land Resources,Legal Awareness & Aid,Micro Finance (SHGs),Micro Small & Medium Enterprises,Minority Issues,New & Renewable Energy,Nutrition,Panchayati Raj,Prisoner's Issues,Right to Information & Advocacy,Rural Development & Poverty Alleviation,Science & Technology,Scientific & Industrial Research,Sports,Tourism,Tribal Affairs,Urban Development & Poverty Alleviation,Vocational Training,Water Resources,Women's Development & Empowerment,Youth Affairs,		
37	AR/2020/0261897	ARUNACHAL HOLISTIC EDUCATION TRUST	ahetsociety@gmail.com	9436040557	Institute of Basic Education (IBE),Ganga, Itanagar,Arunachal Pradesh	Itanagar	ARUNACHAL PRADESH, 	Education & Literacy,		
38	AR/2018/0185841	ARUNACHAL JESUIT SOCIETY	ajspalizi@gmail.com	9436276495	Palizi Via Seppa	Palizi	ARUNACHAL PRADESH, 	Children,Civic Issues,Education & Literacy,Environment & Forests,Health & Family Welfare,Human Rights,Rural Development & Poverty Alleviation,Women's Development & Empowerment,Youth Affairs,Any Other,		
39	AR/2014/0076007	Arunachal Pali Vidyapith Society	apvssecretary@gmail.com	7005473293	Arunachal Pali Vidyapith Society Vill Chongkham District Namsai Arunachal Pradesh Pin 792102	Chongkham	ARUNACHAL PRADESH, 	Education & Literacy,Environment & Forests,Agriculture,Art & Culture,Differently Abled,Health & Family Welfare,HIV/AIDS,Micro Finance (SHGs),Tribal Affairs,Vocational Training,Youth Affairs,		
40	AR/2020/0268024	Arunachal Pradesh Abotani Community Confederation	manghahaji2@gmail.com	9436054641	Itanagar, Papum Pare	Itanagar	ARUNACHAL PRADESH, 	Art & Culture,Civic Issues,Education & Literacy,Environment & Forests,Health & Family Welfare,Human Rights,Labour & Employment,Legal Awareness & Aid,Minority Issues,Right to Information & Advocacy,Sports,Tourism,Tribal Affairs,Vocational Training,Women's Development & Empowerment,Youth Affairs,Agriculture,Animal Husbandry, Dairying  &  Fisheries,Children,Disaster Management,Housing,Nutrition,		
41	AR/2018/0189098	ARUNACHAL PRADESH BHIKKHU SANGHA	dhamma_vani@rediffmail.com	8787758665	CHOWKHAM, LOHIT-792102 (ARUNACHAL PRADESH)	LOHIT		Art & Culture,		
42	AR/2016/0114233	ARUNACHAL PRADESH CHARITABLE TASK	arunachalpradeshcharitabletask@gmail.com	9435400000	LEKHI VILLAGE,NAHARLAGUN, DIST:- PAPUM PARE, ARUNACHAL PRADESH PIN:-791110	NAHARLAGUN	ARUNACHAL PRADESH, 	Agriculture,Art & Culture,Education & Literacy,Environment & Forests,Health & Family Welfare,Legal Awareness & Aid,Nutrition,Rural Development & Poverty Alleviation,Sports,Tribal Affairs,Tourism,Urban Development & Poverty Alleviation,Women's Development & Empowerment,Youth Affairs,		
43	AR/2018/0185375	ARUNACHAL PRADESH COMMON CAUSE SOCIETY	tagrutk@gmail.com	9436068652	HONAHARLAGUN DISTPAPUM PARE STATEARUNACHAL PRADESHPIN NO. 791110	NAHARLAGUN	ARUNACHAL PRADESH, 	Agriculture,Animal Husbandry, Dairying  &  Fisheries,Civic Issues,Disaster Management,Drinking Water,Education & Literacy,Health & Family Welfare,Human Rights,Information & Communication Technology,Labour & Employment,Micro Finance (SHGs),Rural Development & Poverty Alleviation,Science & Technology,Vocational Training,Water Resources,Women's Development & Empowerment,Youth Affairs,Any Other,		
44	AR/2020/0268220	ARUNACHAL PRADESH DISABLE SPORTS ASSOCIATION	kongotaku1985@gmail.com	9436062862	G- EXTENSION NAHARLAGUN, PO AND PS NAHARLAGUN, DISTRICT PAPUM PARE, ARUNACHAL PRADESH	NAHARLAGUN				
45	AR/2020/0258982	ARUNACHAL PRADESH HANDLOOM HANDICRAFT DEVELOPMENT SOCIETY	bswapan681@gmail.com	8415075227	Directorate of Textile	Itanagar	ARUNACHAL PRADESH, 	Women's Development & Empowerment,		
46	AR/2018/0199084	ARUNACHAL PRADESH REFORMED JUVENILE WELFARE ASSOCIATION	rajhivgrurung@gmail.com	8794021889	DAMSITE, NAHARLAGUN	Papum Pare	ARUNACHAL PRADESH, 	Children,Civic Issues,Education & Literacy,Labour & Employment,		
47	AR/2016/0110012	Arunachal Pradesh Seva Sangh	apss_mdtc@rediffmail.com	9402275630	B- Sector, Doimukh, Near Post Office  P.O. & P.S. Doimukh  District Papumpare  Arunachal Pradesh Pin-code 791112	Doimukh	ARUNACHAL PRADESH, ASSAM, testingswss, ASSAM, 	Micro Small & Medium Enterprises,Vocational Training,Women's Development & Empowerment,		
48	AR/2016/0105358	Arunachal Pradesh State Weavers Coop Federation LTD	apstateweaverscoopfederationlt@gmail.com	9856182037	PO / PS ZIRO DISTLOWER SUBANSIRI STATEARUNACHAL PRADESHPIN NO. 791120	ZIRO	ARUNACHAL PRADESH, 	Animal Husbandry, Dairying  &  Fisheries,Agriculture,Art & Culture,Labour & Employment,Land Resources,Rural Development & Poverty Alleviation,Science & Technology,Sports,Vocational Training,Water Resources,Women's Development & Empowerment,Youth Affairs,Any Other,		
49	AR/2018/0215016	ARUNACHAL PRADESH TRIBAL RESEARCH & SKILL DEVELOPMENT SOCIETY	tarhsonam@gmail.com	8131870536	E-SECTOR NAHARLAGUN, NEAR DONYI POLO TEMPLE	PAPUMPARE	ARUNACHAL PRADESH, 	Art & Culture,Science & Technology,Scientific & Industrial Research,Tribal Affairs,		
50	AR/2016/0114336	Arunachal Siksha Vikas samiti	asvspachin@gmail.com	9436897598	Arunachal Siksha Vikas Samiti Pachin Colony, P.O. Naharlagun PB No-252 Pin-791110	Naharlagun	ARUNACHAL PRADESH, 	Education & Literacy,	http://arunachlsikshavikassamiti.org.in	
51	AR/2020/0269821	Arunachal Tribal Development Society	arutribaldevsoc@gmail.com	9436054352	CityItanagar, DistrictPapum pare StateArunachal Pradesh	Itanagar				
52	AR/2019/0245802	ARUNACHAL VIKAS EBUM SHIKSHA SANGATAAN	NEHRUMURTEM5@GMAIL.COM	9436041065	C-sector ,Naharlagun Arunachal Pradesh	itanagar	ARUNACHAL PRADESH, 	Agriculture,Animal Husbandry, Dairying  &  Fisheries,Education & Literacy,Environment & Forests,		
53	AR/2018/0208822	Arunachal Vikas Parishad	arunachalvikasparishad@gmail.com	9436898951	BANK TINALI, C SECTOR, ITANAGAR	ITANAGAR	ARUNACHAL PRADESH, 	Agriculture,Animal Husbandry, Dairying  &  Fisheries,Children,Civic Issues,Education & Literacy,Environment & Forests,Health & Family Welfare,Human Rights,Sports,Tribal Affairs,Vocational Training,	http://www.arunachalvikasparishad.com	
54	AR/2016/0096815	Arunachal Women And Child Welfare Society	anishaapum2012@gmail.com	9436048135	Village-Remi P.O P.S- Dambuk Lower Dibang Valley Arunachal Pradesh-792110	Dambuk	ARUNACHAL PRADESH, 	Agriculture,Animal Husbandry, Dairying  &  Fisheries,Art & Culture,Children,Differently Abled,Disaster Management,Education & Literacy,Aged/Elderly,Environment & Forests,Health & Family Welfare,Human Rights,Information & Communication Technology,Micro Finance (SHGs),Nutrition,Science & Technology,Sports,Vocational Training,Women's Development & Empowerment,Any Other,		
55	AR/2018/0191198	ARUNJYOTI KALYAN SANSTHA	tabayallnabam@gmail.com	9862773797	WARD NO 5, VIVEK VIHAR	ITANAGAR	ARUNACHAL PRADESH, 	Vocational Training,		
56	AR/2017/0160561	ARUNODAY WELFARE SOCIETY	arunodayatawang@gmail.com	9599439029	TL Apartment, Polo Colony, Opp. Daily Market, Naharlagun, District: Papumpare, Arunachal Pradesh-791110	Itanagar	ARUNACHAL PRADESH, 	Art & Culture,Children,Civic Issues,Education & Literacy,Aged/Elderly,Environment & Forests,Health & Family Welfare,HIV/AIDS,Human Rights,Panchayati Raj,Sports,Tourism,Tribal Affairs,Women's Development & Empowerment,Youth Affairs,		
57	AR/2018/0206583	ATHUPOPO SOCIAL FOUNDATION	athupoposf01@gmail.com	9436883088	HO. ROING LOWER DIBANG VALLEY DIST. AP	ROING	ARUNACHAL PRADESH, 	Agriculture,Animal Husbandry, Dairying  &  Fisheries,Children,Civic Issues,Disaster Management,Drinking Water,Education & Literacy,Health & Family Welfare,HIV/AIDS,Human Rights,Information & Communication Technology,Labour & Employment,Legal Awareness & Aid,Micro Finance (SHGs),Micro Small & Medium Enterprises,New & Renewable Energy,Right to Information & Advocacy,Rural Development & Poverty Alleviation,Science & Technology,Scientific & Industrial Research,Sports,Tourism,Tribal Affairs,Urban Development & Poverty Alleviation,Vocational Training,Water Resources,Women's Development & Empowerment,Youth Affairs,Any Other,		
58	AR/2020/0263598	AYANAM ANE MULTIPURPOSE COOPERATIVE SOCIETY LTD	aneayanam@gmail.com	8974142034	Village Jirdin, PO/PSAalo, District - West Siang, Arunachal Pradesh, Pin- 791001	Aalo				
59	AR/2018/0198212	BAAM BOKAM WELFARE ASSOCIATION	nasilarbin77@gmail.com	9402450252	DUMPORIJO, UPPER SUBANSIRI DISTRICT, A.P.791122	DUMPORIJO	ARUNACHAL PRADESH, 	Agriculture,Art & Culture,Children,Civic Issues,Disaster Management,Drinking Water,Food Processing,Health & Family Welfare,HIV/AIDS,Human Rights,Information & Communication Technology,Labour & Employment,Micro Finance (SHGs),Micro Small & Medium Enterprises,Minority Issues,Rural Development & Poverty Alleviation,Science & Technology,Scientific & Industrial Research,Sports,Tourism,Tribal Affairs,Urban Development & Poverty Alleviation,Vocational Training,Water Resources,Women's Development & Empowerment,Youth Affairs,Any Other,		
60	AR/2018/0202050	BANGGO WOMEN WELFARE ASSOCIATION	gekyamjijong@gmail.com	9402605572	Yingkiong, Upper Siang District Arunachal Pradesh pin codec 791002	Yingkiong Upper Siang	ARUNACHAL PRADESH, 	Art & Culture,Disaster Management,Education & Literacy,Food Processing,Micro Small & Medium Enterprises,Nutrition,Tourism,Vocational Training,	http://www.bwwaykg.org	
61	AR/2017/0151705	BAPU WELFARE SOCIETY	chonolum11@gmail.com	8014270015	VILL-TAFRAGAMPO-TAFRAGAM PS-TEZU	TEZU	ARUNACHAL PRADESH, 	Art & Culture,Animal Husbandry, Dairying  &  Fisheries,Drinking Water,Education & Literacy,Environment & Forests,Micro Finance (SHGs),Rural Development & Poverty Alleviation,Sports,		
62	AR/2017/0158564	BETHEL LIFECARE CHARITABLE TRUST	blctrust2014@gmail.com	8486033907	ABOVE CHENA PHARMACY PO/PS JAIRAMPUR DIST CHANGLANG792121 (A.P.)	JAIRAMPUR	ARUNACHAL PRADESH, ASSAM, 	Education & Literacy,Environment & Forests,Food Processing,Health & Family Welfare,Human Rights,Information & Communication Technology,Labour & Employment,Legal Awareness & Aid,Micro Finance (SHGs),Tourism,Vocational Training,Women's Development & Empowerment,		
63	AR/2017/0120391	Bharat Sevashram Sangha Itanagar	bssitanagar17@gmail.com	8794241369	Bharat Sevashram Sangha Itanagar Post Itanagar Kalimandir Dist. Papumpare Arunachal Pradesh	Itanagar	ARUNACHAL PRADESH, 	Disaster Management,Education & Literacy,Sports,Tribal Affairs,Vocational Training,		
64	AR/2017/0156427	Bhartiya Adim Jati Sevak Sangh Rupa Branch Arunachal Pradesh	ashramrajendra@gmail.com	9436246011	At Post Rupa, Dist. West Kameng	Rupa	ARUNACHAL PRADESH, 	Children,Education & Literacy,Tribal Affairs,	http://www.bajss.org	
65	AR/2017/0175518	BIGO MEGGO WELFARE SOCIETY	bigomeggosociety@gmail.com	9101466380	PAKAM VILLAGE, AALO PO/PS AALO	AALO	ARUNACHAL PRADESH, 	Animal Husbandry, Dairying  &  Fisheries,Urban Development & Poverty Alleviation,Animal Husbandry, Dairying  &  Fisheries,Food Processing,Urban Development & Poverty Alleviation,	http://www.bigomeggo.com	
66	AR/2019/0244917	BINKING DARIK WELFARE SOCIETY	taringdui3@gmail.com	9436054167	SIYUM CIRCLE, UPPER SUBANSIRI DISTRICT DAPORIJO, ARUNACHAL PRADESH 791122	DAPORIJO	ARUNACHAL PRADESH, 	Agriculture,Animal Husbandry, Dairying  &  Fisheries,Art & Culture,Biotechnology,Civic Issues,Education & Literacy,Environment & Forests,Food Processing,Health & Family Welfare,Information & Communication Technology,Land Resources,Legal Awareness & Aid,Micro Small & Medium Enterprises,Minority Issues,Nutrition,Sports,Tourism,Tribal Affairs,Urban Development & Poverty Alleviation,Vocational Training,Water Resources,Women's Development & Empowerment,Youth Affairs,		
67	AR/2020/0259505	BIRUK HAPA MULTIPURPOSE COOPERATIVE SOCIETY LTD	GIMIJONEY2018@GMAIL.COM	9774129235	PALIN POPS-PALIN DISTRICT KRA DAADI AP 791118	ITANAGAR	ARUNACHAL PRADESH, 			
68	AR/2020/0259096	BOGNE MULTIPURPOSE COOPERATIVE SOCIETY LTD.	tapontali2020@gmail.com	7085801553	BOGNE VILLAGE, PO AND PS KAYING, DISTRICT SIANG, ARUNACHAL PRADESH	KAYING	ARUNACHAL PRADESH, 	Any Other,		
69	AR/2019/0235082	BOMDUNG BOMPE MULTIPURPOSE COOPERATIVE SOCIETY LIMITED	bomdungbompe@gmail.com	8257831602	PO/PSTALI KRADADI DISTRICT ARUNACHAL PRADESH	TALI 				
70	AR/2020/0258076	BORANG ERANG KEBANG	kebangborangerang@gmail.com	7085277439	MUSUP (BEK), NH-215, NONGKHON, LEKANG CIRCLE	NONGKHON	ARUNACHAL PRADESH, 	Micro Small & Medium Enterprises,		
71	AR/2020/0262965	BORDUMSA MAHILA MANDAL	mahilamandalbsa@gmail.com	7896506927	NEAR AGRICULTURE OFFICE, BORDUMSA, DIST- CHANGLANG, ARUNACHAL PRADESH, PIN- 792056	BORDUMSA	ARUNACHAL PRADESH, 	Food Processing,Micro Finance (SHGs),Women's Development & Empowerment,		
72	AR/2017/0115141	BRIGHT FUTURE SOCIETY	brightfuturesociety1@gmail.com	9436228030	Near water tank, Above D.N College Road, Vivek-Vihar, P.O- R.K Mission, District: Papum-Pare, Itanagar-791113, Arunachal Pradesh	ITANAGAR		Animal Husbandry, Dairying  &  Fisheries,Aged/Elderly,Agriculture,Art & Culture,Children,Civic Issues,Differently Abled,		
73	AR/2011/0040517	bright future society ziro	bfsziro@yahoo.com	9436047183	Bright Future Society, Ziro (BFSZ) C/o Shri Kuru Tago,Chairman M.G. road, Siiring Pakho, Hapoli PS/PO-Ziro PB No.44 Dist-Lower Subansiri Arunachal Pradesh. Pincode-791120	Ziro	ARUNACHAL PRADESH, 	Animal Husbandry, Dairying  &  Fisheries,Agriculture,Art & Culture,Drinking Water,Environment & Forests,Health & Family Welfare,HIV/AIDS,Micro Finance (SHGs),Micro Small & Medium Enterprises,Rural Development & Poverty Alleviation,Tribal Affairs,Tourism,Urban Development & Poverty Alleviation,Vocational Training,Women's Development & Empowerment,Youth Affairs,	http://www.bfsziro.com	
74	AR/2012/0049266	Buddhist Culture Preservation Society Bomdila	bcpsociety@yahoo.com	9436045755	Buddhist Culture Preservation Society P.O. PS Bomdila West Kameng District Arunachal Pradesh PIN-790001	Bomdila	ARUNACHAL PRADESH, 	Art & Culture,Education & Literacy,Environment & Forests,Health & Family Welfare,Tribal Affairs,Vocational Training,Any Other,	http://www.bcpsociety.org	
75	AR/2016/0105214	BUI WELFARE SOCIETY	buiwelfaresociety@gmail.com	9436432222	Near Feild Publicity Office / Treasury Office, Daporijo, Upper Subansiri District, Arunachal Pradesh - 791122	DAPORIJO	ARUNACHAL PRADESH, 	Art & Culture,Education & Literacy,Health & Family Welfare,Sports,Tribal Affairs,Women's Development & Empowerment,	http://buiwelfaresociety.org	
76	AR/2020/0250055	BYB INFRASTRUCTURE PRIVATE LIMITED	bybinfrastructurecompany@yahoo.com	9436857906	TYPE-1, COLONY, SEPPA	SEPPA	ARUNACHAL PRADESH, 	Agriculture,Housing,Micro Finance (SHGs),Any Other,		
77	AR/2020/0250563	CARE ME HOME WELFARE SOCIETY	caremehome01@gmail.com	8256992776	HO. KAILASHPUR DIST- TIRAP ARUNACHAL PRADESHPIN NO. 792130	KHONSA	ARUNACHAL PRADESH, 	Agriculture,Animal Husbandry, Dairying  &  Fisheries,Art & Culture,Children,Civic Issues,Differently Abled,Disaster Management,Drinking Water,Education & Literacy,Aged/Elderly,Environment & Forests,Food Processing,Health & Family Welfare,HIV/AIDS,Housing,Human Rights,Information & Communication Technology,Labour & Employment,Land Resources,Legal Awareness & Aid,Micro Finance (SHGs),Micro Small & Medium Enterprises,Minority Issues,New & Renewable Energy,Nutrition,Panchayati Raj,Right to Information & Advocacy,Rural Development & Poverty Alleviation,Science & Technology,Sports,Tourism,Tribal Affairs,Urban Development & Poverty Alleviation,Vocational Training,Water Resources,Women's Development & Empowerment,Youth Affairs,Any Other,		
78	AR/2017/0169410	Catholic Church Welfare Society 	catholicchurchws@gmail.com	7629958149	P.B.No. 294	Naharlagun	ARUNACHAL PRADESH, 			
79	AR/2016/0100846	Centre for Buddhist Cultural Studies	cbcs1977@yahoo.com	9402270201	Centre for Buddhist Cultural Studies  Tawang Monastery  P.O. Tawang  Distt. Tawang  Arunachal Pradesh  790104	Tawang		Art & Culture,Education & Literacy,Environment & Forests,		
80	AR/2020/0257945	Chabugi Foundation	chabugifoundation@gmail.com	7005434064	Sadhanarama Bana Vihara Foundation, Jyotsnapur,	Diyun	ARUNACHAL PRADESH, 	Agriculture,Art & Culture,Education & Literacy,Rural Development & Poverty Alleviation,Vocational Training,Women's Development & Empowerment,		
81	AR/2019/0247175	Change foundation	hapimene@gmail.com	8837321250	KERA ATI VILLAGE	ROING	ARUNACHAL PRADESH, 	Agriculture,Animal Husbandry, Dairying  &  Fisheries,Art & Culture,Children,Civic Issues,Education & Literacy,Environment & Forests,Health & Family Welfare,Information & Communication Technology,Labour & Employment,Micro Finance (SHGs),New & Renewable Energy,Rural Development & Poverty Alleviation,Scientific & Industrial Research,Sports,Urban Development & Poverty Alleviation,Vocational Training,Women's Development & Empowerment,Youth Affairs,		
82	AR/2011/0044785	Changkiu Bagang VFMC	chungmabagang2019@gmail.com	9402621813	Changkiu Bagang,East Kameng District	Arunchal	ARUNACHAL PRADESH, 	Agriculture,Art & Culture,	http://www.cbvfmc.com	
83	AR/2016/0106748	Chayang Mission Society	chayangmission@gmail.com	9436044457	Ms Bagang Kerosene Agency, Type IV Colony, Seppa PO Seppa PS Seppa PIN 790102	Seppa	ARUNACHAL PRADESH, 	Animal Husbandry, Dairying  &  Fisheries,Aged/Elderly,Agriculture,Art & Culture,Children,Differently Abled,Disaster Management,Education & Literacy,Environment & Forests,Food Processing,Health & Family Welfare,Housing,Human Rights,Information & Communication Technology,Legal Awareness & Aid,Micro Small & Medium Enterprises,Nutrition,Rural Development & Poverty Alleviation,Tribal Affairs,Vocational Training,Women's Development & Empowerment,		
84	AR/2020/0262033	CHOBA THARA MULTIPURPOSE COOPERATIVE SOCIETY LIMITED	ridotabiu007@gmail.com	8638059990	Village Palin Post PalinDistrict Kurrung KumayArunachal Pradesh	Kurrung Kumay  	ARUNACHAL PRADESH, 	Agriculture,Children,Civic Issues,Education & Literacy,Food Processing,Health & Family Welfare,Human Rights,Land Resources,Micro Finance (SHGs),Micro Small & Medium Enterprises,Rural Development & Poverty Alleviation,Women's Development & Empowerment,		
85	AR/2020/0261591	CHOEPHEL-LING TIBETAN SERVICE CO-OPERATIVE SOCIETY LIMITED	miaonyamdel@gmail.com	9436836986	CTSCS Ltd, TR camp, P.O-Miao, Dist-Changlang, Arunachal Pradesh-792122.	Miao	ARUNACHAL PRADESH, 	Art & Culture,		
86	AR/2019/0245170	CLEAN, GREEN & SOUND INDIAN SOCIETY	phunchusonam@gmail.com	9402895666	VILL-RUPA PO/PS-RUPA, WEST KAMENG DISTRICT ARUNACHAL PRADESH PIN-790003	RUPA	ARUNACHAL PRADESH, 	Agriculture,Animal Husbandry, Dairying  &  Fisheries,Art & Culture,Disaster Management,Drinking Water,Education & Literacy,Environment & Forests,Food Processing,Human Rights,Sports,Youth Affairs,Biotechnology,Health & Family Welfare,Nutrition,Science & Technology,Tourism,Women's Development & Empowerment,		
87	AR/2020/0263496	COMING GENERATION FOR ARUNACHAL PRADESH	paputayem22@gmail.com	7629856153	SEPPA TOWN, NEAR POST OFFICE,	SEPPA	ARUNACHAL PRADESH, 	Any Other,		
88	AR/2018/0206603	Community & Rural Development Society	ajedolo@gmail.com	9436896910	JB Complex, Near Basar Building,C	Itanagar	ARUNACHAL PRADESH, 	Vocational Training,Civic Issues,Urban Development & Poverty Alleviation,Women's Development & Empowerment,Youth Affairs,Agriculture,Animal Husbandry, Dairying  &  Fisheries,Art & Culture,Biotechnology,Children,Differently Abled,Disaster Management,Drinking Water,Education & Literacy,Aged/Elderly,Environment & Forests,Food Processing,Health & Family Welfare,HIV/AIDS,Housing,Human Rights,Information & Communication Technology,Labour & Employment,Micro Finance (SHGs),Micro Small & Medium Enterprises,Nutrition,Prisoner's Issues,Right to Information & Advocacy,Rural Development & Poverty Alleviation,Science & Technology,Scientific & Industrial Research,Sports,Tourism,Tribal Affairs,Water Resources,	http://www.crdsskills.com	
89	AR/2018/0188988	COMPREHENSIVE ASSOCIATION OF RURAL EXCELENCE	care.taling696@gmail.com	8257009191	HO. CHIMPU, ITANAGAR DIST. PAPUM PARE, ARUNACHAL PRADESHPIN NO. 791113	PAPUM PARE	ARUNACHAL PRADESH, 	Agriculture,Animal Husbandry, Dairying  &  Fisheries,Art & Culture,Children,Civic Issues,Disaster Management,Drinking Water,Education & Literacy,Health & Family Welfare,Human Rights,Information & Communication Technology,Labour & Employment,Land Resources,Legal Awareness & Aid,Micro Finance (SHGs),Micro Small & Medium Enterprises,Rural Development & Poverty Alleviation,Sports,Tourism,Tribal Affairs,Vocational Training,Water Resources,Women's Development & Empowerment,Youth Affairs,Any Other,		
90	AR/2020/0249767	COMPREHENSIVE DEVELOPMENT MISSION	cdmarunachal@gmail.com	9436008931	AT-Dam SideNaharlagun P.O-Naharlagun P.S-Naharlagun Dist-Papumpare State- Arunachal Pradesh Pin-791110	Naharlagun	ARUNACHAL PRADESH, 	Animal Husbandry, Dairying  &  Fisheries,Art & Culture,Biotechnology,Children,Civic Issues,Dalit Upliftment,Differently Abled,Disaster Management,Drinking Water,Education & Literacy,Aged/Elderly,Environment & Forests,Food Processing,Health & Family Welfare,HIV/AIDS,Human Rights,Information & Communication Technology,Labour & Employment,Land Resources,Micro Finance (SHGs),Micro Small & Medium Enterprises,New & Renewable Energy,Nutrition,Rural Development & Poverty Alleviation,Tourism,Tribal Affairs,Vocational Training,Water Resources,		
91	AR/2018/0195695	COMPUTER SOCIETY OF ARUNACHAL PRADESH TECHNO PARK	apo.csap@gmail.com	9436271264	NIRJULI, PAPAUM PARE	ITANAGAR	ARUNACHAL PRADESH, 	Education & Literacy,Information & Communication Technology,Labour & Employment,New & Renewable Energy,Rural Development & Poverty Alleviation,Science & Technology,Scientific & Industrial Research,Vocational Training,Women's Development & Empowerment,Youth Affairs,Agriculture,Animal Husbandry, Dairying  &  Fisheries,Art & Culture,Biotechnology,Children,Differently Abled,Disaster Management,Drinking Water,Aged/Elderly,Environment & Forests,Food Processing,Health & Family Welfare,HIV/AIDS,Housing,Human Rights,Land Resources,Micro Finance (SHGs),Micro Small & Medium Enterprises,Minority Issues,Right to Information & Advocacy,Sports,Tourism,Tribal Affairs,Urban Development & Poverty Alleviation,Water Resources,		
92	AR/2020/0271946	D G RURAL DEVELOPMENT SOCIETY 	dongligollo2@gmail.com	8259015724	Town-Old ALC Line,PO-Pakke Kessang,PS-Pakke Kessang,Arunachal Pradesh	Itanagar	ARUNACHAL PRADESH, 	Art & Culture,Children,Civic Issues,Differently Abled,Disaster Management,Drinking Water,Education & Literacy,Aged/Elderly,Environment & Forests,Health & Family Welfare,HIV/AIDS,Human Rights,Information & Communication Technology,Labour & Employment,Legal Awareness & Aid,Micro Finance (SHGs),Minority Issues,Right to Information & Advocacy,Rural Development & Poverty Alleviation,Sports,Tourism,Tribal Affairs,Vocational Training,Water Resources,Women's Development & Empowerment,Youth Affairs,Environment & Forests,		
93	AR/2016/0112458	DADI HAMGIO CHARITABLE SOCIETY	dhcsociety@gmail.com	9485231366	O/o Dadi Hamgio Charitable Society Near Civil Secreteriate Office, P.O/P.S- Itanagar, Arunachal Pradesh, 791111	Itanagar	ARUNACHAL PRADESH, 	Animal Husbandry, Dairying  &  Fisheries,Aged/Elderly,Agriculture,Art & Culture,Children,Civic Issues,Disaster Management,Drinking Water,Education & Literacy,Environment & Forests,Food Processing,Health & Family Welfare,HIV/AIDS,Legal Awareness & Aid,Labour & Employment,Micro Finance (SHGs),Minority Issues,Micro Small & Medium Enterprises,New & Renewable Energy,Nutrition,Rural Development & Poverty Alleviation,Scientific & Industrial Research,Sports,Tribal Affairs,Housing,Information & Communication Technology,Urban Development & Poverty Alleviation,Women's Development & Empowerment,Youth Affairs,	http://dhcsociety.com	
94	AR/2019/0239075	Dangba-Leba Multipurpose Cooperative Society Limited	dangbalebamcssociety@gmail.com	9582699760	Sangram, P.O	Sangram		Agriculture,Children,		
95	AR/2019/0236072	Danyi Rilla Society	danyirillasociety2006@gmail.com	9436229745	C/o Ama Apartment, Hapoli Bazar, Near Old AMCS Godown, Para Pabu, P.O-Hapoli(Ziro), Lower Suansiri.	Ziro	ARUNACHAL PRADESH, 	Animal Husbandry, Dairying  &  Fisheries,Civic Issues,Environment & Forests,Land Resources,Micro Finance (SHGs),Tourism,Any Other,Education & Literacy,		
96	AR/2019/0238806	DEEPAK NABAM LIVING HOME	deepaknabam12@gmail.com	9436059833	C/O DEEPAK NABAM Senki Park, Itanagar P.O: R.K Mission, P:S: Itanagar, Papum Pare, Arunachal Pradesh -791113	ITANAGAR	ARUNACHAL PRADESH, 	Any Other,	http://deepaknabamlivinghome.org	
97	AR/2017/0158966	DEFENCE CLUB ZIRO	defenceclub61@gmail.com	9436291409	ZIRO, LOWER SUBANSIRI DISTRICT, ARUNACHAL PRADESH	ZIRO	ARUNACHAL PRADESH, 	Animal Husbandry, Dairying  &  Fisheries,Art & Culture,Biotechnology,Children,Civic Issues,Differently Abled,Disaster Management,Drinking Water,Education & Literacy,Aged/Elderly,Environment & Forests,Food Processing,		
98	AR/2015/0088375	Denning Society Tezu	badang08@hotmail.com	9862244878	Denning Society  Near RWD Central Store  PO Tezu PS Tezu  Lohit District 792001  Arunachal Pradesh	Tezu	ARUNACHAL PRADESH, 	Animal Husbandry, Dairying  &  Fisheries,Aged/Elderly,Agriculture,Art & Culture,Children,Civic Issues,Differently Abled,Disaster Management,Dalit Upliftment,Drinking Water,Education & Literacy,Environment & Forests,Food Processing,Health & Family Welfare,HIV/AIDS,Housing,Human Rights,Information & Communication Technology,Legal Awareness & Aid,Labour & Employment,Land Resources,Micro Finance (SHGs),Minority Issues,Micro Small & Medium Enterprises,New & Renewable Energy,		
99	AR/2018/0188037	DERA V.F.M.C	talukdera1962@gmail.com	9402046811	DERA VILLAGE, UPPER SUBANSIRI DISTRICT, ARUNACHAL PRADESH	DERA VILLAGE	ARUNACHAL PRADESH, 	Animal Husbandry, Dairying  &  Fisheries,Art & Culture,Biotechnology,Children,Civic Issues,Dalit Upliftment,Differently Abled,Disaster Management,Drinking Water,Education & Literacy,Health & Family Welfare,Human Rights,Information & Communication Technology,Labour & Employment,Legal Awareness & Aid,Micro Finance (SHGs),Micro Small & Medium Enterprises,Minority Issues,Right to Information & Advocacy,Rural Development & Poverty Alleviation,Tribal Affairs,Urban Development & Poverty Alleviation,Vocational Training,Water Resources,Women's Development & Empowerment,Youth Affairs,Any Other,		
100	AR/2017/0167516	DIILYANG DIIBU MULTIPURPOSE COOPERATIVE SOCIETY LIMITED	njailyang@gmail.com	9774137717	KHOTER ZIRO VILLAGE RERU PO/PS ZIRO	ZIRO				
101	AR/2017/0160001	DILI VALLEY SOCIETY	societydilivalley@gmail.com	8413937080	VILLJORAM P.OJORAMP.SYACHULI DIST LOWER SUBANSIRI STATE- ARUNACHAL PRADESH PIN NO.- 791120	ZIRO				
102	AR/2016/0108712	Dinii Koling MPCS Ltd	info.diniikoling@gmail.com	9954208601	Daporijo, Upper Subansiri District, Arunachal Pradesh	Daporijo	ARUNACHAL PRADESH, 	Animal Husbandry, Dairying  &  Fisheries,Aged/Elderly,Agriculture,Art & Culture,Biotechnology,Children,Civic Issues,Differently Abled,Disaster Management,Dalit Upliftment,Drinking Water,Education & Literacy,Environment & Forests,Food Processing,Health & Family Welfare,HIV/AIDS,Housing,Human Rights,Information & Communication Technology,Legal Awareness & Aid,Labour & Employment,Land Resources,Micro Finance (SHGs),Minority Issues,Micro Small & Medium Enterprises,		
103	AR/2017/0169068	Diocese of Itanagar	dioceseofitanagar2@gmail.com	9436228087	Post Box No. 294 Naharlagun	Naharlagun	ARUNACHAL PRADESH, 		http://dioceseofitanagar.org	
104	AR/2017/0178283	DIOCESE OF MIAO	edvinprabhu@gmail.com	8131851234	Miao, P.O Miao	Miao	ARUNACHAL PRADESH, 	Children,Civic Issues,Differently Abled,Disaster Management,Drinking Water,Education & Literacy,Environment & Forests,Health & Family Welfare,Human Rights,Labour & Employment,Legal Awareness & Aid,Minority Issues,Rural Development & Poverty Alleviation,Tribal Affairs,Urban Development & Poverty Alleviation,Vocational Training,Women's Development & Empowerment,Youth Affairs,Any Other,		
105	AR/2020/0257857	Disha	dishakhonsa11@gmail.com	7005674124	Engineering Colony Khonsa, Dist Tirap	Khonsa	ARUNACHAL PRADESH, 	Agriculture,Drinking Water,Environment & Forests,Health & Family Welfare,Micro Finance (SHGs),Vocational Training,Education & Literacy,		
106	AR/2009/0021065	District Horticulture And Agriculture Development Cooperative Society Ltd	jarobagang001@gmail.com	8974383761	Regd. office,Seppa,   District East Kameng,   Arunachal Pradesh.   corresponding office, Yayam Complex, Papu Hill, Naharlagun, Distt. papum pare, pincode -791110	Naharlagun	ARUNACHAL PRADESH, 	Agriculture,Art & Culture,	http://	
107	AR/2020/0268387	DITE MOPANG WELFARE SOCIETY	Info@ditemopang.org	9862959444	SILLE PASIGHAT, DIST.- EAST SIANG, ARUNACHAL PRADESH	SILLE PASIGHAT		Agriculture,Animal Husbandry, Dairying  &  Fisheries,Art & Culture,Disaster Management,Education & Literacy,Aged/Elderly,Environment & Forests,Food Processing,Health & Family Welfare,HIV/AIDS,Human Rights,Micro Small & Medium Enterprises,Minority Issues,Panchayati Raj,Right to Information & Advocacy,Rural Development & Poverty Alleviation,Sports,Tourism,Tribal Affairs,Urban Development & Poverty Alleviation,Women's Development & Empowerment,		
108	AR/2018/0219722	DIVINE HILLS FOUNDATION 	dhfoundation11@gmail.com	9436288457	Near Clock Tower, Ganga Market, Itanagar, Arunachal Pradesh.	Itanagar	ARUNACHAL PRADESH, 	Agriculture,Animal Husbandry, Dairying  &  Fisheries,Art & Culture,Children,Civic Issues,Dalit Upliftment,Disaster Management,Drinking Water,Education & Literacy,Aged/Elderly,Environment & Forests,Food Processing,Health & Family Welfare,HIV/AIDS,Housing,Micro Finance (SHGs),Micro Small & Medium Enterprises,Nutrition,Panchayati Raj,Rural Development & Poverty Alleviation,Sports,Tourism,Urban Development & Poverty Alleviation,Water Resources,Women's Development & Empowerment,Science & Technology,Tribal Affairs,		
109	AR/2017/0172368	DIVINE WORD SOCIETY	dwsseppa@gmail.com	9436897953	Nyari Welly Model village	Seppa	ARUNACHAL PRADESH, 	Children,Differently Abled,Education & Literacy,Aged/Elderly,Urban Development & Poverty Alleviation,Vocational Training,Any Other,		
110	AR/2020/0265983	Diyun Co-operative General Stores Ltd. 	diyuncooperativegeneralstores@gmail.com	7972263240	Diyun bazar, near Buddha Vihar PO/PS Diyun, Dist Changlang, Arunachal Pradesh PIN- 792103	Diyun	ARUNACHAL PRADESH, 	Agriculture,Animal Husbandry, Dairying  &  Fisheries,Education & Literacy,Environment & Forests,Food Processing,Micro Small & Medium Enterprises,Rural Development & Poverty Alleviation,		
111	AR/2018/0189598	DODUM DOL WELFARE SOCIETY	tabayamu@gmail.com	8794427720	YAZALI DIST, LOWER SUBANSIRI, ARUNACHAL PRADESH 791120	YAZALI	ARUNACHAL PRADESH, 	Children,Agriculture,Art & Culture,Education & Literacy,Health & Family Welfare,HIV/AIDS,Labour & Employment,Rural Development & Poverty Alleviation,Tribal Affairs,Vocational Training,Women's Development & Empowerment,		
112	AR/2020/0266883	DOKUM MULTIPURPOSE COOPERATIVE SOCIETY LIMITED	bengiatayu@gmail.com	8730020500	KOLORIANG, P.O KOLORIANG KURUNG KUMEY DISTRICT, ARUNACHAL PRADESH	ARUNACHAL PRADESH		Agriculture,Animal Husbandry, Dairying  &  Fisheries,Art & Culture,Biotechnology,Children,Civic Issues,Dalit Upliftment,Differently Abled,Disaster Management,Drinking Water,Education & Literacy,Aged/Elderly,Environment & Forests,Food Processing,Health & Family Welfare,HIV/AIDS,Housing,Human Rights,Information & Communication Technology,Labour & Employment,Land Resources,Legal Awareness & Aid,Micro Finance (SHGs),Micro Small & Medium Enterprises,Minority Issues,New & Renewable Energy,Nutrition,Panchayati Raj,Prisoner's Issues,Right to Information & Advocacy,Rural Development & Poverty Alleviation,Science & Technology,Scientific & Industrial Research,Sports,Tourism,Tribal Affairs,Urban Development & Poverty Alleviation,Vocational Training,Water Resources,Women's Development & Empowerment,		
113	AR/2016/0107208	DOLYANG CHANJANG TANI BARMII SOCIETY	rexmica@gmail.com	9436222174	QUARTER NO 56 TYPE IIC SECTOR NAHARLAGUN POST OFFICE NAHARLAGUN POLICE STATION NAHARLAGUN	NAHARLAGUN	ARUNACHAL PRADESH, 	Women's Development & Empowerment,		
114	AR/2020/0267560	DON BOSCO (LONGDING)	angelkuldeepsdb@gmail.com	7085937102	DON BOSCO SCHOOL LONGDING VILLAGE NIAUNU	LONGDING				
115	AR/2020/0262538	DONYI ANE MULTIPURPOSE COOPERATIVE SOCIETY LIMITED	khenewagroup@gmail.com	9402915867	VILL BOSSO COLONY, SEPPA PO/ PS SEPPA DISTRICT EAST KAMENG STATE ARUNACHAL PRADESH PIN CODE NO 790102	SEPPA	ARUNACHAL PRADESH, 	Agriculture,Animal Husbandry, Dairying  &  Fisheries,Art & Culture,Children,Civic Issues,Disaster Management,Drinking Water,Education & Literacy,Food Processing,Health & Family Welfare,Human Rights,Information & Communication Technology,Labour & Employment,Micro Finance (SHGs),Science & Technology,Sports,Tourism,Tribal Affairs,Vocational Training,Water Resources,Women's Development & Empowerment,Youth Affairs,Any Other,		
116	AR/2010/0032172	Donyi Mumsi Foundation	linksukh02@gmail.com	9436634236	C/o Donyi Mumsi Foundation School  Ganga, Itanagar	Itanagar		Art & Culture,Civic Issues,Drinking Water,Education & Literacy,Food Processing,Health & Family Welfare,HIV/AIDS,Tribal Affairs,Tourism,Vocational Training,Women's Development & Empowerment,Youth Affairs,		
117	AR/2020/0256682	DOPIK MULTI-PURPOSE SOCIETY	dmpsociety2002@gmail.com	9856206738	VILLAGE.DOBAM, KARSINGSA DISTRICT.PAPUM PARE STATE.ARUNACHAL PRADESH PIN NO.791110	KARSINGSA	ARUNACHAL PRADESH, 	Agriculture,Art & Culture,Children,Civic Issues,Drinking Water,Food Processing,Health & Family Welfare,Human Rights,Labour & Employment,Micro Finance (SHGs),Micro Small & Medium Enterprises,Sports,Tourism,Tribal Affairs,Urban Development & Poverty Alleviation,Vocational Training,Water Resources,Women's Development & Empowerment,Youth Affairs,Any Other,		
118	AR/2018/0214115	DUNYO YOUTH CLUB	podotajen792@gmail.com	9402933593	TAMUYINGBE, MONIGONG	MONIGONG	ARUNACHAL PRADESH, 	Agriculture,Civic Issues,Education & Literacy,Environment & Forests,Drinking Water,Health & Family Welfare,	http://www.dunyoyouth.com	
119	AR/2020/0261680	East Siang Mising Walfare Society	eastsiangmisingwelfaresociety@gmail.com	9436853189	PASIGHAT, EAST SIANG DISTRICT, ARUNACHAL PRADESH	PASIGHAT	ARUNACHAL PRADESH, 	Tribal Affairs,		
120	AR/2020/0262278	ECO FRIENDLY SOCIETY OF MAGI VILL	ecofriendlysocietyofmagivill@gmail.com	7005178483	MAGI VILLAGE, DIST WEST SIANG, ARUNACHAL PRADESH	ARUNACHAL PRADESH		Agriculture,Animal Husbandry, Dairying  &  Fisheries,Art & Culture,Biotechnology,Children,Civic Issues,Dalit Upliftment,Differently Abled,Disaster Management,Drinking Water,Education & Literacy,Aged/Elderly,Environment & Forests,Food Processing,Health & Family Welfare,HIV/AIDS,Housing,Human Rights,Information & Communication Technology,Labour & Employment,Land Resources,Legal Awareness & Aid,Micro Finance (SHGs),Micro Small & Medium Enterprises,Minority Issues,New & Renewable Energy,Nutrition,Panchayati Raj,Prisoner's Issues,Right to Information & Advocacy,Rural Development & Poverty Alleviation,Science & Technology,Scientific & Industrial Research,Sports,Tourism,Tribal Affairs,Urban Development & Poverty Alleviation,Vocational Training,Water Resources,Women's Development & Empowerment,		
121	AR/2018/0192898	Education and Cultural Development Society 	nabamakin@gmail.com	9436418888	head office :Village Bello-II Po/Ps Kimin-791121 District Papumapare Branch office :Village Papu-I Po/Ps naharlagun -791110District Papumapare	kimin	ARUNACHAL PRADESH, 	Any Other,Vocational Training,	http://www.ecdsarunachal.org	
122	AR/2018/0195928	Ekha Jan Sambridhi Sansthan	kumodkr9@yahoo.co.in	8860286299	Pappu Nallah Papum Pare Itanagar Arunachal Pradesh India	Itanagar	ARUNACHAL PRADESH, 	Civic Issues,Children,Differently Abled,Education & Literacy,Drinking Water,Aged/Elderly,Environment & Forests,Health & Family Welfare,Housing,Information & Communication Technology,New & Renewable Energy,Rural Development & Poverty Alleviation,Tourism,Any Other,		
123	AR/2020/0250350	Emmanuel Rehabilitation Society	techihare34@gmail.com	9402259364	NAHARLAGUN P.O.- NAHARLAGUN DISTRICT.- PAPUM PARE PIN- 791110 STATE : ARUNACHAL PRADESH	NAHARLAGUN	ARUNACHAL PRADESH, 	Aged/Elderly,Any Other,Tribal Affairs,		
124	AR/2019/0233174	EMPIRES SOCIETY	changrang@gmail.com	9436071720	Riba Building, G-Sector, Itanagar 791113, Arunachal Pradesh	ITANAGAR	ARUNACHAL PRADESH, 	Agriculture,Art & Culture,Children,Civic Issues,Differently Abled,Disaster Management,Drinking Water,Education & Literacy,Environment & Forests,Health & Family Welfare,HIV/AIDS,Human Rights,Labour & Employment,Legal Awareness & Aid,Micro Finance (SHGs),New & Renewable Energy,Rural Development & Poverty Alleviation,Sports,Tourism,Tribal Affairs,Water Resources,Women's Development & Empowerment,Youth Affairs,		
125	AR/2020/0249910	ENVIRONMENT PROTECTION GROUP OF ARUNACHAL	lollentomo@gmail.com	9383345172	Aalo,west siang Arunachal pradesh	aalo				
126	AR/2009/0006534	Essomi Foundation Trust	lomi.rait@gmail.com	9862162500	Essomi Foundation Trust, Intaya Public School Campus, Ezengo, Roing, Dist. Lower Dibang Valley,Arunachal Pradesh -792110	Roing	ARUNACHAL PRADESH, 	Animal Husbandry, Dairying  &  Fisheries,Agriculture,Art & Culture,Civic Issues,Drinking Water,Education & Literacy,Environment & Forests,Food Processing,Health & Family Welfare,Micro Finance (SHGs),Micro Small & Medium Enterprises,Tribal Affairs,Vocational Training,Water Resources,Women's Development & Empowerment,Youth Affairs,		
127	AR/2017/0161740	ETERNAL LIFE SOCIETY	elifesociety@gmail.com	9862684949	ZIRO LOWER SUBANSIRI DISTRICT ARUNACHAL PRADESH	ZIRO				
128	AR/2020/0268956	FIRONG ECO TOURISM FOUNDATION	rtmg6@rediff.com	8732805654	VILLAGE: CHILLIPAM PO/PS: RUPA WEST KAMENG DISTRICT ARUNACHAL PRADESH	RUPA	ARUNACHAL PRADESH, 	Agriculture,Animal Husbandry, Dairying  &  Fisheries,Art & Culture,Education & Literacy,Environment & Forests,Tourism,Any Other,		
129	AR/2019/0234705	FRONTIER SOCIAL WELFARE ORGANISATION	fswoarunachalpradesh@gmail.com	8413999910	Petrol Depot, Yahama Showroom, Papum Nallah Naharlagun-791110 Arunachal Pradesh	NAHARLAGUN				
130	AR/2018/0188385	FUTURE GENERATIONS	atul@future.edu	8575543786	Vivek Building, H-Sector, Near Arunadaya School P.O. RK Mission	Itanagar	ARUNACHAL PRADESH, 	Women's Development & Empowerment,	https://www.future.org/india/	
131	AR/2017/0160208	Future Vision	futurevisionarunachal@yahoo.co.in	7005400091	ROOM NO- 24, DIBANG VILLA, OPPO P K COMMERCIAL, GANGA MARKET, ITANAGAR, PAPUMPARE DISTRICT, ARUNACHAL PRADESH-791111	ITANAGAR 	ARUNACHAL PRADESH, 	Art & Culture,Children,Education & Literacy,Aged/Elderly,Health & Family Welfare,HIV/AIDS,Rural Development & Poverty Alleviation,		
132	AR/2018/0186030	Gamnya Foundation	gamnyaf@gmail.com	9436091515	Air Port Colony, Daporijo	Daporijo	ARUNACHAL PRADESH, 	Art & Culture,Education & Literacy,Aged/Elderly,Health & Family Welfare,Sports,Women's Development & Empowerment,		
133	AR/2018/0219068	Garung Thuk	garung.thuk@gmail.com	8413037505	Garung Thuk PO: Shergaon District West Kameng Arunachal Pradeshgarung.thuk@gmail.com PIN-790003	shergaon	ARUNACHAL PRADESH, 	Art & Culture,Education & Literacy,Environment & Forests,Rural Development & Poverty Alleviation,Tourism,Tribal Affairs,		
134	AR/2019/0232250	Global Human Rights Organization	globalhuman688@gmail.com	9774765688	Hollongi, PO/PSBalijan	Hollongi				
135	AR/2020/0257500	GOD BLESSING CHARITABLE TRUST	Endyhiba@gmail.com	7629999963	Plot No.128, Chimpu-II, Near Anganbadi Centre, Chimpu, Itanagar Circle, Pin-791113, Papum Pare, Arunachal Pradesh	Itanagar	ARUNACHAL PRADESH, 	Education & Literacy,Aged/Elderly,HIV/AIDS,Human Rights,Labour & Employment,Legal Awareness & Aid,Rural Development & Poverty Alleviation,Science & Technology,Vocational Training,Women's Development & Empowerment,		
136	AR/2017/0163262	GORSAM STUPA CULTURE CENTRE	gorsamstupa@gmail.com	9899618489	ZEMITHANG, TAWANG	Zemithang	ARUNACHAL PRADESH, 	Art & Culture,Civic Issues,Education & Literacy,Health & Family Welfare,		
137	AR/2017/0178631	GOV GOKER MULTIPURPOSE COOPERATIVE SOCIETY LIMITED	gonyabin22@gmail.com	9862696031	Upper Subansiri District, Daporijo Arunachal Pradesh	Daporijo	ARUNACHAL PRADESH, 	Art & Culture,Art & Culture,		
138	AR/2020/0265419	Green Dreamers	greendreamers74@gmail.com	9436414295	Kibo Gumin Mirsam Village,Pasighat. District East Siang Arunachal Pradesh 791102	Pasighat	ARUNACHAL PRADESH, 	Environment & Forests,		
139	AR/2020/0262984	GREEN GOLD AGRO ENVIRONMENTAL ALLIANCE	tarengtaga@gmail.com	8415969575	Village Camp Patum, P.O Pessing, Aalo, District- West Siang, State - Arunachal Pradesh, Pin Code- 791001	Aalo				
140	AR/2021/0273317	GREEN GUARD SELF HELP GROUP	taminyapi1976@gmail.com	9402267434	GAHSENG VILLAGE, PO/PS: PAYUM/KAYING	BOLENG				
141	AR/2020/0253224	Green Lawn Society	greenlawnsociety@gmail.com	8794270283	Green Lawn School Complex, Officers Colony, Changlang.	Changlang	ARUNACHAL PRADESH, 	Agriculture,Animal Husbandry, Dairying  &  Fisheries,Food Processing,Rural Development & Poverty Alleviation,Women's Development & Empowerment,		
142	AR/2016/0112049	Gumtu Lik Welfare Society	gumtulik@gmail.com	8486017434	Gumtu Lik Welfare Society  Medical Complex  Aalo District West Siang  Arunachal Pradesh, Pin No. 791001	Aalo	ARUNACHAL PRADESH, 	Animal Husbandry, Dairying  &  Fisheries,Aged/Elderly,Agriculture,Art & Culture,Biotechnology,Children,Civic Issues,Differently Abled,Disaster Management,Dalit Upliftment,Drinking Water,Education & Literacy,Environment & Forests,Food Processing,Health & Family Welfare,HIV/AIDS,Housing,Human Rights,Information & Communication Technology,Legal Awareness & Aid,Labour & Employment,Land Resources,Micro Finance (SHGs),Minority Issues,Micro Small & Medium Enterprises,		
143	AR/2017/0115888	GYAMAR ART AND CULTURE SOCIETY	gaacsoc@gmail.com	7085425264	VILL - NYAPIN DISTRICT - KURUNG KUMEY STATE - ARUNACHAL PRADESH PIN NO. 791118	NYAPIN	ARUNACHAL PRADESH, 	Animal Husbandry, Dairying  &  Fisheries,Aged/Elderly,Agriculture,Art & Culture,Children,Civic Issues,Differently Abled,Disaster Management,Education & Literacy,Environment & Forests,Food Processing,Health & Family Welfare,Human Rights,Information & Communication Technology,Legal Awareness & Aid,Labour & Employment,Land Resources,Minority Issues,Micro Small & Medium Enterprises,New & Renewable Energy,Rural Development & Poverty Alleviation,Scientific & Industrial Research,Science & Technology,Sports,Tribal Affairs,		
144	AR/2016/0111421	Gyang Gon Welfare Association	gyang_gon@yahoo.com	8794961136	Gyang-Gon Welfare Association  C/O Gyangong Nunnery  P.O. & P.S. Tawang  Distt. Tawang  Arunachal Pradesh  790104	Tawang		Aged/Elderly,Art & Culture,Education & Literacy,Environment & Forests,Tribal Affairs,		
145	AR/2019/0247037	H.O.P.E Foundation	Komnamoidam2015@gmail.com	8131926873	Natun Basti, Buddhist Colony, Deomali, Tirap district, Arunachal Pradesh	Deomali	ARUNACHAL PRADESH, 	Women's Development & Empowerment,		
146	AR/2017/0153735	Halo Society	halosociety007@gmail.com	7085873894	Lobi Road , Mowb II ,PO Itanagar	Itanagar	ARUNACHAL PRADESH, 	Civic Issues,		
147	AR/2017/0116666	HAOPOLYANG MULTIPURPOSE COOPERATIVE SOCIETY LIMITED ZIRO	haopolyangmpcsltd567@gmail.com	9615715512	HAOPOLYANG MULTIPURPOSE COOPERATIVE SOCIETY LIMITED ZIRO LOWER SUBANSIRI DISTRICT ARUNACHAL PRADESH	ZIRO	ARUNACHAL PRADESH, 	Animal Husbandry, Dairying  &  Fisheries,Agriculture,Art & Culture,Children,Civic Issues,Drinking Water,Education & Literacy,Environment & Forests,Food Processing,Health & Family Welfare,Housing,Human Rights,Land Resources,Micro Finance (SHGs),Minority Issues,Micro Small & Medium Enterprises,Nutrition,Right to Information & Advocacy,Rural Development & Poverty Alleviation,Tribal Affairs,Tourism,Urban Development & Poverty Alleviation,Vocational Training,Water Resources,Women's Development & Empowerment,	http://	
148	AR/2019/0223592	HARANG MULTIPURPOSE COOPERATIVE SOCIETY  LIMITED	nangramponung42@gmail.com	9774506048	KOLORIANGDISTRICT KURUNG KUMEY ARUNACHAL PRADESH	KURUNG KUMEY	ARUNACHAL PRADESH, 	Agriculture,Animal Husbandry, Dairying  &  Fisheries,Art & Culture,Biotechnology,Children,Civic Issues,Differently Abled,Disaster Management,Drinking Water,Aged/Elderly,Food Processing,Health & Family Welfare,Human Rights,Information & Communication Technology,Labour & Employment,Micro Small & Medium Enterprises,Panchayati Raj,Science & Technology,Sports,Tourism,Tribal Affairs,Vocational Training,Water Resources,Women's Development & Empowerment,		
149	AR/2009/0021061	Hayang Memorial Agro Industry and Education Trust	hayengmemorial001@gmail.com	8259843192	Regd. Office: Seppa District East Kameng Pin-Code-790102     Corresponding office, Yayam Complex, Papu Hill, Naharlagun, pincode-791110	East Kameng	ARUNACHAL PRADESH, 	Agriculture,Art & Culture,	http://	
150	AR/2020/0263442	Helping Multipurpose Cooperative Society Ltd 	nabammartin11@gmail.com	9402750092	A- SECTOR NAHARLAGUNPO/PS- NAHARLAGUN DIST-PAPUM PARE ARUNACHAL PRADESH	NAHARLAGUN	ARUNACHAL PRADESH, 	Environment & Forests,Agriculture,Health & Family Welfare,		
151	AR/2019/0225175	HIGHLAND MULTIPURPOSE COOPERATIVE SOCIETY LTD	TAMALANDI@REDIFFMAIL.COM	9485230620	HAPOLI, PO	ZIRO	ARUNACHAL PRADESH, 	Agriculture,Animal Husbandry, Dairying  &  Fisheries,Art & Culture,Biotechnology,Children,Drinking Water,Education & Literacy,Aged/Elderly,Environment & Forests,Food Processing,Health & Family Welfare,Housing,Human Rights,Information & Communication Technology,Labour & Employment,Legal Awareness & Aid,Micro Finance (SHGs),Micro Small & Medium Enterprises,Minority Issues,New & Renewable Energy,Panchayati Raj,Right to Information & Advocacy,Rural Development & Poverty Alleviation,Science & Technology,Sports,Tribal Affairs,Vocational Training,Water Resources,Women's Development & Empowerment,Youth Affairs,		
152	AR/2020/0258680	HILUM MOYI MULTIPURPOSE COOPERATIVE SOCIETY LTD	alwerd.mike@gmail.com	8794452171	HILUM MOYI (KERTE), DOJI JELI VILLAGE, PO	Aalo	ARUNACHAL PRADESH, 	Agriculture,Animal Husbandry, Dairying  &  Fisheries,Labour & Employment,Tourism,Women's Development & Empowerment,		
153	AR/2019/0233556	HIMALAYA BUDDHIST CULTURE SOCIETY	kclmsociety108@gmail.com	9402299145	Kunzang Choekhor ling monastery Pema Ling Colony, Bomdila	Bomdila				
154	AR/2018/0198186	Himalayan Research & Resources Development Foundation	hrrdf@yahoo.com	7005417482	Itanagar	Itanagar	ARUNACHAL PRADESH, 	Agriculture,		
155	AR/2011/0041059	HIMALAYAN TRIBAL WELFARE SOCIETY	himalayan.tws@gmail.com	9436041214	Vill & PO Deed, L/Subansiri District  Arunachal Pradesh 791120    Corr Add:  Polo colony,near shiv mandir,P.O.Naharlagun,Dist.Papum Pre, Arunachal Pradesh-791110	deed	ARUNACHAL PRADESH, 	Animal Husbandry, Dairying  &  Fisheries,Civic Issues,Education & Literacy,HIV/AIDS,Legal Awareness & Aid,Micro Finance (SHGs),Micro Small & Medium Enterprises,Rural Development & Poverty Alleviation,Science & Technology,Vocational Training,Women's Development & Empowerment,Any Other,	http://	
156	AR/2018/0186718	HIME OHHO MI ENKI SA SOCIETY	kanobullo_444@yahoo.co.in	9436227521	ZIRO DIST LOWER SUBANSIRI STATE ARUNACHAL PRADESH PIN NO. 791120	ZIRO	ARUNACHAL PRADESH, 	Agriculture,Art & Culture,Civic Issues,Disaster Management,Drinking Water,Education & Literacy,Health & Family Welfare,Human Rights,Information & Communication Technology,Legal Awareness & Aid,Micro Finance (SHGs),Rural Development & Poverty Alleviation,Science & Technology,Sports,Tourism,Tribal Affairs,Vocational Training,Water Resources,Women's Development & Empowerment,Youth Affairs,Any Other,		
157	AR/2018/0192906	Hiri Foundation	hirijigom@gmail.com	8974151360	HODAPORIJO DISTUPPER SUBANSIRI STATEARUNACHAL PRADESH PIN NO.791122	DAPORIJO	ARUNACHAL PRADESH, 	Agriculture,Art & Culture,Civic Issues,Disaster Management,Drinking Water,Health & Family Welfare,Information & Communication Technology,Labour & Employment,Legal Awareness & Aid,Micro Finance (SHGs),Micro Small & Medium Enterprises,Rural Development & Poverty Alleviation,Science & Technology,Sports,Tourism,Tribal Affairs,Urban Development & Poverty Alleviation,Vocational Training,Water Resources,Women's Development & Empowerment,Youth Affairs,Any Other,		
158	AR/2018/0192274	Hope  Arunachal	hopearunachal@yahoo.com	7085758967	Village Liru PO/PS Likabali	Likabali	ARUNACHAL PRADESH, 	Agriculture,Children,Disaster Management,Education & Literacy,Environment & Forests,Micro Finance (SHGs),Rural Development & Poverty Alleviation,Tourism,Tribal Affairs,Vocational Training,Women's Development & Empowerment,Youth Affairs,Animal Husbandry, Dairying  &  Fisheries,Civic Issues,Differently Abled,Drinking Water,Aged/Elderly,Food Processing,Health & Family Welfare,HIV/AIDS,Human Rights,Labour & Employment,Land Resources,Micro Small & Medium Enterprises,Nutrition,Science & Technology,		
159	AR/2017/0151790	HUMANITY	arunachalhumanity@gmail.com	8729941866	C/O SRIMATI TOLAM NOKBI, KHONSA TOWN	KHONSA	ARUNACHAL PRADESH, 	HIV/AIDS,Agriculture,Children,Education & Literacy,Environment & Forests,Health & Family Welfare,Human Rights,Legal Awareness & Aid,Micro Small & Medium Enterprises,Vocational Training,Women's Development & Empowerment,Youth Affairs,		
160	AR/2018/0190411	Huto Lampia Society	hutolampials@gmail.com	9436052387	C/o Global Institute of Information Technology(GIIT), P.K. Commercial House, Ganga, Itanagar791 113, Arunachal Pradesh.	Itanagar	ARUNACHAL PRADESH, 	Information & Communication Technology,Children,Rural Development & Poverty Alleviation,Vocational Training,Women's Development & Empowerment,	https://ngodarpan.go.in/index.php/ngo/primaryngo	
161	AR/2018/0218419	Idu Mishmi Cultural and Literary Society	vijayarunachal@gmail.com	9402963582	Cheta-I Roing, Lower Dibang Valley, Arunachal Pradesh	Roing	ARUNACHAL PRADESH, 	Art & Culture,Education & Literacy,Environment & Forests,Micro Small & Medium Enterprises,Rural Development & Poverty Alleviation,		
162	AR/2019/0238361	INDIAN RED CROSS SOCIETY ARUNACHAL PRADESH STATE BRANCH NAHARLAGUN	ircsarp@gmail.com	9436227693	DS APARTMENT, 1ST FLOOR, POLO COLONY ARUNACHAL PRADESH, NEAR OFFICE OF THE BHARAT SCOUTSAND GUIDES	NAHARLAGUN	ARUNACHAL PRADESH, 	Health & Family Welfare,		
163	AR/2009/0013009	Indigenous Mission	indigenousmissiondmj01@gmail.com	7085676277	Box-1, P.O.Daporijo, Upper Subansiri District  Arunachal Pradesh-791122.  Registered FCRA, No. 310590003 and   u/s 12AA of the Income Tax Acts 1961	Daporijo		Agriculture,Art & Culture,Children,Education & Literacy,Environment & Forests,Health & Family Welfare,Information & Communication Technology,Rural Development & Poverty Alleviation,Tribal Affairs,Women's Development & Empowerment,Any Other,	http://www.indigenousmission.org	
164	AR/2018/0191025	Indigenous Tribal Art and Culture Enlighten Society	padungdelong34@gmail.com	9436692300	RUKSIN TOWN C/O DELONG PADUNG, NEAR DIVJONI MEDICAL CLINIC, PO	Pasighat	ARUNACHAL PRADESH, 	Art & Culture,		
165	AR/2016/0109194	INTEGRATED DEVELOPMENT ACTION AND RURAL TECHNOLOGY	tadarkana1988@gmail.com	9402411827	VILL - HIYAP.O/ P.S - NYAPIN DIST - KURUNG KUMEY STATE - ARUNACHAL PRADESH PIN NO. 791118	HIYA VILLAGE	ARUNACHAL PRADESH, 	Animal Husbandry, Dairying  &  Fisheries,Agriculture,Art & Culture,Civic Issues,Drinking Water,Education & Literacy,Environment & Forests,Food Processing,Human Rights,Information & Communication Technology,Legal Awareness & Aid,Labour & Employment,Land Resources,Micro Finance (SHGs),New & Renewable Energy,Panchayati Raj,Rural Development & Poverty Alleviation,Scientific & Industrial Research,Science & Technology,Sports,Tribal Affairs,Vocational Training,Water Resources,Women's Development & Empowerment,Youth Affairs,		
166	AR/2019/0240498	INTERNATIONAL FRIENDSHIP CAR RALLY ASSOCIATION	ifcra2017@gmail.com	8413930414	Dirang Under West Kameng District of Arunchal Pradesh	Itanagar		Agriculture,Animal Husbandry, Dairying  &  Fisheries,Biotechnology,Children,Civic Issues,Dalit Upliftment,Differently Abled,Environment & Forests,Human Rights,Science & Technology,Sports,Tourism,Any Other,		
167	AR/2017/0168666	Itanagar Diocesan Empowerment Association	itanagaridea@gmail.com	8732832526	Post Box No. 294 Naharlagun Arunachal Pradesh	Naharlagun	ARUNACHAL PRADESH, 	Agriculture,Children,Education & Literacy,Aged/Elderly,Health & Family Welfare,Housing,Legal Awareness & Aid,	http://ideaarunachal.org/about.html	
168	AR/2016/0100819	Jan Shikshan Sanathan Naharlagun	jss.nlg@gmail.com	9774134706	Jan Shikshan Sansthan,Near Police station B-Sector Naharlagun,    PO/PS Naharlagun  Pin No. 791110	Naharlagun	ARUNACHAL PRADESH, 	Vocational Training,	http://jss.nic.in	
169	AR/2017/0175483	Jan shikshan sansthan	jssarunachal@gmail.com	9862634725	BOGDO,MIJOM COMMERCIAL BUILDING, PO/PS AALO	AALO	ARUNACHAL PRADESH, 	Education & Literacy,	http://www.jss.com	
170	AR/2018/0190666	JANGCHUB CHOSLING WELFARE AND CHARITABLE SOCIETY	genlham.75@gmail.com	8413803844	Jangchub Choeling Nunnery School P.O-Lhou, P.S-Jang Distt.-TawangArunachal Pradesh Pin No-790105	Lhou	ARUNACHAL PRADESH, 	Art & Culture,Education & Literacy,Health & Family Welfare,Tourism,Tribal Affairs,Vocational Training,		
171	AR/2018/0186854	Jarbom Gamlin Hope Foundation	jarbomgamlinskillinstitute@gmail.com	8750135853	Sector A, Rakap Colony, Near Youth Hostel	Naharlagun	ARUNACHAL PRADESH, 	Education & Literacy,		
172	AR/2018/0190903	JARKUM AND YANIA CHARITABLE SOCIETY	jikketako03@gmail.com	9436898828	SENKI PARK, ITANAGAR PAPUM PARE DIST, A.P.791111	ITANAGAR	ARUNACHAL PRADESH, 	Agriculture,Civic Issues,Aged/Elderly,HIV/AIDS,Information & Communication Technology,Animal Husbandry, Dairying  &  Fisheries,Art & Culture,Children,Disaster Management,Drinking Water,Education & Literacy,Health & Family Welfare,Human Rights,Labour & Employment,Micro Finance (SHGs),Rural Development & Poverty Alleviation,Science & Technology,Sports,Tourism,Urban Development & Poverty Alleviation,Vocational Training,Water Resources,Women's Development & Empowerment,Youth Affairs,Any Other,		
173	AR/2019/0239648	Jeyi Welfare Society	yikaryomcha@gmail.com	9436044092	VillageTapiyor Yomcha, DistrictWest Siang, Arunachal Pradesh, Pin- 791001.	West Siang	ARUNACHAL PRADESH, 	Civic Issues,	http://jeyiwelfaresociety.com	
174	AR/2017/0167124	Jhamtse Gatsal Children's Community	jhamtsegatsal@gmail.com	9402795075	PO Lumla, District Tawang	Tawang	ARUNACHAL PRADESH, 	Agriculture,Art & Culture,Children,Education & Literacy,Health & Family Welfare,Nutrition,Rural Development & Poverty Alleviation,Tribal Affairs,Vocational Training,New & Renewable Energy,Water Resources,Differently Abled,Environment & Forests,Tourism,Women's Development & Empowerment,	http://www.jhamtsegatsal.org	
175	AR/2020/0269524	JIKKE WELFARE SOCIETY 	jikketania007@gmail.com	9402252566	HEAD OFFICE C- SECTOR NAHARLAGUN, PO AND PS NAHARLAGUN, DIST. PAPUM PARE, ARUNACHAL PRADESHBRANCH OFFICE: NIOBIA/ LUKBIA, KRA- DAADI DISTRICT, ARUNACHAL PRADESH	NAHARLAGUN				
176	AR/2019/0242882	JILEN MULTIPURPOSE WELFARE SOCIETY	rksahuji2018@gmail.com	7640897719	Vill Esirite, Tirbin, West Siang District, Arunachal Pradesh-791101	Tirbin	ARUNACHAL PRADESH, 	Education & Literacy,Aged/Elderly,Health & Family Welfare,Vocational Training,		
177	AR/2020/0255585	JOMME FOUNDATION SOCIETY	jfsociety2019@gmail.com	7005463418	HO. ITANAGAR DISTRICT. PAPUM PARE STATE. ARUNACHAL PRADESH PIN NO. 791111	ITANAGAR	ARUNACHAL PRADESH, 	Agriculture,Animal Husbandry, Dairying  &  Fisheries,Art & Culture,Biotechnology,Children,Civic Issues,Dalit Upliftment,Differently Abled,Disaster Management,Drinking Water,Education & Literacy,Aged/Elderly,Environment & Forests,Health & Family Welfare,HIV/AIDS,Housing,Human Rights,Information & Communication Technology,Labour & Employment,Land Resources,Legal Awareness & Aid,Micro Finance (SHGs),Micro Small & Medium Enterprises,Minority Issues,New & Renewable Energy,Panchayati Raj,Right to Information & Advocacy,Rural Development & Poverty Alleviation,Science & Technology,Scientific & Industrial Research,Sports,Tourism,Tribal Affairs,Urban Development & Poverty Alleviation,Vocational Training,Water Resources,Women's Development & Empowerment,Youth Affairs,Any Other,		
178	AR/2019/0234046	JORAM MULTIPURPOSE CO-OPERATIVE SOCIETY LIMITED	jmcsl2019@gmail.com	9854003313	Joram Village, P.O.- Joram,Arunachal Pradesh	Joram	ARUNACHAL PRADESH, 	Agriculture,Animal Husbandry, Dairying  &  Fisheries,Environment & Forests,Health & Family Welfare,New & Renewable Energy,Science & Technology,Tourism,Vocational Training,Women's Development & Empowerment,	http://www.jorammcsl.in	
179	AR/2016/0105348	JORAM SOCIO CULTURAL AND LITERACY SOCIETY	joramtajing1958@gmail.com	9856086829	vill - Joram, Ziro- II District - Lower Subansiri P.O - Ziro State - Arunachal Pradesh Pin No. 791120	Ziro	ARUNACHAL PRADESH, 	Animal Husbandry, Dairying  &  Fisheries,Agriculture,Education & Literacy,Environment & Forests,Health & Family Welfare,Micro Small & Medium Enterprises,Rural Development & Poverty Alleviation,Science & Technology,Sports,Urban Development & Poverty Alleviation,Vocational Training,Water Resources,Women's Development & Empowerment,Youth Affairs,Any Other,		
180	AR/2016/0111656	joyseven Foundation	joy7foundation@gmail.com	7005566705	Lozom Complex, T.T.Marg, Niti Vihar, Itanagar-791110, Papum Pare District. (Arunachal Pradesh)	Itanagar		Rural Development & Poverty Alleviation,	http://joy7foundation.org	
181	AR/2016/0114453	Jumi Jumte Welfare Society	jumijumtesociety@gmail.com	8575690588	Village KiminPapum Pare DistrictArunachal Pradesh	Kimin	ARUNACHAL PRADESH, ASSAM, 	Animal Husbandry, Dairying  &  Fisheries,Aged/Elderly,Agriculture,Art & Culture,Children,Civic Issues,Differently Abled,Disaster Management,Drinking Water,Education & Literacy,Environment & Forests,Food Processing,Health & Family Welfare,Human Rights,Labour & Employment,Micro Small & Medium Enterprises,New & Renewable Energy,Nutrition,Rural Development & Poverty Alleviation,Tribal Affairs,Tourism,Vocational Training,Water Resources,Women's Development & Empowerment,Youth Affairs,		
182	AR/2016/0108044	KADORNA WELFARE CENTRE	karwelcentre@gmail.com	9862408802	VILL - G -SECTOR, GANGA P.O/P.S - ITANAGAR DISTRICT - PAPUM PARE STATE - ARUNACHAL PRADESH PIN NO. - 791111	ITANAGAR	ARUNACHAL PRADESH, 	Animal Husbandry, Dairying  &  Fisheries,Agriculture,Art & Culture,Drinking Water,Education & Literacy,Environment & Forests,Health & Family Welfare,HIV/AIDS,Human Rights,Information & Communication Technology,Legal Awareness & Aid,Labour & Employment,Micro Small & Medium Enterprises,Rural Development & Poverty Alleviation,Scientific & Industrial Research,Science & Technology,Sports,Tribal Affairs,Vocational Training,Water Resources,Women's Development & Empowerment,Youth Affairs,Any Other,		
183	AR/2017/0160618	KALAKTANG NYITHILLING BUDDIST CULTURAL SOCIETY	dchoton26@gmail.com	8974439198	KALAKTANGNYITHILLING BUDDHIST CULTURAL SOCIETY, PO/PS- KALAKTANG,WEST KAMENG DISTRICT, ARUNACHAL PRADESH	KALAKTANG	ARUNACHAL PRADESH, 	Art & Culture,		
184	AR/2017/0168529	Kameng Social Service Society	dioceseofitanagar@gmail.com	9436631308	NEW SEPPA, EAST KAMENG, ARUNACHAL PRADESH	SEPPA	ARUNACHAL PRADESH, 	Any Other,		
185	AR/2011/0044589	Kameng Welfare Society	kamengwelfaresociety@gmail.com	9436051724	Vill: Yangsey(Bana) PO/PS: Seppa Dist. East Kameng Arunachal Pradesh Pin-790102	Bana	ARUNACHAL PRADESH, 	Children,Education & Literacy,Health & Family Welfare,Micro Finance (SHGs),Panchayati Raj,Rural Development & Poverty Alleviation,Tribal Affairs,Tourism,Women's Development & Empowerment,Youth Affairs,		
186	AR/2018/0221341	Kampu Hollen Welfare Organization, East Kameng District,Seppa 	kampuhollen.ek@gmail.com	8258931599	Kampu Hollen Orphanage Welfare Organization	Seppa				
187	AR/2016/0099633	Kassar Valley Welfare Organization	kassarvalley@gmail.com	9436050697	Kassar Valley Welfare Organization PO/PS- Seppa	Seppa		Animal Husbandry, Dairying  &  Fisheries,Agriculture,Art & Culture,Children,Environment & Forests,Health & Family Welfare,HIV/AIDS,	http://www.kassarvalley.com	
188	AR/2018/0219548	Kasturba Welfare Society	mage.kamda@yahoo.com	9485251374	P/O,P/S-TALIHA,DIST-UPPER SUBANSIRI,ARUNACHAL PRADESH,PIN-791122	TALIHA	ARUNACHAL PRADESH, 	Agriculture,Art & Culture,Civic Issues,Education & Literacy,Environment & Forests,		
189	AR/2018/0193025	KATAM MISSION	BLACKHAT790@GMAIL.COM	8132946667	VILL MIDPU-II PO/PS DOIMUKH DIST PAPUMPARE ARUNACHAL PRADESH	DOIMUKH				
190	AR/2016/0111687	KBC and Associate	kbcasrn@gmail.com	9436295131	M/s KBC and Associate,  Office :Pvt. Resident of Banya Koyu  Village Seren (Chidum), PO/PS Nari  District: East Siang, Arunachal Pradesh 791102	Nari	ARUNACHAL PRADESH, 	Any Other,		
191	AR/2020/0261066	Kepey Dumbing MCS Limited	kepaydumbingmcs@gmail.com	8474867775	Salri, PO/PS: Sarli, Kurung Kumey District, Arunachal Pradesh	Sarli	ARUNACHAL PRADESH, 	Agriculture,Animal Husbandry, Dairying  &  Fisheries,Art & Culture,Children,Civic Issues,Drinking Water,Education & Literacy,Human Rights,Labour & Employment,Panchayati Raj,Rural Development & Poverty Alleviation,		
192	AR/2016/0101690	KERA AA SOCIETY	kastipccroing@gmail.com	9862230468	Lower Market, Roing, Lower Dibang Valley District, pin-792110,	Roing	ARUNACHAL PRADESH, 	Animal Husbandry, Dairying  &  Fisheries,Aged/Elderly,Agriculture,Art & Culture,Children,Civic Issues,Differently Abled,Disaster Management,Drinking Water,Education & Literacy,Environment & Forests,Food Processing,Health & Family Welfare,HIV/AIDS,Housing,Human Rights,Information & Communication Technology,Legal Awareness & Aid,Labour & Employment,Land Resources,Micro Finance (SHGs),Minority Issues,Micro Small & Medium Enterprises,New & Renewable Energy,Nutrition,		
193	AR/2020/0266214	KERA-AAH TRUST SOCIETY 	keraaahtrusts@gmail.com	9402606309	Kaji Village, Anini	Anini	ARUNACHAL PRADESH, 	Agriculture,Art & Culture,Civic Issues,Disaster Management,Education & Literacy,Environment & Forests,Health & Family Welfare,Micro Small & Medium Enterprises,New & Renewable Energy,Tourism,Tribal Affairs,Youth Affairs,		
194	AR/2020/0260394	khane multipurpose cooperative society limited	varsenbellai77@gmail.com	9612149268	KHUPA, ANJAW DISTRICT, 792104, ARUNACHAL PRADESH	KHUPA	ARUNACHAL PRADESH, 	Agriculture,Animal Husbandry, Dairying  &  Fisheries,Art & Culture,Education & Literacy,Micro Small & Medium Enterprises,Sports,Urban Development & Poverty Alleviation,Any Other,		
195	AR/2020/0264996	KHUN - TA- NAU WELFARE SOCIETY	monlaisilawati@gmail.com	7085114405	2nd mile namsai, 792103, dist. namsai, Arunachal Pradesh	Namsai	ARUNACHAL PRADESH, 	Agriculture,Animal Husbandry, Dairying  &  Fisheries,Art & Culture,Children,Civic Issues,Dalit Upliftment,Disaster Management,Education & Literacy,Aged/Elderly,Environment & Forests,Health & Family Welfare,Human Rights,Information & Communication Technology,Labour & Employment,Legal Awareness & Aid,Rural Development & Poverty Alleviation,Science & Technology,Scientific & Industrial Research,Tribal Affairs,Urban Development & Poverty Alleviation,Vocational Training,Women's Development & Empowerment,		
196	AR/2020/0263171	KIBOM OLD AGE WELFARE SOCIETY	padujum@gmail.com	8974328397	Village- Darka, Aalo, West Siang, Arunachal Pradesh, pin-791001	Aalo				
197	AR/2017/0153944	Kiyi Panyor Multipurpose Cooperative Society Ltd	nyia.ko.society@gmail.com	9436041084	Deed Village, P.O.Deed, P.S.- Ziro,	Ziro		Agriculture,Animal Husbandry, Dairying  &  Fisheries,Art & Culture,Education & Literacy,Food Processing,Any Other,		
198	AR/2020/0265142	KOBOM FOUNDATION	kobomfoundation2005@gmail.com	7065277277	PAPUN PARE, ITA NAGAR, ARUNACHAL PRADESH	ARUNACHAL PRADESH		Agriculture,Animal Husbandry, Dairying  &  Fisheries,Art & Culture,Biotechnology,Children,Civic Issues,Dalit Upliftment,Differently Abled,Disaster Management,Drinking Water,Education & Literacy,Aged/Elderly,Environment & Forests,Food Processing,Health & Family Welfare,HIV/AIDS,Housing,Human Rights,Information & Communication Technology,Labour & Employment,Land Resources,Legal Awareness & Aid,Micro Finance (SHGs),Micro Small & Medium Enterprises,Minority Issues,New & Renewable Energy,Nutrition,Panchayati Raj,Prisoner's Issues,Right to Information & Advocacy,Rural Development & Poverty Alleviation,Science & Technology,Scientific & Industrial Research,Sports,Tourism,Tribal Affairs,Urban Development & Poverty Alleviation,Vocational Training,Water Resources,Women's Development & Empowerment,		
199	AR/2017/0154021	Koloriang Artisans MPCS ltd	kampcsltd@gmail.com	9774837501	Koloriang, PO Koloriang Kurung Kumey District Arunachal Pradesh-791118	Itanagar	ARUNACHAL PRADESH, 	Rural Development & Poverty Alleviation,Animal Husbandry, Dairying  &  Fisheries,		
200	AR/2019/0245198	koloriang sports club	mangritarangenterprise2017@gmail.com	9402656693	koloriang near PHE Office	itanagar	ARUNACHAL PRADESH, 	Children,Civic Issues,Disaster Management,Environment & Forests,Health & Family Welfare,Labour & Employment,Micro Finance (SHGs),Science & Technology,Sports,Vocational Training,Youth Affairs,		
201	AR/2020/0257659	KURUNG KUMEY TAPOK PORIANG MPCS LIMITED	vantaxconsultancy@gmail.com	8638074429	P.O-KOLORIANG, DIST.-KURUNG KUMEY	KOLORIANG				
202	AR/2018/0203663	LHOMON CULTURE DEVLOPMENT SOCIETY	lhomonsocietytwg@gmail.com	8729898517	Rigyelling Gonpa Road,Tawang P.O/P.S- Tawang,Arunachal Pradesh Pin-790104	Tawang				
203	AR/2020/0262163	LIKHA PON FOUNDATION	lpf2615@gmail.com	8730058656	Likha Pon Foundation (LPF) H.Q.: Miya Village, Lower Subansiri District Arunachal Pradesh	Deed	ARUNACHAL PRADESH, 	Agriculture,Animal Husbandry, Dairying  &  Fisheries,Art & Culture,Children,Civic Issues,Disaster Management,Drinking Water,Education & Literacy,Environment & Forests,Food Processing,Health & Family Welfare,Labour & Employment,Legal Awareness & Aid,Panchayati Raj,Tribal Affairs,Vocational Training,Water Resources,Youth Affairs,		
204	AR/2017/0154221	limi society	limiarunachal@yahoo.co.in	8794259864	AALO, PO/PS- AALO WEST SIANG DISTRICTARUNACHAL PRADESH 791001	Aalo	ARUNACHAL PRADESH, 	Agriculture,Art & Culture,Biotechnology,Children,Drinking Water,Education & Literacy,Environment & Forests,Minority Issues,Tourism,Tribal Affairs,Urban Development & Poverty Alleviation,Vocational Training,Women's Development & Empowerment,		
205	AR/2020/0263528	Limmi Society	limmisociety26@gmail.com	8132816550	Aalo, P.S. and P.O.- Aalo, District-West Siang, Arunachal Pradesh, Pin Code-791001	Aalo	ARUNACHAL PRADESH, 	Agriculture,Children,Civic Issues,Education & Literacy,Environment & Forests,Food Processing,Legal Awareness & Aid,Tribal Affairs,Vocational Training,Women's Development & Empowerment,Youth Affairs,		
206	AR/2018/0200647	LISANG DONYI WELFARE SOCIETY	jitenpait@gmail.com	7005686327	H.Q- Oyan. Village and B.P.O-Oyan. District-East Siang, Arunachal Pradesh. Pin Code-791102	Pasighat	ARUNACHAL PRADESH, 	Children,Disaster Management,Education & Literacy,Environment & Forests,Tribal Affairs,Vocational Training,		
207	AR/2020/0262534	LOHIT GREEN FOUNDATION  (NGO)	lohitgreenfoundationngo@gmail.com	9862888096	KHORALIANG, TEZU	TEZU				
208	AR/2020/0264376	Lohit valley society	bagilukri12@gmail.com	8974559908	AIRFIELD TEZU, PO: TEZU, PS: TEZU, DISTRICT: LOHIT, ARUNACHAL PRADESH	TEZU	ARUNACHAL PRADESH, 	Education & Literacy,		
209	AR/2017/0175501	Lomi Charitable Trust	lomicharitabletrust@gmail.com	9402924358	LOGUM JINI, AALO PO/PS AALO	AALO	ARUNACHAL PRADESH, 	Civic Issues,Health & Family Welfare,Urban Development & Poverty Alleviation,Any Other,	http://www.lomicharitabletrust.com	
210	AR/2019/0238475	LOVE DALE WELFARE SOCIETY & REHABILITATION COUNCIL	ldwsrc2007@gmail.com	8259031867	ZIRO PO ZIRO	ZIRO	ARUNACHAL PRADESH, 	Education & Literacy,		
211	AR/2018/0183985	LUNE EDUCATIONAL FOUNDATION CHARITABLE SOCIETY	lunelef@gmail.com	7085632078	Nomi Rigia Complex Gandhi Market, Daporijo Upper Subansiri District Arunachal Pradesh-791122	upper subansiri	ARUNACHAL PRADESH, 	Information & Communication Technology,Rural Development & Poverty Alleviation,Vocational Training,Agriculture,Animal Husbandry, Dairying  &  Fisheries,Art & Culture,Children,Civic Issues,Differently Abled,Education & Literacy,Aged/Elderly,Environment & Forests,Food Processing,Health & Family Welfare,HIV/AIDS,Human Rights,Land Resources,Micro Small & Medium Enterprises,Sports,Tribal Affairs,Women's Development & Empowerment,		
212	AR/2020/0270280	LURA VILLAGE FOREST MANAGEMENT COMMITTEE	lvfmc123@gmail.com	8119029744	VillageKagi, CircleTirbin,DistictLepa Rada,StateArunachal Pradesh	Bassar				
213	AR/2020/0267637	M G Community Skill Development Center	mgcdoyan17@gmail.com	9436251545	VILLAGE OYAN PO OYAN PS SILLE-OYAN	PASIGHAT 	ARUNACHAL PRADESH, 	Micro Small & Medium Enterprises,Micro Small & Medium Enterprises,		
214	AR/2017/0177727	M K AGRO SOCIETY	mkagrosociety@gmail.com	7085662977	YIGI KAUM-1, VILLAGE PO/PS AALO	AALO			http:/www.mkagrosociety.com	
215	AR/2018/0202016	M/s ACHEW SOCIETY	khatawa.loung@gmail.com	7411791248	Namsai Tinali Jaipur road	Namsai	ARUNACHAL PRADESH, 			
216	AR/2017/0164290	MAHABODHI MAITRI MANDALA ARUNACHAL BRANCH	panyar469@gmail.com	8258881057	Mahabodhi Maitri Mandala, Jyotipur Village, P.O. Diyun, Via- Namsai Changlang Arunachal Pradesh 792103 India	jyotipur village	ARUNACHAL PRADESH, 	Agriculture,Animal Husbandry, Dairying  &  Fisheries,Art & Culture,Children,Differently Abled,Disaster Management,Drinking Water,Education & Literacy,Aged/Elderly,Environment & Forests,Food Processing,Health & Family Welfare,HIV/AIDS,Information & Communication Technology,Labour & Employment,Land Resources,Legal Awareness & Aid,Minority Issues,Nutrition,Rural Development & Poverty Alleviation,Science & Technology,Scientific & Industrial Research,Sports,Tourism,Tribal Affairs,Urban Development & Poverty Alleviation,Vocational Training,Water Resources,		
217	AR/2017/0115781	MAHILA MANDAL	mmandal2101@gmail.com	9436222912	VILL KIMIN POKIMIN DISTRICT - PAPUM PARE STATE -ARUNACHAL PRADESH PIN NO. 791121	KIMIN	ARUNACHAL PRADESH, 	Animal Husbandry, Dairying  &  Fisheries,Agriculture,Art & Culture,Environment & Forests,Food Processing,Health & Family Welfare,Land Resources,Micro Finance (SHGs),Minority Issues,Micro Small & Medium Enterprises,New & Renewable Energy,Nutrition,Science & Technology,Sports,Tribal Affairs,Tourism,Urban Development & Poverty Alleviation,Vocational Training,Water Resources,Women's Development & Empowerment,Youth Affairs,Any Other,		
218	AR/2018/0202954	Mahila Vikash Samiti	mvssarli2018@gmail.com	9436044522	SARLI, KURUMG KUMEY DIST, ARUNACHAL PRADESH	KURUNG KUMEY	ARUNACHAL PRADESH, 	Education & Literacy,Health & Family Welfare,Legal Awareness & Aid,		
219	AR/2017/0155039	MANGDER HENDER WELFARE SOCIETY	mhws7820@gmail.com	9436227514	HQ KOLORIANG KURUNG KUMEY DISTRICT PIN 791118	KOLORIANG	ARUNACHAL PRADESH, 	Agriculture,Art & Culture,Children,Education & Literacy,Environment & Forests,Health & Family Welfare,Micro Finance (SHGs),Rural Development & Poverty Alleviation,Vocational Training,Women's Development & Empowerment,Animal Husbandry, Dairying  &  Fisheries,Disaster Management,Drinking Water,Food Processing,Human Rights,Labour & Employment,Legal Awareness & Aid,Micro Small & Medium Enterprises,Minority Issues,Science & Technology,Scientific & Industrial Research,Sports,Tourism,Tribal Affairs,Urban Development & Poverty Alleviation,Water Resources,Youth Affairs,Any Other,		
220	AR/2013/0072021	Manghi Welfare Society	manghiws@rediffmail.com	9436257270	O/o the Manghi Welfare Society Near PWD Division Office Sangram Town PO/PS Sangram, District Kurung Kumey, Arunachal Pradesh PIN 791 118	ITANAGAR	ARUNACHAL PRADESH, 	Animal Husbandry, Dairying  &  Fisheries,Agriculture,Art & Culture,Children,Dalit Upliftment,Education & Literacy,Environment & Forests,Health & Family Welfare,Housing,Human Rights,Legal Awareness & Aid,Labour & Employment,Micro Finance (SHGs),Panchayati Raj,Rural Development & Poverty Alleviation,Sports,Tribal Affairs,Tourism,Women's Development & Empowerment,Any Other,	http://www.manghisociety.org	
221	AR/2016/0105452	MANGIO VILLAGE FOREST MANAGEMENT COMMITTEE	nvfmcmangio@gmail.com	8729806619	MANGIO VILLAGE PARSI PARLO CIRCLE KOLORIANG KURUNG KUMEY DISTRICT ARUNACHAL PRADESH PIN 791118	KOLORIANG	ARUNACHAL PRADESH, 	Animal Husbandry, Dairying  &  Fisheries,Agriculture,Art & Culture,Children,Disaster Management,Dalit Upliftment,Drinking Water,Education & Literacy,Environment & Forests,Health & Family Welfare,Vocational Training,Water Resources,Women's Development & Empowerment,		
222	AR/2018/0201700	MANJUSHREE CHARITABLE SOCIETY	mvtawang@gmail.com	9436051155	MANJUSHREE CHARITABLE SOCIETY P.O.	TAWANG			http://mvtawang@gmail.com	
223	AR/2019/0242886	MARIA MULTIPURPOSE COOPERATIVE SOCIETY LIMITED	manianbm25@gmail.com	8974385022	DOBAM VILLAGE, KARSINGSA, PO/PS BANDERDEWA , PAPUMPARE DISTRICT, ARUNACHAL PRADESH784163	KARSINGSA	ARUNACHAL PRADESH, 	Agriculture,Animal Husbandry, Dairying  &  Fisheries,Art & Culture,Civic Issues,Disaster Management,Drinking Water,Education & Literacy,Environment & Forests,Food Processing,Health & Family Welfare,Human Rights,Information & Communication Technology,Labour & Employment,Micro Finance (SHGs),Micro Small & Medium Enterprises,Rural Development & Poverty Alleviation,Sports,Tourism,Tribal Affairs,Vocational Training,Water Resources,Women's Development & Empowerment,Youth Affairs,Any Other,		
224	AR/2016/0111481	MARJUM WELFARE SOCIETY	doiadoaalo@gmail.com	9436056483	VILLAGE BOGDO, PO/PS-AALO, PIN-791001	AALO	ARUNACHAL PRADESH, 	Education & Literacy,	http://www.ttcaalo.org.in	
225	AR/2018/0187511	MATING TAYI KANU	matingtayikanu@gmail.com	9612440122	Mating Tayi Kanu Welfare Society Yazali Lower Subansiri District Arunachal Pradesh	YAZALI				
226	AR/2019/0227767	MAYUCHI IDU YAKU ALOMBRO JOWEGA BO	prodeep.dbr@gmail.com	9101673159	MAYU ROING LOWER DIBANG VALLEY ARUNACHAL PRADESH	ARUNANCHAL PRADESH		Art & Culture,Children,Drinking Water,Education & Literacy,HIV/AIDS,Sports,Vocational Training,		
227	AR/2019/0240410	MECHUKHA ECO-TOURISM & CONSERVATION SOCIETY	mecsmechukha666@gmail.com	8794404722	Mechuka	Mechuka	ARUNACHAL PRADESH, 	Art & Culture,Children,Education & Literacy,Environment & Forests,Legal Awareness & Aid,Sports,		
228	AR/2016/0108681	medo welfare society	info.medosociety@gmail.com	7838067397	Y M Building, Near State Library, F-Sector, Itnanagar-791111, Arunachal Pradesh	Itanagar	ARUNACHAL PRADESH, 	Animal Husbandry, Dairying  &  Fisheries,Aged/Elderly,Agriculture,Art & Culture,Biotechnology,Children,Civic Issues,Differently Abled,Disaster Management,Dalit Upliftment,Drinking Water,Education & Literacy,Environment & Forests,Food Processing,Health & Family Welfare,HIV/AIDS,Housing,Human Rights,Information & Communication Technology,Legal Awareness & Aid,Labour & Employment,Land Resources,Micro Finance (SHGs),Minority Issues,Micro Small & Medium Enterprises,Rural Development & Poverty Alleviation,	http://medosociety.org	
229	AR/2018/0206955	Mesnia Credit Co-operative Society Limited	teliyarin@gmail.com	7642917722	E-SECTOR NIRJULI	NIRJULI	ARUNACHAL PRADESH, 	Micro Finance (SHGs),		
230	AR/2017/0175543	MIGENAM CHARITABLE SOCIETY	migenam2017@gmail.com	9101598053	Old Market, Opposite to Airfield. PO/PS ; AALO.	AALO	ARUNACHAL PRADESH, 	Agriculture,Animal Husbandry, Dairying  &  Fisheries,Environment & Forests,	http://www.migenam.com	
231	AR/2013/0070257	MM Charitable Trust	mmct2004@gmail.com	9706346543	H.O: Daporijo. Upper Subansiri Dist, Arunachal Pradesh.B.O: Prem nagar, Papumpare District Arunachal Pradesh. 791110	NAHARLAGUN	ARUNACHAL PRADESH, 	Animal Husbandry, Dairying  &  Fisheries,Aged/Elderly,Agriculture,Art & Culture,Biotechnology,Children,Civic Issues,Differently Abled,Disaster Management,Dalit Upliftment,Drinking Water,Education & Literacy,Environment & Forests,Food Processing,Health & Family Welfare,HIV/AIDS,Housing,Human Rights,Information & Communication Technology,Legal Awareness & Aid,Labour & Employment,Land Resources,Micro Finance (SHGs),Minority Issues,Micro Small & Medium Enterprises,	htpp://www.mmctindia.com	
232	AR/2010/0038329	modern dream	moderndream_ngo@yahoo.com	9402277514	Vill-Parbuk  PO/PS-Roing  Dist-Lower Dibang Valley-792110  Arunachal Pradesh	Roing	ARUNACHAL PRADESH, 	Animal Husbandry, Dairying  &  Fisheries,Agriculture,Art & Culture,Education & Literacy,Environment & Forests,Food Processing,Health & Family Welfare,HIV/AIDS,Housing,Human Rights,Information & Communication Technology,Legal Awareness & Aid,Micro Small & Medium Enterprises,New & Renewable Energy,Panchayati Raj,Rural Development & Poverty Alleviation,Sports,Tribal Affairs,Tourism,Urban Development & Poverty Alleviation,Vocational Training,Water Resources,Women's Development & Empowerment,Youth Affairs,		
233	AR/2017/0114726	mon palpung jangchub choekhof ling kagyu society	Monkagyusociety@yahoo.com	9436811398	Mon Palpung Jangchub Choekhor Ling Kagyu Society P.O & P.S- Jang Pin No- 790105	Jang	ARUNACHAL PRADESH, 	Art & Culture,		
234	AR/2020/0253718	MON SIDHARTHA CHARITABLE FOUNDATION	mscftawang@gmail.com	7633965423	tawang AP	Tawang	ARUNACHAL PRADESH, 	Art & Culture,Environment & Forests,Health & Family Welfare,Tribal Affairs,		
235	AR/2018/0195791	MONYUL BUDDHIST CULTURE PRESERVATION SOCIETY	monyulsociety@yahoo.com	8863832666	KETCHENGA VILLAGE	TAWANG	ARUNACHAL PRADESH, 	Art & Culture,Dalit Upliftment,Education & Literacy,Environment & Forests,Health & Family Welfare,Human Rights,Minority Issues,Tribal Affairs,		
236	AR/2018/0191208	monyultraditionalculturedevelopmentsociety	tglmonasteryofice@gmail.com	8729944633	Bomdila, P.O.Bomdila, Distt West Kameng (Arunachal Pradesh) 790001	Bomdila	ARUNACHAL PRADESH, 	Education & Literacy,		
237	AR/2018/0183201	Moruk Multipurpose Cooperative Society Ltd	dabiikarken@gmail.com	9402433522	Village: Nari, PO: Nari, East Siang District, Arunachal Pradesh	Nari	ARUNACHAL PRADESH, 	Agriculture,Education & Literacy,		
238	AR/2016/0112547	MOTHER AND CHILD HEALTH CARE SOCIETY	mchcsoc@gmail.com	9436631736	VILL - SEPPA DISTRICT - EAST KAMENG STATE- ARUNACHAL PRADESH PIN NO. -790102	SEPPA	ARUNACHAL PRADESH, 	Animal Husbandry, Dairying  &  Fisheries,Agriculture,Art & Culture,Drinking Water,Education & Literacy,Environment & Forests,Food Processing,HIV/AIDS,Human Rights,Information & Communication Technology,Legal Awareness & Aid,Labour & Employment,Land Resources,Micro Finance (SHGs),New & Renewable Energy,Right to Information & Advocacy,Scientific & Industrial Research,Science & Technology,Sports,Tribal Affairs,Tourism,Vocational Training,Water Resources,Women's Development & Empowerment,Youth Affairs,		
239	AR/2020/0261813	MOTHER KELSANG CHOIKEY WELFARE SOCIETY	mkcwelsociety2017@gmail.com	8974951339	VILLDIRANG DZONG DISTRICTWEST KAMENG STATEARUNACHAL PRADESH PIN CODE790101	DIRANG DZONG	ARUNACHAL PRADESH, 	Animal Husbandry, Dairying  &  Fisheries,Children,Civic Issues,Environment & Forests,Agriculture,Art & Culture,Disaster Management,Drinking Water,Education & Literacy,Food Processing,Health & Family Welfare,HIV/AIDS,Human Rights,Information & Communication Technology,Labour & Employment,Land Resources,Micro Finance (SHGs),Micro Small & Medium Enterprises,Minority Issues,New & Renewable Energy,Right to Information & Advocacy,Rural Development & Poverty Alleviation,Science & Technology,Scientific & Industrial Research,Sports,Tourism,Tribal Affairs,Urban Development & Poverty Alleviation,Vocational Training,Water Resources,Women's Development & Empowerment,Youth Affairs,Any Other,		
240	AR/2017/0156722	MOTHERS VISION	mothersvision27@gmail.com	9436049005	Head office Aalo P.o/ P.s Aalo	AALO	ARUNACHAL PRADESH, 	Civic Issues,Differently Abled,Education & Literacy,HIV/AIDS,Women's Development & Empowerment,Any Other,	http://www.mothersvision.in	
241	AR/2020/0252511	MOTOR SPORT CLUB ARUNACHAL	lhakpahornbill@gmail.com	7642919866	DIRANG UNDER WEST KAMENG, DISST. ARUNACHAL PRADESH	ARUNACHAL PRADESH		Agriculture,Animal Husbandry, Dairying  &  Fisheries,Art & Culture,Biotechnology,Children,Civic Issues,Dalit Upliftment,Differently Abled,Disaster Management,Drinking Water,Education & Literacy,Aged/Elderly,Environment & Forests,Food Processing,Health & Family Welfare,HIV/AIDS,Housing,Human Rights,Information & Communication Technology,Labour & Employment,Land Resources,Legal Awareness & Aid,Micro Finance (SHGs),Micro Small & Medium Enterprises,Minority Issues,New & Renewable Energy,Nutrition,Panchayati Raj,Prisoner's Issues,Right to Information & Advocacy,Rural Development & Poverty Alleviation,Science & Technology,Scientific & Industrial Research,Sports,Tourism,Tribal Affairs,Urban Development & Poverty Alleviation,Vocational Training,Water Resources,Women's Development & Empowerment,		
242	AR/2018/0207503	MYSTIC MULTIPURPOSE COOPERATIVE SOCITY LIMITED	pheyhom@yahoo.com	7640995664	FLAT NO 8 T N BUILDING POLO COLONY	NAHARLAGUN				
243	AR/2018/0214075	Namsai Organic Spices and Agricultural Products Producer Company Limited	namsaifpc2018@gmail.com	8709598652	HNo.-E-54, P.O-Namsai, Vill-Jaipur PS-Namsai	Namsai	ARUNACHAL PRADESH, 	Agriculture,Food Processing,		
244	AR/2018/0185126	NANI MARIA SOCIETY 	nanimariachild@gmail.com	7640823441	Roing, Lower Dibang Valley District, Arunachal Pradesh.	Roing	ARUNACHAL PRADESH, 	Children,Education & Literacy,Human Rights,Women's Development & Empowerment,		
245	AR/2009/0004258	Nani Sala Foundation	nanisala@rediffmail.com	9436041893	Chairman NANISALAFOUNDATION Arunachal Front Building, Near Takar Complex, Naharlagun,791110 ArunachalPradesh	Itanagar	ARUNACHAL PRADESH, 	Art & Culture,Children,Education & Literacy,Environment & Forests,Health & Family Welfare,HIV/AIDS,Rural Development & Poverty Alleviation,Tribal Affairs,Vocational Training,Women's Development & Empowerment,Any Other,		
246	AR/2020/0270290	Nanyi-Gagi Society	nanyigagisociety@gmail.com	9366813802	Yagrung Village, P/O- Yagrung, P/S- Pasighat, Dist- East Siang, Pasighat, Arunachal Pradesh	Pasighat	ARUNACHAL PRADESH, 	Education & Literacy,		
247	AR/2009/0003777	National Youth Project  AP	nyparunachal@gmail.com	9862563890	National Youth ProjectA.P, 1st Floor, Taba Building, Opp: Civil Secretariat, E-Sector, IUtanagar, Arunachal Pradesh. PIN: 791111	Itanagar	UTTAR PRADESH, ARUNACHAL PRADESH, ASSAM, BIHAR, DAMAN & DIU, DELHI, GUJARAT, HARYANA, HIMACHAL PRADESH, JAMMU &amp; KASHMIR, JHARKHAND, KERALA, MADHYA PRADESH, MAHARASHTRA, MANIPUR, MEGHALAYA, MIZORAM, NAGALAND, ORISSA, PUDUCHERRY, PUNJAB, RAJASTHAN, SIKKIM, UTTAR PRADESH, UTTARAKHAND, WEST BENGAL, 	Animal Husbandry, Dairying  &  Fisheries,Aged/Elderly,Agriculture,Art & Culture,Biotechnology,Children,Civic Issues,Differently Abled,Disaster Management,Dalit Upliftment,Drinking Water,Education & Literacy,Environment & Forests,Food Processing,Health & Family Welfare,HIV/AIDS,Housing,Human Rights,Information & Communication Technology,Legal Awareness & Aid,Labour & Employment,Land Resources,Micro Finance (SHGs),Minority Issues,Micro Small & Medium Enterprises,	http://www.nypindia.in	
248	AR/2020/0263972	NAYO WELFARE SOCIETY	nayowelfaresociety@gmail.com	8415812917	RUPA WEST KAMENG ARUNACHAL PRADESH	ARUNACHAL PRADESH		Agriculture,Animal Husbandry, Dairying  &  Fisheries,Art & Culture,Biotechnology,Children,Civic Issues,Dalit Upliftment,Differently Abled,Disaster Management,Drinking Water,Education & Literacy,Aged/Elderly,Environment & Forests,Food Processing,Health & Family Welfare,HIV/AIDS,Housing,Human Rights,Information & Communication Technology,Labour & Employment,Land Resources,Legal Awareness & Aid,Micro Finance (SHGs),Micro Small & Medium Enterprises,Minority Issues,New & Renewable Energy,Nutrition,Panchayati Raj,Prisoner's Issues,Right to Information & Advocacy,Rural Development & Poverty Alleviation,Science & Technology,Scientific & Industrial Research,Sports,Tourism,Tribal Affairs,Urban Development & Poverty Alleviation,Vocational Training,Water Resources,Women's Development & Empowerment,		
249	AR/2019/0246612	NEEDY AND UNDER PRIVILEGED CARING SOCIETY	nucsociety@gmail.com	8974810358	MOPAKHAT VILLAGE, PO KANUBARI	LONGDING				
250	AR/2020/0263807	NEFA THRIFT AND CREDIT COOPERATIVE SOCIETY LIMITED	ntccsl88@gmail.com	9436637855	MAIN MARKET NIRJULI P.O/P.S NIRJULI791109	ITANAGAR	ARUNACHAL PRADESH, 	Micro Finance (SHGs),		
251	AR/2018/0187454	New Era Society	mossanghom@gmail.com	8732804944	Namphainong HBCA Mission Centre P.ONamphai-I, P.S - Miao Dist- Changlang Arunachal Pradesh PIN-792122	Changlang	ARUNACHAL PRADESH, 	Education & Literacy,		
252	AR/2017/0178307	Newman Educational Society	felixa@miaodiocese.com	8974532318	NEOTAN VILLAGE	Miao	ARUNACHAL PRADESH, 	Children,Education & Literacy,Rural Development & Poverty Alleviation,Tribal Affairs,Any Other,Art & Culture,		
253	AR/2017/0118707	NIAGA WELFARE SOCIETY	niagawelsoc@gmail.com	9436247022	VILL NACHO DISTRICT UPPER SUBANSIRI P.O.NACHO PIN NO. 791122 STATE ARUNACHAL PRADESH	DAPORIJO	ARUNACHAL PRADESH, 	Labour & Employment,Land Resources,Micro Finance (SHGs),Minority Issues,Micro Small & Medium Enterprises,New & Renewable Energy,Right to Information & Advocacy,Rural Development & Poverty Alleviation,Scientific & Industrial Research,Science & Technology,Sports,Tribal Affairs,Tourism,Urban Development & Poverty Alleviation,Vocational Training,Water Resources,Women's Development & Empowerment,Youth Affairs,Any Other,		
254	AR/2018/0187446	nikam development foundation	taigungte@gmail.com	9436896474	D- sector, sangram, Kurung Kumey District, Arunachal Pradesh	sangram	ARUNACHAL PRADESH, 	Art & Culture,Civic Issues,Education & Literacy,Aged/Elderly,Environment & Forests,Women's Development & Empowerment,		
255	AR/2020/0258336	NIKAM NIYA MULTIPURPOSE SOCIETY	amitadar140@gmail.com	9436042636	NEAR YOUTH HOSTEL NAHARLAGUN, WARD NO. 27 (IMC) A-SECTOR	NAHARLAGUN				
256	AR/2017/0157445	North East Educational Devlopment Society	infowayitsolutions2016@gmail.com	8414859601	C/O Prakash Chandra TiwariMiao, Distt: Changlang, Arunachal Pradesh	Miao	ARUNACHAL PRADESH, 	Education & Literacy,Agriculture,Information & Communication Technology,Tourism,Vocational Training,Women's Development & Empowerment,Youth Affairs,		
257	AR/2018/0188960	NORTH EAST INDIA DEVELOPMENT FOUNDATION TRUST	northeastidft@gmail.com	8131821432	SONIA APAERTMNET GF-02 NEAR POLICE TRAFFIC POINT PO-RKM PS-ITANAGAR DIST-PAPUMPARE, ITANAGAR ARUNACHAL PRADESH	ITANAGAR	ARUNACHAL PRADESH, 	Art & Culture,Education & Literacy,Information & Communication Technology,Science & Technology,Tourism,Tribal Affairs,Vocational Training,Sports,Water Resources,Youth Affairs,Agriculture,Animal Husbandry, Dairying  &  Fisheries,Children,Civic Issues,Disaster Management,Drinking Water,Environment & Forests,Food Processing,Housing,Labour & Employment,Legal Awareness & Aid,Micro Small & Medium Enterprises,Panchayati Raj,Women's Development & Empowerment,		
258	AR/2020/0249650	NORTH EAST INDIA MULTI STATE AGRO HORTI MKTG AND PROCESS CO OP SOCIETY LTD	raj.dahal0@gmail.com	9365521261	At-Dam site P.O-Naharlagun P.S-Naharlagun Dist- Papumpare Pin-791110 Arunachal Pradesh	Naharlagun	ARUNACHAL PRADESH, 	Agriculture,Animal Husbandry, Dairying  &  Fisheries,Biotechnology,Dalit Upliftment,Drinking Water,Environment & Forests,Food Processing,Labour & Employment,Land Resources,New & Renewable Energy,Rural Development & Poverty Alleviation,Scientific & Industrial Research,Tribal Affairs,Vocational Training,		
259	AR/2016/0097753	North East Multipurpose Development Society	nemds63@gmail.com	9402248096	North East Multipurpose Development Society G Extension Lagun Mini Market, Naharlagun-791110	Naharlagun		Agriculture,Animal Husbandry, Dairying  &  Fisheries,Art & Culture,Children,Disaster Management,Drinking Water,Education & Literacy,Environment & Forests,Food Processing,Health & Family Welfare,Housing,Labour & Employment,Micro Finance (SHGs),Micro Small & Medium Enterprises,Rural Development & Poverty Alleviation,Tribal Affairs,Urban Development & Poverty Alleviation,Vocational Training,Aged/Elderly,Human Rights,Information & Communication Technology,Land Resources,Sports,Tourism,		
260	AR/2016/0103867	North East Vajarayana Buddhist Cultural Association	NEVBCA2016@gmail.com	8794881561	North East Vajarayana Buddhist Cultural Association, Khinmey Monastery, Dist. Tawang, Po/Ps Tawang, Pin-790104 (Arunachal Pradesh) India.	Tawang	ARUNACHAL PRADESH, 	Art & Culture,		
261	AR/2020/0262755	Nou Sadak	nousadak2020@gmail.com	7002837011	Diyun Bazar, P.O Diyun, P.S Diyun	Diyun		Art & Culture,Education & Literacy,Environment & Forests,Health & Family Welfare,Tribal Affairs,Women's Development & Empowerment,Youth Affairs,		
262	AR/2018/0205171	Nyia Ko Society 	tokokach07@gmail.com	8729847045	DEED VILLAGE, P.O.DEED, P.S.ZIRO, CIRCLEDEED, LOWER SUBANSIRI DISTRICT, ARUNACHAL PRADESH, PIN791120	Deed	ARUNACHAL PRADESH, 	Agriculture,Animal Husbandry, Dairying  &  Fisheries,Art & Culture,Children,Environment & Forests,Food Processing,Health & Family Welfare,Legal Awareness & Aid,Rural Development & Poverty Alleviation,Science & Technology,Tribal Affairs,Urban Development & Poverty Alleviation,Women's Development & Empowerment,		
263	AR/2016/0100318	NYISHI WELFARE ASSOCIATION	nwadaporijo@gmail.com	8794711925	PO DAPORIJO DISTRICT UPPERSUBANSIRI ARUNACHAL PRADESH PIN 791122	DAPORIJO	ARUNACHAL PRADESH, 	Animal Husbandry, Dairying  &  Fisheries,Aged/Elderly,Agriculture,Art & Culture,Biotechnology,Children,Civic Issues,Differently Abled,Disaster Management,Dalit Upliftment,Drinking Water,Education & Literacy,Environment & Forests,Food Processing,Health & Family Welfare,HIV/AIDS,Housing,Human Rights,Information & Communication Technology,Legal Awareness & Aid,Labour & Employment,Land Resources,Micro Finance (SHGs),Minority Issues,Micro Small & Medium Enterprises,		
264	AR/2017/0164505	Odiyana charitable society	gelekrapsel@gmail.com	9540254119	Vill. Yortong, P.O.	tuting			https://www.odiyanainstitute.org	
265	AR/2019/0223302	one step foundation ziro	osfziro@gmail.com	7005428928	Vill Hija PO/PS Ziro	Ziro	ARUNACHAL PRADESH, 	Agriculture,Animal Husbandry, Dairying  &  Fisheries,Art & Culture,Environment & Forests,Micro Small & Medium Enterprises,Rural Development & Poverty Alleviation,Sports,Tourism,Tribal Affairs,Vocational Training,Youth Affairs,Any Other,		
266	AR/2020/0262935	OPHAN TINU TRANSPORT SOCIETY	ottslongding2013@gmail.com	7005983990	MAIN TOWN LONGDING	LONGDING	ARUNACHAL PRADESH, 	Drinking Water,Environment & Forests,Tourism,Vocational Training,Agriculture,		
267	AR/2018/0215635	Opu Aama Society	opuaamasociety@gmail.com	9402698093	Office of the OPU AAMA SOCIETYchandranagar,ward No.04,near Gyan Ganga Vidhyapeeth School,PO/PS:Itanagar, District :Papumpare,Arunachal Pradesh.	Itanagar	ARUNACHAL PRADESH, 	Agriculture,Animal Husbandry, Dairying  &  Fisheries,Art & Culture,Children,Civic Issues,Dalit Upliftment,Differently Abled,Disaster Management,Drinking Water,Education & Literacy,Aged/Elderly,Environment & Forests,Food Processing,Health & Family Welfare,HIV/AIDS,Housing,Human Rights,Labour & Employment,Legal Awareness & Aid,Micro Finance (SHGs),Micro Small & Medium Enterprises,Minority Issues,Nutrition,Panchayati Raj,Prisoner's Issues,Rural Development & Poverty Alleviation,Youth Affairs,		
268	AR/2012/0055703	Orchid India Society	ois_ngo@yahoo.com	9436052990	Tadar Radhe bldng, Type-II (PHED), D Sector, Court Street Naharlagun-791110,   Post Pox No. 315 Arunachal Pradesh	Naharlagun	ARUNACHAL PRADESH, 	Animal Husbandry, Dairying  &  Fisheries,Aged/Elderly,Agriculture,Art & Culture,Children,Civic Issues,Differently Abled,Disaster Management,Drinking Water,Education & Literacy,Environment & Forests,Food Processing,Health & Family Welfare,HIV/AIDS,Housing,Human Rights,Information & Communication Technology,Legal Awareness & Aid,Labour & Employment,Land Resources,Micro Finance (SHGs),Minority Issues,Micro Small & Medium Enterprises,New & Renewable Energy,Panchayati Raj,		
269	AR/2020/0253748	ORGYEN GURU SIRCHANGLAA DEVELOPMENT SOCIETY	societyorgyen@gmail.com	9546776486	NAFRA, ARUNACHAL PRADESH	NAFRA	ARUNACHAL PRADESH, 	Art & Culture,Health & Family Welfare,Tribal Affairs,		
270	AR/2017/0154035	Orphan Trust Society	orphantrust17@gmail.com	7085756164	M/s Orphan Trust Society Sigin Colony PartII Daporijo PO and PS Daporijo District Upper Subansiri Pincode791122 Arunachal Pradesh Mobile No. : 7085756164	Daporijo				
271	AR/2016/0113191	Padmapa Fellowship Kalaktang	padmapafellowshipktg121@gmail.com	8414063936	M/S: Padmapa Fellowship Kalaktang  Vill: Samphung  P.O/P.S: Kalaktang  Distt.:West Kameng  State: Arunachal Pradesh-790002	Kalaktang	ARUNACHAL PRADESH, 	Art & Culture,Drinking Water,Education & Literacy,Tribal Affairs,Tourism,Youth Affairs,	http://	
272	AR/2017/0163535	PAGA MULTIPURPOSE COOPERATIVE SOCIETY LIMITED	PAGAMULTI@GMAIL.COM	8794480669	C-Sector, Itanagar, Papumpare District, Arunachal Pradesh	Itanagar	ARUNACHAL PRADESH, 	Education & Literacy,Legal Awareness & Aid,Civic Issues,		
273	AR/2017/0168456	PAGO PAA MULTIPURPOSE COOPERATIVE LIMITED PALIN	tarhtapong@gmail.com	8794444056	VILLPALIN P.O.PALIN DISTKURUNG KUMEY STATEARUNACHAL PRADESH PIN NO. 791118	PALIN	ARUNACHAL PRADESH, 	Animal Husbandry, Dairying  &  Fisheries,Art & Culture,Civic Issues,Disaster Management,Drinking Water,Education & Literacy,Environment & Forests,Health & Family Welfare,Human Rights,Information & Communication Technology,Labour & Employment,Land Resources,Legal Awareness & Aid,Micro Finance (SHGs),Science & Technology,Sports,Tourism,Tribal Affairs,Urban Development & Poverty Alleviation,Vocational Training,Water Resources,Women's Development & Empowerment,Youth Affairs,Any Other,Food Processing,HIV/AIDS,Micro Small & Medium Enterprises,Rural Development & Poverty Alleviation,		
274	AR/2020/0270360	Pakke Kessang Multipurpose Society	nabumhagohina@gmail.com	7085106971	PAKKE KESSANG, STAFF COLONY, EAST KAMENG DISTRICT SEPPA ARUNACHAL PRADESH	PAKKE KESSANG 	ARUNACHAL PRADESH, 	Agriculture,Animal Husbandry, Dairying  &  Fisheries,Civic Issues,Education & Literacy,Aged/Elderly,Environment & Forests,Health & Family Welfare,Panchayati Raj,Tourism,Tribal Affairs,Women's Development & Empowerment,		
275	AR/2019/0235233	Pangchen Lakhar Community Conserved Area	balpakram@gmail.com	9435083075	Vill: Kharman, PO: Zemithang, PS: Lumla, Dist: Tawang, Arunachal Pradesh	Tawang	ARUNACHAL PRADESH, 	Environment & Forests,		
276	AR/2016/0105193	PAPUMPARE FARMERS DEVELOPMENT SOCIETY	pfdsbanderewa@gmail.com	9856764862	BANDERDEWA PAPUMPARE DISTRICT ARUNACHAL PRADESH PIN 791123	BANDERDEWA	ARUNACHAL PRADESH, 	Animal Husbandry, Dairying  &  Fisheries,Art & Culture,Children,Dalit Upliftment,Education & Literacy,Environment & Forests,Health & Family Welfare,Nutrition,Rural Development & Poverty Alleviation,Sports,Tribal Affairs,Vocational Training,Women's Development & Empowerment,		
277	AR/2020/0270506	PARANG PARE WELFARE SOCIETY	dpolomission.sgl@gmail.com	9436067777	PARANG PARE WELFARE SOCIETY SAGALEE PAPUM PARE DISTRICT ARUNACHAL PRADESH	SAGALEE	ARUNACHAL PRADESH, 	Education & Literacy,		
278	AR/2017/0157600	PARTE DANNE MULTIPURPOSE COOPERATIVE SOCIETY LTD	yamaktanatai@gmail.com	8974317639	PO KIMIN PAPUMPARE DISTRICTARUNACHAL PRADESH PIN 791121	KIMIN				
279	AR/2020/0254334	PATKAI HILLS WELFARE SOCIETY	phws2012@gmail.com	8130047883	VILL DEOMALI DISTRICT TIRAP STATE ARUNACHAL PRADESH PIN CODE 786629	DEOMALI	ARUNACHAL PRADESH, 	Agriculture,Animal Husbandry, Dairying  &  Fisheries,Art & Culture,Children,Civic Issues,Dalit Upliftment,Disaster Management,Drinking Water,Education & Literacy,Environment & Forests,Food Processing,Health & Family Welfare,HIV/AIDS,Housing,Human Rights,Information & Communication Technology,Labour & Employment,Land Resources,Legal Awareness & Aid,Micro Finance (SHGs),Micro Small & Medium Enterprises,Minority Issues,New & Renewable Energy,Nutrition,Panchayati Raj,Rural Development & Poverty Alleviation,Science & Technology,Scientific & Industrial Research,Sports,Tourism,Tribal Affairs,Urban Development & Poverty Alleviation,Vocational Training,Water Resources,Women's Development & Empowerment,Youth Affairs,Any Other,		
280	AR/2017/0164120	PEDONG KENBO SOCIETY	kenpakam@gmail.com	8256949043	1st Floor Taken Pakam Lobom Market Nehru Chowk, Aalo West Siang District Arunachal Pradesh Pin-791001.	Aalo	ARUNACHAL PRADESH, 	Art & Culture,	http:www.PEDONGKENBOSOCIETY.com	
281	AR/2017/0173967	PEETHREE MULTIPURPOSE COOPERATIVE SOCIETY LIMITED	pakge9890@gmail.com	9774103197	RILU VILLAGE, DARING CIRCLE, P.O. BASAR, WEST SIANG DISTRICT, ARUNACHAL PRADESH	BASAR	ARUNACHAL PRADESH, 	Agriculture,Animal Husbandry, Dairying  &  Fisheries,Art & Culture,Children,Differently Abled,Disaster Management,Drinking Water,Aged/Elderly,Environment & Forests,Food Processing,Health & Family Welfare,Human Rights,Information & Communication Technology,Labour & Employment,Micro Finance (SHGs),Micro Small & Medium Enterprises,Panchayati Raj,Rural Development & Poverty Alleviation,Science & Technology,Sports,Tourism,Tribal Affairs,Vocational Training,Youth Affairs,		
282	AR/2017/0156737	Pema Mani Charitable Trust	kmgyaltsen@yahoo.com	9435475468	P.O. Tuting	Tuting	ARUNACHAL PRADESH, ASSAM, 	Education & Literacy,Art & Culture,Aged/Elderly,Environment & Forests,		
283	AR/2017/0151349	PEOPLE AWARENESS SOCIETY	ak_miyu2003@yahoo.co.in	9436058048	Lower Simar Colony Yingkiong. Dist. Upper Siang, P.Oand PS Yingkiong.	Yingkiong	ARUNACHAL PRADESH, 	Agriculture,Animal Husbandry, Dairying  &  Fisheries,Children,Civic Issues,Drinking Water,Education & Literacy,Aged/Elderly,Environment & Forests,Food Processing,Health & Family Welfare,Housing,Human Rights,Information & Communication Technology,Labour & Employment,Micro Small & Medium Enterprises,New & Renewable Energy,Rural Development & Poverty Alleviation,Science & Technology,Sports,Tourism,Tribal Affairs,Urban Development & Poverty Alleviation,Vocational Training,Water Resources,Women's Development & Empowerment,Youth Affairs,	https://www.peopleawareness.org	
284	AR/2016/0109670	PURBANCHAL WELFARE SOCIETY	tanachar76@gmail.com	9612562013	RAKAP COLONY NEAR YOUTH HOSTEL PO NAHARLAGUN PAPUM PARE DISTRICT ARUNACHAL PRADESH PIN 791110	NAHARLAGUN	ARUNACHAL PRADESH, 	Agriculture,Art & Culture,Children,Disaster Management,Dalit Upliftment,Drinking Water,Education & Literacy,Environment & Forests,Health & Family Welfare,Legal Awareness & Aid,Nutrition,Rural Development & Poverty Alleviation,Sports,Tribal Affairs,Vocational Training,Women's Development & Empowerment,		
285	AR/2009/0007790	R K Mossang Memorial Society	arupkumar_ch@yahoo.co.in	9436228161	1. Miss Komoli Mosang 2. Sri Arup Kumar Choudhury C/O R.K.Mossang Memorial Society	Jairampur	ARUNACHAL PRADESH, 	Animal Husbandry, Dairying  &  Fisheries,Art & Culture,Civic Issues,Education & Literacy,Health & Family Welfare,HIV/AIDS,Legal Awareness & Aid,Micro Finance (SHGs),Rural Development & Poverty Alleviation,Tribal Affairs,Vocational Training,Women's Development & Empowerment,Youth Affairs,	http://rkmmsociety.org	
286	AR/2016/0108697	Raksap Multipurpose Cooperative Society Ltd	raksapsociety@gmail.com	8974787433	Aalo, P.O. Aalo, West Siang District, Arunachal Pradesh	Aalo	ARUNACHAL PRADESH, 	Animal Husbandry, Dairying  &  Fisheries,Aged/Elderly,Agriculture,Art & Culture,Biotechnology,Children,Civic Issues,Differently Abled,Disaster Management,Dalit Upliftment,Drinking Water,Education & Literacy,Environment & Forests,Food Processing,Health & Family Welfare,HIV/AIDS,Housing,Human Rights,Information & Communication Technology,Legal Awareness & Aid,Labour & Employment,Land Resources,Micro Finance (SHGs),Minority Issues,Micro Small & Medium Enterprises,		
287	AR/2009/0007056	Ramakrishna Mission Aalo	aalo@rkmm.org	9436638131	Ramakrishna Mission, P.O.Viveknagar,Aalo (Along)DistrictWest Siang, Arunachal Pradesh 791 001	Aalo 	ARUNACHAL PRADESH, 	Tribal Affairs,	http://www.ramakrishnamissionaalo.org/	
288	AR/2017/0118671	Ramakrishna Mission Hospital	rkmitanagar@gmail.com	9436639142	Ramakrishna Mission Hospital P.O. R K Mission 791103	Itanagar	ARUNACHAL PRADESH, 	Education & Literacy,Health & Family Welfare,		
289	AR/2009/0006097	Ramakrishna Mission School	narottamnagar@rkmm.org	9436046176	792129	Narottam Nagar	ARUNACHAL PRADESH, 	Education & Literacy,Health & Family Welfare,Tribal Affairs,Vocational Training,	http://www.rkmnarottamnagar.org	
290	AR/2017/0152679	Ramakrishna Sarada Mission	rksmksa@gmail.com	8335020454	Ramakrishna Sarada Mission Khonsa Khonsa,	Khonsa	ARUNACHAL PRADESH, 	Children,Education & Literacy,Tribal Affairs,Vocational Training,Women's Development & Empowerment,	http://rksmkhonsa.org/	
291	AR/2020/0268327	RENGCHI PORIANG VILLAGE FOREST MANAGEMENT COMMITTEE	ktaniu532@gmail.com	7005257767	Rengchi Poriang Village, Parsi Parlo Circle, District- Kurung Kumey,	Koloriang	ARUNACHAL PRADESH, 	Environment & Forests,Agriculture,Animal Husbandry, Dairying  &  Fisheries,Art & Culture,Biotechnology,Children,Civic Issues,Differently Abled,Disaster Management,Drinking Water,Education & Literacy,Aged/Elderly,Food Processing,Health & Family Welfare,Land Resources,		
292	AR/2016/0112681	Research institute of Worlds Ancient Traditions Cultures and Heritage	vjayarunachal@gmail.com	9436050169	Village-Khinjili, PO-Roing, Lower Dibang Valley, Arunachal Pradesh PIN-792110	Roing	ARUNACHAL PRADESH, ASSAM, testingswss, ASSAM, MEGHALAYA, MANIPUR, MIZORAM, NAGALAND, TRIPURA, 	Art & Culture,Education & Literacy,Environment & Forests,Health & Family Welfare,Micro Finance (SHGs),New & Renewable Energy,Rural Development & Poverty Alleviation,Scientific & Industrial Research,Tribal Affairs,Vocational Training,Women's Development & Empowerment,Youth Affairs,	http://www.riwatch.org	
293	AR/2020/0263537	RIDE ARUNACHAL 	ridearunachal@gmail.com	8258037450	ITANAGAR PAPUM PARE ARUNACHAL PRADESH	ARUNACHAL PRADESH		Agriculture,Animal Husbandry, Dairying  &  Fisheries,Art & Culture,Biotechnology,Children,Civic Issues,Dalit Upliftment,Differently Abled,Disaster Management,Drinking Water,Education & Literacy,Aged/Elderly,Environment & Forests,Food Processing,Health & Family Welfare,HIV/AIDS,Housing,Human Rights,Information & Communication Technology,Labour & Employment,Land Resources,Legal Awareness & Aid,Micro Finance (SHGs),Micro Small & Medium Enterprises,Minority Issues,New & Renewable Energy,Nutrition,Panchayati Raj,Prisoner's Issues,Right to Information & Advocacy,Rural Development & Poverty Alleviation,Science & Technology,Scientific & Industrial Research,Sports,Tourism,Tribal Affairs,Urban Development & Poverty Alleviation,Vocational Training,Water Resources,Women's Development & Empowerment,		
294	AR/2017/0160766	Rigdzin Choeling Lhakhang Society	rclsbdl2011@gmail.com	9436417683	Bomdila, Near Water Treatment Plant, RR Hill Road PO/PS: Bomdila. District West Kameng. Arunachal Pradesh. Pin-790001	Bomdila	ARUNACHAL PRADESH, 	Agriculture,Art & Culture,Biotechnology,Children,Differently Abled,Drinking Water,Education & Literacy,Health & Family Welfare,		
295	AR/2018/0193096	RIGDZIN NORBU CHOELING GONPA	rigdzinratna108@gmail.com	9436883668	RIGDZIN NORBU CHOELING MONASTERY BHALUKPONG	BHALUKPONG	ARUNACHAL PRADESH, 	Art & Culture,Any Other,		
296	AR/2021/0274156	ROSE FARMING DEV & LITERARY SOCIETY	rfdls_poma@yahoo.co.in	9402698084	Poma Village, Circle Sangdupota,	Itanagar	ARUNACHAL PRADESH, 	Agriculture,Animal Husbandry, Dairying  &  Fisheries,Disaster Management,Drinking Water,Education & Literacy,Environment & Forests,Food Processing,Health & Family Welfare,Housing,Panchayati Raj,Rural Development & Poverty Alleviation,Tourism,Tribal Affairs,Micro Small & Medium Enterprises,New & Renewable Energy,Sports,Urban Development & Poverty Alleviation,Water Resources,Youth Affairs,		
297	AR/2018/0190878	Rural Development and Heritage Society	rdhs2006@gmail.com	9436634235	Sangram, Kurung Kumey	Sangram				
298	AR/2010/0031049	Rural Development Society	duirds@gmail.com	9862788364	Mama Complex, Opp-Hotel River View, Barapani	Naharlagun	ARUNACHAL PRADESH, 	Agriculture,Art & Culture,Biotechnology,Children,Disaster Management,Drinking Water,Education & Literacy,Environment & Forests,Food Processing,Health & Family Welfare,HIV/AIDS,Housing,Human Rights,Information & Communication Technology,Legal Awareness & Aid,Labour & Employment,Land Resources,Micro Finance (SHGs),Minority Issues,Micro Small & Medium Enterprises,New & Renewable Energy,Nutrition,Rural Development & Poverty Alleviation,Scientific & Industrial Research,Science & Technology,		
299	AR/2018/0192846	Rural Mahila Welfare Society	rmwsap2009@gmail.com	7085917098	Namko Deed Village, P.O.CircleDeed	Ziro	ARUNACHAL PRADESH, 	Rural Development & Poverty Alleviation,		
300	AR/2016/0100469	RURAL WOMEN DEVELOPMENT COUNCIL	rwdckimin@gmail.com	9436044541	MODEL VILLAGE KIMIN PAPUMPARE DISTRICT ARUNACHAL PRADESH PIN 791121	KIMIN	ARUNACHAL PRADESH, 	Animal Husbandry, Dairying  &  Fisheries,Aged/Elderly,Agriculture,Art & Culture,Children,Differently Abled,Disaster Management,Dalit Upliftment,Drinking Water,Education & Literacy,Environment & Forests,Health & Family Welfare,Human Rights,Legal Awareness & Aid,Labour & Employment,Micro Finance (SHGs),Minority Issues,Nutrition,Rural Development & Poverty Alleviation,Sports,Tribal Affairs,Urban Development & Poverty Alleviation,Vocational Training,Women's Development & Empowerment,		
301	AR/2017/0177125	Sadhanarama Bana Vihara Foundation	sbvfdyn@gmail.com	7085353644	Vill: Jyotsnapur, P.O/P.S: Diyun Changlang district :: Arunachal Pradesh Pin: 792103	Diyun	ARUNACHAL PRADESH, 	Art & Culture,Education & Literacy,Minority Issues,Rural Development & Poverty Alleviation,Women's Development & Empowerment,	https://www.sbvfdiyun.org	
302	AR/2019/0249014	Sadhanarama Foundation	sadhanaramafoundation@gmail.com	8638644961	Jyotsnapur Village, Diyun Circle, Changlang district, Arunachal Pradesh	Diyun	ARUNACHAL PRADESH, 	Education & Literacy,Minority Issues,Rural Development & Poverty Alleviation,Vocational Training,Women's Development & Empowerment,	https://sadhanaramafoundation.org	
303	AR/2017/0157963	SAMTEN CHOELING EDUCATIONAL &CULTURAL PRESERVATION SOCIETY	sceducationalps20@gmail.com	7641007044	P.O/P.S-Jang-790105 District -Tawang Arunachal Pradesh	jANG	ARUNACHAL PRADESH, 	Art & Culture,Education & Literacy,		
304	AR/2018/0184637	SANGCHA AJIN FOUNDATION	HAPOAPOBYABANG@GMAIL.COM	9436618174	PALIN KRA DAADI ARUNACHAL PRADESH	PALIN				
305	AR/2020/0257924	Sangcha Welfare Society	sangchawelfare@gmail.com	9436896417	SANGRAM TOWN PO/PS SANGRAM DISTT KURUNG KUMEY ARUNACHAL PRADESH PIN 791 118	ITANAGAR	ARUNACHAL PRADESH, 	Agriculture,Animal Husbandry, Dairying  &  Fisheries,Art & Culture,Children,Drinking Water,Education & Literacy,Aged/Elderly,Environment & Forests,Food Processing,Health & Family Welfare,Human Rights,Micro Finance (SHGs),Micro Small & Medium Enterprises,Rural Development & Poverty Alleviation,Tourism,Tribal Affairs,Vocational Training,Women's Development & Empowerment,Youth Affairs,		
306	AR/2016/0105445	SANGHA WELFARE SOCIETY	sanghawelfaresociety@gmail.com	9436883156	PARSI PARLO CIRCLE KOLORIANG KURUNG KUMEY DISTRICT ARUNACHAL PRADESH PIN 791118	KOLORIANG	ARUNACHAL PRADESH, 	Animal Husbandry, Dairying  &  Fisheries,Agriculture,Art & Culture,Children,Disaster Management,Drinking Water,Education & Literacy,Environment & Forests,Health & Family Welfare,Rural Development & Poverty Alleviation,Sports,Tribal Affairs,Women's Development & Empowerment,		
307	AR/2018/0215917	SANGHI-GAI MULTIPURPOSE COOPERATIVE SOCIETY LIMITED	bengiabado@gmail.com	8787884211	KOLORIANG P.O KOLORING , P.S-SANGRAM DISTRICT KURUNG KUMEY STATE -ARUNACHAL PRADESHPIN NO 791118	Koloriang	ARUNACHAL PRADESH, 	Agriculture,Art & Culture,Education & Literacy,Labour & Employment,Women's Development & Empowerment,Animal Husbandry, Dairying  &  Fisheries,Biotechnology,Civic Issues,Dalit Upliftment,Differently Abled,Disaster Management,Drinking Water,Aged/Elderly,Environment & Forests,Food Processing,Health & Family Welfare,HIV/AIDS,Housing,Human Rights,Information & Communication Technology,Land Resources,Legal Awareness & Aid,Micro Finance (SHGs),Micro Small & Medium Enterprises,Minority Issues,New & Renewable Energy,Nutrition,Panchayati Raj,Prisoner's Issues,Right to Information & Advocacy,Rural Development & Poverty Alleviation,Science & Technology,Scientific & Industrial Research,Sports,Tourism,Tribal Affairs,Urban Development & Poverty Alleviation,Vocational Training,Water Resources,Youth Affairs,Any Other,		
308	AR/2016/0105384	Sangrh Langrh Multipurpose cooperative Society Ltd	btashi@rediffmail.com	9436052067	O/o Sangrh Langrh Multipurpose Cooperative Society Ltd,Near Helipad, Koloriang Town, PO/PS Koloriang District Kurung Kumey, Arunachal Pradesh PINCode 791 118	Koloriang Town		Animal Husbandry, Dairying  &  Fisheries,Agriculture,Dalit Upliftment,Education & Literacy,Environment & Forests,Health & Family Welfare,Legal Awareness & Aid,Labour & Employment,Micro Finance (SHGs),Panchayati Raj,Rural Development & Poverty Alleviation,Sports,Tribal Affairs,Urban Development & Poverty Alleviation,Vocational Training,Women's Development & Empowerment,Youth Affairs,		
309	AR/2017/0164652	Sangshinaah Multipurpose Cooperative Society	sangshinath@rediffmail.com	8368607026	PO NAFRA	NAFRA	ARUNACHAL PRADESH, 	Agriculture,Animal Husbandry, Dairying  &  Fisheries,Art & Culture,Biotechnology,Children,Civic Issues,Dalit Upliftment,Health & Family Welfare,HIV/AIDS,Human Rights,		
310	AR/2017/0156833	Sangya Rural Development Society	sangya12@yahoo.com	7085775349	Naharlagun Papumpare	Naharlagun	ARUNACHAL PRADESH, 	Animal Husbandry, Dairying  &  Fisheries,Art & Culture,Drinking Water,Education & Literacy,Environment & Forests,Food Processing,Health & Family Welfare,Information & Communication Technology,Rural Development & Poverty Alleviation,Science & Technology,Tribal Affairs,Youth Affairs,Any Other,		
311	AR/2019/0248926	SANIA WELFARE SOCIETY OF PALIN AREA	mercyhome33@gmail.com	7628080885	PALIN KURUNG KUMEY DISTRICT ARUNACHAL PRADESH	PALIN	ARUNACHAL PRADESH, 	Agriculture,Animal Husbandry, Dairying  &  Fisheries,Art & Culture,Children,Dalit Upliftment,Drinking Water,Education & Literacy,Aged/Elderly,Environment & Forests,Food Processing,Health & Family Welfare,HIV/AIDS,Housing,Labour & Employment,Legal Awareness & Aid,Micro Small & Medium Enterprises,Minority Issues,Panchayati Raj,Rural Development & Poverty Alleviation,Science & Technology,Tourism,Tribal Affairs,Urban Development & Poverty Alleviation,Vocational Training,Women's Development & Empowerment,Youth Affairs,		
312	AR/2010/0032157	sanskar bharati arunachal pardesh	linksukh@yahoo.com		Minam Home, Ganga, Itanagar Arunachal Pradesh	Itanagar	ARUNACHAL PRADESH, 	Art & Culture,Tribal Affairs,Vocational Training,Youth Affairs,		
313	AR/2016/0107294	Sei Donyi Charitable Trust	seisdct01@gmail.com	9436045921	Sei-Donyi Charitable Trust Medical Colony	Seppa	ARUNACHAL PRADESH, 	Animal Husbandry, Dairying  &  Fisheries,Agriculture,Education & Literacy,HIV/AIDS,Labour & Employment,Rural Development & Poverty Alleviation,Sports,Tribal Affairs,Vocational Training,Youth Affairs,		
314	AR/2013/0071985	SERA WELFARE SOCIETY	serawelfaresociety2001@gmail.com	8729893889	SERA VILLAGE BOMDILA WEST KAMENG DISTRICT ARUNACHAL PRADESH	BOMDILA	ARUNACHAL PRADESH, 	Animal Husbandry, Dairying  &  Fisheries,	http://serawelfaresociety.com	
315	AR/2016/0113647	SEVA BHARATI ARUNACHAL PRADESH	sevabharatiarunachalpradesh@gmail.com	9707135695	DANIS APARTMENT, NAHARLAGUN,ARUNACHAL PRADESH, PIN791110	NAHARLAGUN		Agriculture,Art & Culture,Children,Education & Literacy,Environment & Forests,Health & Family Welfare,Housing,Legal Awareness & Aid,Labour & Employment,Nutrition,Rural Development & Poverty Alleviation,Sports,Tribal Affairs,Urban Development & Poverty Alleviation,Vocational Training,Women's Development & Empowerment,Youth Affairs,		
316	AR/2017/0176188	SEVA KENDRA ARUNACHAL EAST	rincyksh@gmail.com	9862239485	P.O. MIAO	MIAO	ARUNACHAL PRADESH, 	Vocational Training,Civic Issues,Disaster Management,Education & Literacy,Environment & Forests,Health & Family Welfare,Rural Development & Poverty Alleviation,Tribal Affairs,Women's Development & Empowerment,	http://www.sevakendra.org/	
317	AR/2017/0177243	SEVA SAMITHY	sevasamithy55@gmail.com	8974720194	P.O KHONSA	KHONSA	ARUNACHAL PRADESH, 	Youth Affairs,Tribal Affairs,Urban Development & Poverty Alleviation,Women's Development & Empowerment,		
318	AR/2017/0172741	Shar-Chhock Khochi Farmers Society	srkhochey@gmail.com	9402842712	TownKalaktang PO/PSKalaktang District West Kameng Arunachal Pradesh	Kalaktang	ARUNACHAL PRADESH, 	Agriculture,		
319	AR/2017/0176919	SHEEP SOCIETY	manoffaith35@gmail.com	8974791415	H.Q. YUPIA DIST. PAPUM PARE STATEARUNACHAL PRADESH PIN NO. 791110	YUPIA	ARUNACHAL PRADESH, 	Animal Husbandry, Dairying  &  Fisheries,Art & Culture,Children,Civic Issues,Disaster Management,Drinking Water,Education & Literacy,Food Processing,Health & Family Welfare,HIV/AIDS,Information & Communication Technology,Labour & Employment,Legal Awareness & Aid,Micro Finance (SHGs),Micro Small & Medium Enterprises,Rural Development & Poverty Alleviation,Science & Technology,Tribal Affairs,Vocational Training,Women's Development & Empowerment,Any Other,	http://www.sheepsociety2006.org	
320	AR/2010/0032650	SHOSI NAMCHAR BAGANG VILLAGE FORST MANAGEMENT COMMITTEE	blayukasha@gmail.com	9862395253	Shosi Village, Chayang Tajo Circle, Pin-790102	East Kameng	ARUNACHAL PRADESH, 	Agriculture,Art & Culture,	http://	
321	AR/2020/0251641	SHUNGKUH WANCHO WOMEN WELFARE SOCIETY	swwwspch.wakka@gmail.com	7085819962	PONGCHAU, LONGDING, ARUNACHAL PRADESH792131	LONGDINGH		Agriculture,Animal Husbandry, Dairying  &  Fisheries,Art & Culture,Biotechnology,Children,Civic Issues,Dalit Upliftment,Differently Abled,Disaster Management,Drinking Water,Education & Literacy,Aged/Elderly,Environment & Forests,Food Processing,Health & Family Welfare,HIV/AIDS,Housing,Human Rights,Information & Communication Technology,Labour & Employment,Land Resources,Legal Awareness & Aid,Micro Finance (SHGs),Micro Small & Medium Enterprises,Minority Issues,New & Renewable Energy,Nutrition,Panchayati Raj,Prisoner's Issues,Right to Information & Advocacy,Rural Development & Poverty Alleviation,Science & Technology,Scientific & Industrial Research,Sports,Tourism,Tribal Affairs,Urban Development & Poverty Alleviation,Vocational Training,Water Resources,Women's Development & Empowerment,		
322	AR/2020/0256265	Sidartha Wisdom welfare Society	daninime13@gmail.com	8794217577	Rama-Camp P.O/P.S Dirang	Dirang	ARUNACHAL PRADESH, 	Education & Literacy,		
323	AR/2020/0263661	SIKU WELFARE SOCIETY	sikuwelfaresociety01@gmail.com	9612210486	VillageAyeng, DistrictEast Siang,Arunachal Pradesh, Pin791104	East Siang	ARUNACHAL PRADESH, 	Animal Husbandry, Dairying  &  Fisheries,Art & Culture,Biotechnology,Children,Civic Issues,Dalit Upliftment,Differently Abled,Disaster Management,Drinking Water,Education & Literacy,Aged/Elderly,Health & Family Welfare,HIV/AIDS,Women's Development & Empowerment,Youth Affairs,		
324	AR/2009/0023589	Simang Valley Women Welfare Society	simangvalleywss@gmail.com	9711817223	SIMANG VALLEY WOMEN WELFARE SOCIETY BELONG, EAST SIANG DISTRICT ARUNACHAL PRADESH PIN791102	BELONG		Agriculture,Education & Literacy,Health & Family Welfare,HIV/AIDS,Rural Development & Poverty Alleviation,Sports,Urban Development & Poverty Alleviation,Vocational Training,Women's Development & Empowerment,		
325	AR/2018/0216726	SINGPHO DEVELOPMENT SOCIETY	punarambya1@gmail.com	9582990511	BORDUMSA 792056DISTRICTCHANGLANGARUNACHAL PRADESH	BORDUMSA	ARUNACHAL PRADESH, 	Agriculture,Animal Husbandry, Dairying  &  Fisheries,Art & Culture,Biotechnology,Children,Civic Issues,Differently Abled,Disaster Management,Drinking Water,Aged/Elderly,Environment & Forests,Food Processing,Health & Family Welfare,Human Rights,Labour & Employment,Land Resources,Legal Awareness & Aid,Micro Finance (SHGs),Micro Small & Medium Enterprises,Minority Issues,New & Renewable Energy,Nutrition,Panchayati Raj,Sports,		
326	AR/2020/0267015	SIPONG MULTIPURPOSE COOPERATIVE SOCIETY LTD.	sipongmcs@gmail.com	9436647470	VillageBomi, PO/PS Mariyang, District - Upper Siang, Arunachal pradesh	Yingkiong	ARUNACHAL PRADESH, 	Agriculture,Animal Husbandry, Dairying  &  Fisheries,Biotechnology,Civic Issues,Disaster Management,Education & Literacy,Food Processing,Micro Small & Medium Enterprises,	http://www.sipongmcs.org	
327	AR/2018/0205806	SIRCHANGLANG DEVELOPMENT BOARD	sirchanglang@gmail.com	9818456784	NAFRA, WEST KAMENG	Nafra	ARUNACHAL PRADESH, 	Art & Culture,Education & Literacy,Environment & Forests,Health & Family Welfare,Human Rights,Minority Issues,Tribal Affairs,Youth Affairs,		
328	AR/2016/0107522	SOCIETY FOR ADVANCEMENT OF RURAL DEVELOPMENT	sardsangram@gmail.com	7085758114	SANGRAM KURUNG KUMEY DISTRICT ARUNACHAL PRADESH PIN 791118	SANGRAM	ARUNACHAL PRADESH, 	Animal Husbandry, Dairying  &  Fisheries,Aged/Elderly,Agriculture,Art & Culture,Biotechnology,Children,Civic Issues,Differently Abled,Disaster Management,Dalit Upliftment,Drinking Water,Education & Literacy,Environment & Forests,Food Processing,Health & Family Welfare,HIV/AIDS,Housing,Human Rights,Information & Communication Technology,Legal Awareness & Aid,Labour & Employment,Land Resources,Micro Finance (SHGs),Minority Issues,Micro Small & Medium Enterprises,		
329	AR/2020/0258034	SOCIETY FOR EDUCATION AND ENVIRONMENTAL DEVELOPMENT	mibopertin@gmail.com	9436095666	C/o M.R Boys Hostel, Jollang(Tugung Namchang) P.OR.K Mission, P.SItanagar, District Papum Pare, Arunachal Pradesh, Pin791111	Itanagar	ARUNACHAL PRADESH, 	Tourism,Civic Issues,Education & Literacy,Environment & Forests,Food Processing,Health & Family Welfare,Labour & Employment,Micro Small & Medium Enterprises,Sports,Vocational Training,Youth Affairs,Any Other,Agriculture,Animal Husbandry, Dairying  &  Fisheries,Art & Culture,Children,Differently Abled,Disaster Management,Drinking Water,Aged/Elderly,New & Renewable Energy,Rural Development & Poverty Alleviation,Tribal Affairs,		
330	AR/2020/0252346	SOCIO ECONOMIC EDUCATIONAL DEVELOPMENT SOCIETY	nabamsimon4612@gmail.com	7005334715	C-SECTOR, ITANAGAR, NEAR DIRECTORATE OF INDUSTRIES, UDYOG SADAN GOVT. OF ARUNACHAL PRADESH-791111	ITANAGAR		Agriculture,Animal Husbandry, Dairying  &  Fisheries,Art & Culture,Biotechnology,Children,Civic Issues,Dalit Upliftment,Differently Abled,Disaster Management,Drinking Water,Education & Literacy,Aged/Elderly,Environment & Forests,Food Processing,Health & Family Welfare,HIV/AIDS,Housing,Human Rights,Information & Communication Technology,Labour & Employment,Land Resources,Legal Awareness & Aid,Micro Finance (SHGs),Micro Small & Medium Enterprises,Minority Issues,New & Renewable Energy,Nutrition,Panchayati Raj,Prisoner's Issues,Right to Information & Advocacy,Rural Development & Poverty Alleviation,Science & Technology,Scientific & Industrial Research,Sports,Tourism,Tribal Affairs,Urban Development & Poverty Alleviation,Vocational Training,Water Resources,Women's Development & Empowerment,Youth Affairs,		
331	AR/2018/0201965	SOTOS WELFARE AND AGRO FORESTRY SOCIETY	ddhananjaybhu@gmail.com	9436049200	Vill And Post WAKRO, District LOHIT, ARUNACHAL PRADESH 792102	WAKARO	ARUNACHAL PRADESH, 	Animal Husbandry, Dairying  &  Fisheries,Art & Culture,Biotechnology,Children,Civic Issues,Dalit Upliftment,Differently Abled,Disaster Management,Drinking Water,Education & Literacy,Aged/Elderly,Environment & Forests,Food Processing,HIV/AIDS,Legal Awareness & Aid,Micro Finance (SHGs),		
332	AR/2017/0168056	St Francis De Sales College Society	provincialbursarnortheast@gmail.com	8404040648	St.Francis De Sales College Society, P.B No.34, West Siang Dist., Arunachal Pradesh-791001	Aalo	TRIPURA, ARUNACHAL PRADESH, ASSAM, MANIPUR, MEGHALAYA, MIZORAM, NAGALAND, 	Agriculture,Children,Education & Literacy,Health & Family Welfare,Vocational Training,Youth Affairs,		
333	AR/2016/0100604	STATE RESOURCE CENTRE ARUNACHAL PRADESH	srcap.nlg@gmail.com	9435728431	State Resource Centre  B-Sector  Naharlagun-791110  Papumpare District  Arunachal Pradesh	Naharlagun	ARUNACHAL PRADESH, 	Education & Literacy,		
334	AR/2019/0239330	Subansiri Agri-Horti-Floriculture Society	hagenamaziro@gmail.com	8014012823	C/o M/s Subansiri Agri-Horti-Floriculture Society, M.G. Road, Hapoli, PO/PS. Ziro, Lower Subansiri District, Arunachal Pradesh.	Ziro				
335	AR/2017/0169192	Subansiri Kristu Kiran Society	dioceseofitanagar3@gmail.com	8731035288	P.B. No 03 Hapoli	Ziro	ARUNACHAL PRADESH, 			
336	AR/2019/0243808	SUPUNG MULTIPURPOSE COOPERATIVE SOCIETY LIMITED	rajennani63@gmail.com	8413838086	PO PS, HAPOLI, DISTRICT LOWER SUBANSIRI, STATE ARUNACHAL PRADESH, PIN 791120	ZIRO		Agriculture,Animal Husbandry, Dairying  &  Fisheries,Art & Culture,Biotechnology,Children,Disaster Management,Drinking Water,Education & Literacy,Environment & Forests,Food Processing,Health & Family Welfare,HIV/AIDS,Housing,Human Rights,Information & Communication Technology,Labour & Employment,Land Resources,Legal Awareness & Aid,Micro Finance (SHGs),Micro Small & Medium Enterprises,New & Renewable Energy,Nutrition,Panchayati Raj,Prisoner's Issues,Rural Development & Poverty Alleviation,Science & Technology,Scientific & Industrial Research,Tourism,Tribal Affairs,Urban Development & Poverty Alleviation,Vocational Training,Water Resources,Women's Development & Empowerment,		
337	AR/2018/0204143	TAARU ABU WELFARE SOCIETY	taaruabuws@gmail.com	9774423114	Village-Rasing Happa, Chambang, Disrict-Kurung Kumey-791111 Arunachal Pradesh	ITANAGAR	ARUNACHAL PRADESH, 			
338	AR/2020/0256614	Tadar Abu Charitable Society	tadarabungo@gmail.com	7005236411	C/o. Tadar Takar, Near FCI Godown Karsinsha, PO/PS. Banderdewa791123	Naharlagun	ARUNACHAL PRADESH, 	Agriculture,Animal Husbandry, Dairying  &  Fisheries,Art & Culture,Children,Civic Issues,Differently Abled,Disaster Management,Drinking Water,Education & Literacy,Aged/Elderly,Environment & Forests,Food Processing,Health & Family Welfare,HIV/AIDS,Information & Communication Technology,Labour & Employment,Land Resources,Legal Awareness & Aid,Micro Small & Medium Enterprises,New & Renewable Energy,Panchayati Raj,Right to Information & Advocacy,Science & Technology,Sports,Tourism,Tribal Affairs,Urban Development & Poverty Alleviation,Vocational Training,Women's Development & Empowerment,Youth Affairs,Any Other,	http://www.tadarabu.com/	
339	AR/2020/0265945	TAGIN CULTURAL SOCIETY	nalotumkum@gmail.com	8974124930	TAGIN CULTURAL SOCIETY (HQ- DAPORIJO), DISTRICT UPPER SUBANSIRI, ARUNACHAL PRADESH- PIN- 791122	DAPORIJO	ARUNACHAL PRADESH, 			
340	AR/2018/0220085	Taje Memorial Multipurpose Society	prembiswakarma@gmail.com	9862827761	Gohpur Tinali, Itanagar	Itanagar	ARUNACHAL PRADESH, 	Education & Literacy,	http://www.tajememorials.org	
341	AR/2016/0099927	Take Bogo Welfare Society	tpussang@yahoo.com	9856844048	PO/PS Ziro	Ziro	ARUNACHAL PRADESH, 	Animal Husbandry, Dairying  &  Fisheries,Agriculture,Drinking Water,Environment & Forests,Food Processing,Health & Family Welfare,Micro Finance (SHGs),Micro Small & Medium Enterprises,Science & Technology,Tribal Affairs,Tourism,Any Other,		
342	AR/2019/0238525	TAKIO TAHI GROVE FOUNDATION	ttgrovefoundation@gmail.com	9436225928	Pobi Memorial School, Jollang Daath, Jollang,	Itanagar	ARUNACHAL PRADESH, 	Agriculture,Art & Culture,Education & Literacy,Environment & Forests,		
343	AR/2020/0249967	TAMIN ELITE SOCIETY 	taminelitesociety@gmail.com	9436686338	Tamin Traditional Corner Gandhi Market Daporijo	Daporijo	ARUNACHAL PRADESH, 	Disaster Management,Drinking Water,Education & Literacy,Aged/Elderly,Environment & Forests,Food Processing,Health & Family Welfare,HIV/AIDS,Housing,Human Rights,Information & Communication Technology,Labour & Employment,Legal Awareness & Aid,Micro Finance (SHGs),Micro Small & Medium Enterprises,Minority Issues,New & Renewable Energy,Nutrition,Rural Development & Poverty Alleviation,Urban Development & Poverty Alleviation,Women's Development & Empowerment,Youth Affairs,	http://tamin.com	
344	AR/2018/0198454	TAMRO MULTIPURPOSE COOPERATIVE SOCIETY LIMITED	tamrompcs@gmail.com	7085856841	GEKU KUPAK, PO/ PS GEKU	GEKU			http:/www.tamrompcs.com	
345	AR/2018/0214454	Tangsa Baptist Churches Association	tbca15@gmail.com	8413037307	MISSION CENTRE NONGTHAM KHARSANG CIRCLE	NONGTHAM	ARUNACHAL PRADESH, 	Children,Drinking Water,Education & Literacy,Health & Family Welfare,Tribal Affairs,Vocational Training,Women's Development & Empowerment,Youth Affairs,		
346	AR/2017/0154030	Tani Koo Welfare Society	dolangbharat2014@gmail.com	9436068006	Palin, PO	Palin				
347	AR/2020/0264622	Tani Society 	padi.richo@rediffmail.com	9856072349	Ziro Lower Subansiri District Arunachal Pradesh	Ziro				
348	AR/2019/0244154	Tara Foundation India	tarafoundationindia@hotmail.com	7085319005	Manjushree Building, Main Market Bomdila, West Kameng District, Arunachal Pradesh	Bomdila	ARUNACHAL PRADESH, 	Art & Culture,Children,Education & Literacy,Environment & Forests,HIV/AIDS,Micro Finance (SHGs),Minority Issues,Tourism,Tribal Affairs,Vocational Training,Youth Affairs,Drinking Water,		
349	AR/2016/0111203	TARAK WOMEN WELFARE SOCIETY	olikomi7jomang@gmail.com	9485253068	Tarak, P.O. Pangin,	Pangin	ARUNACHAL PRADESH, 	Animal Husbandry, Dairying  &  Fisheries,Aged/Elderly,Agriculture,Art & Culture,Biotechnology,Children,Civic Issues,Differently Abled,Disaster Management,Dalit Upliftment,Drinking Water,Education & Literacy,Environment & Forests,Food Processing,Health & Family Welfare,HIV/AIDS,Housing,Human Rights,Information & Communication Technology,Legal Awareness & Aid,Labour & Employment,Land Resources,Micro Finance (SHGs),Minority Issues,Micro Small & Medium Enterprises,		
350	AR/2016/0113716	TARH YADEK SOLONG MEMORIAL FOUNDATION	tarhyadeksmf@gmail.com	7640059051	VILL - PACHIN COLONY PO/PS - NAHARLAGUN DISTRICT - PAPUM PARE STATE - ARUNACHAL PRADESH PIN NO. 791110	NAHARLAGUN	ARUNACHAL PRADESH, 	Health & Family Welfare,HIV/AIDS,Housing,Human Rights,Information & Communication Technology,Micro Finance (SHGs),Minority Issues,Micro Small & Medium Enterprises,New & Renewable Energy,Right to Information & Advocacy,Rural Development & Poverty Alleviation,Scientific & Industrial Research,Science & Technology,Urban Development & Poverty Alleviation,Vocational Training,Water Resources,Women's Development & Empowerment,Youth Affairs,Any Other,		
351	AR/2009/0022324	Tarhuk Samaj	tarhuksamaj@gmail.com	9436044226	Village Kopila Post Box No. 290.Rakap Colony Naharlagun Arunachal PradeshPIN - 791110	Naharlagun	ARUNACHAL PRADESH, 	Animal Husbandry, Dairying  &  Fisheries,Aged/Elderly,Agriculture,Art & Culture,Biotechnology,Children,Civic Issues,Differently Abled,Disaster Management,Dalit Upliftment,Drinking Water,Education & Literacy,Environment & Forests,Food Processing,Health & Family Welfare,HIV/AIDS,Housing,Human Rights,Information & Communication Technology,Legal Awareness & Aid,Labour & Employment,Land Resources,Micro Finance (SHGs),Minority Issues,Micro Small & Medium Enterprises,	http://tarhuksamaj.org	
352	AR/2017/0179227	TAWANG DISTRICT YOUTH WELFARE SOCIETY	tawangdistrict1@gmail.com	8826823879	LEMBERDUNG P.O LEMBERDUNG	TAWANG	ARUNACHAL PRADESH, 	Art & Culture,Dalit Upliftment,Health & Family Welfare,Human Rights,Minority Issues,Tribal Affairs,		
353	AR/2020/0259897	TAYEK RIPO MPCS	ishagameh7@gmail.com	8413924052	Dumporijo, PO/PSDumporijo, Upper Subansiri District, Arunachal Pradesh, Pin791122	Dumporijo	ARUNACHAL PRADESH, 	Any Other,Agriculture,Animal Husbandry, Dairying  &  Fisheries,Micro Finance (SHGs),Vocational Training,		
354	AR/2021/0273890	TAYENG ABU CHARITABLE SOCIETY	tarhtapung1978@gmail.com	7629917888	VILLAGE YANGTE, KRA DAADI ARUNACHAL PRADESH	KRA DAADI				
355	AR/2020/0268272	The Art of Living Arunachal Pradesh	aolarunachalpradesh@gmail.com	8910061613	H Sector, Itanagar, Arunachal Pradesh, PIN791113	Itanagar				
356	AR/2020/0266630	The Arunachal Cancer Welfare Society	pappu27heche@gmail.com	7628977650	House No-6, Nabam Apartment Nirjuli-II(B), P.O/P.S:- Nirjuli District: Papum Pare,Arunachal Pradesh-791109	Nirjuli	ARUNACHAL PRADESH, 	Health & Family Welfare,		
357	AR/2018/0189485	THE HUMANITY GROUP	humanitygroup2018@gmail.com	9717873199	NewLebrang	Tawang	ARUNACHAL PRADESH, 	Art & Culture,Children,Civic Issues,Dalit Upliftment,Education & Literacy,Environment & Forests,Health & Family Welfare,Human Rights,		
358	AR/2018/0207299	THE ROCHUNG MULTIPURPOSE CO OPERATIVE SOCIETY LIMITED	cgsisrupa@gmail.com	7628830575	VILLAGERUPA, PO-RUPA, PS-RUPA, WEST KAMENGDISTRICT, ARUNACHAL PRADESH-790003	RUPA	ARUNACHAL PRADESH, 	Animal Husbandry, Dairying  &  Fisheries,Agriculture,Art & Culture,Education & Literacy,Environment & Forests,New & Renewable Energy,Sports,Tourism,		
359	AR/2018/0198401	THE SDFP WELFARE SOCIETY OF THE ARUNACHAL PRADESH	takirkakki88@gmail.com	9862050726	2 MILE, PASIGHAT( BACKSIDE OF NISSAN DEALER) PO/PS PASIGHAT	PASIGHAT	ARUNACHAL PRADESH, 	Environment & Forests,Urban Development & Poverty Alleviation,	http://www.sdfp.com	
360	AR/2019/0244372	The Tawang Foundation	thetawangfoundation@gmail.com	7992306691	medical colony, tawang	tawang	ARUNACHAL PRADESH, 	Art & Culture,Education & Literacy,Health & Family Welfare,Tribal Affairs,		
361	AR/2017/0164425	THEGTSE MEDITATION CULTURE CENTRE	thegtse5490@gmail.com	8413056964	THEGSTE MEDITATION CULTURE CENTRE, Thespa Gonpa, P.O. Tawang, P.S. Tawang,Pin-790104, Arunachal Pradesh, India	Tawang				
362	AR/2019/0229790	Thembang Bapu Community Conserved Area Management Committee	tbccamc@gmail.com	8729930222	C/o Shri Pema Wange, Village-Thembang, PO/PS-Dirang,	Thembang	ARUNACHAL PRADESH, ASSAM, 	Agriculture,Environment & Forests,New & Renewable Energy,Science & Technology,Tourism,Any Other,Animal Husbandry, Dairying  &  Fisheries,Art & Culture,Civic Issues,Drinking Water,Education & Literacy,Food Processing,Land Resources,Micro Finance (SHGs),Micro Small & Medium Enterprises,Rural Development & Poverty Alleviation,Tribal Affairs,Women's Development & Empowerment,Children,Disaster Management,Health & Family Welfare,Labour & Employment,Panchayati Raj,Scientific & Industrial Research,Vocational Training,Water Resources,		
363	AR/2016/0099483	Thembang Bapu Community Conserved Area Management Committee	tbccamc@gmail.com	9436635835	Thembang Bapu CCAMC Management Committee Co Mr Pema Wange Thembang villagePO PS Dirang West Kameng DistArunachal Pradesh	Dirang	ARUNACHAL PRADESH, 	Agriculture,Art & Culture,Civic Issues,Disaster Management,Drinking Water,Environment & Forests,Health & Family Welfare,Legal Awareness & Aid,Land Resources,Micro Finance (SHGs),Micro Small & Medium Enterprises,New & Renewable Energy,Rural Development & Poverty Alleviation,Scientific & Industrial Research,Science & Technology,Tourism,Water Resources,		
364	AR/2017/0118402	THEMBANG MPCS LTD	ten.dirkhepa@gmail.com	8259903160	THEMBANG VILLAGE. P/O	DIRANG		Animal Husbandry, Dairying  &  Fisheries,Agriculture,Art & Culture,Differently Abled,Education & Literacy,Environment & Forests,Food Processing,New & Renewable Energy,Panchayati Raj,Science & Technology,Tribal Affairs,Tourism,Youth Affairs,		
365	AR/2018/0192071	THUPSANG DHARGYELLING HIMALAYAN CULTURE & TRADITION PRESERVATION SOCIETY	thupsungdhargyeling2017@gmail.com	8414998557	TDL Monastery, PO/PS:Dirang	bomdila	ARUNACHAL PRADESH, 	Art & Culture,Children,Education & Literacy,Aged/Elderly,Tourism,Tribal Affairs,Women's Development & Empowerment,Youth Affairs,		
366	AR/2019/0245041	THUPTEN DHONAG WOSEL DHARGYLING MONASTERY SOCIETY MANDALA	tdwdsocity@gmail.com	7640086349	THUPTEN DHONAG WOSEL DHARGYLINGPhudung Monastery PO/PSDirang West Kameng Distt Arunachal Pradseh	Dirang	ARUNACHAL PRADESH, 			
367	AR/2018/0215055	TODAK MEMORIAL SOCIETY 	todakmemorialsociety@gmail.com	9436231499	BASAR, WEST SIANG DISTRICT.	BASAR	ARUNACHAL PRADESH, 	Agriculture,Art & Culture,Children,Civic Issues,Drinking Water,Women's Development & Empowerment,Education & Literacy,	http://www.todakmemorialsociety.com	
368	AR/2020/0259901	Topu Bui Multipurpose Welfare Society	topubuimultipurposewelsociety@gmail.com	9436227085	C/O Topu Bui, Village : Bui Circle :Gusar-SegiPO/PS : Dumporijo State :Arunachal Pradesh	Dumporijo	ARUNACHAL PRADESH, 	Animal Husbandry, Dairying  &  Fisheries,Art & Culture,Environment & Forests,Food Processing,Health & Family Welfare,Rural Development & Poverty Alleviation,Tribal Affairs,Vocational Training,Women's Development & Empowerment,Any Other,		
369	AR/2017/0172488	TRANGPODAR WELFARE SOCIETY	aouaning@yahoo.com	9402708518	VILLAGE MORSHINGP.O/P.S-KALAKTANG-790002 WEST KAMENG DISTRICT, ARUNACHAL PRADESH	MORSHING	ARUNACHAL PRADESH, 	Animal Husbandry, Dairying  &  Fisheries,Art & Culture,Education & Literacy,Health & Family Welfare,Micro Small & Medium Enterprises,Vocational Training,Women's Development & Empowerment,Agriculture,Environment & Forests,Human Rights,Rural Development & Poverty Alleviation,Sports,Tourism,Tribal Affairs,Youth Affairs,		
370	AR/2017/0178069	TRIBAL  DEVELOPMENT AND WELFARE SOCIETY	infowayitsolutionsmiao@gmail.com	9774381705	K G Complex, Lower Miao Miao	Miao	ARUNACHAL PRADESH, 	Art & Culture,Drinking Water,Education & Literacy,Environment & Forests,Human Rights,Information & Communication Technology,Micro Small & Medium Enterprises,Sports,Tourism,Tribal Affairs,Vocational Training,Women's Development & Empowerment,Youth Affairs,Water Resources,		
371	AR/2019/0223935	TRIBAL AREAS DEVELOPMENT SOCIETY	anupsoman87@gmail.com	9612458631	Takar Complex, Papumpare, Naharlagun, Arunachal Pradesh, PIN: 791110	Naharlagun	ARUNACHAL PRADESH, 			
372	AR/2019/0238465	Tribal Quest	tribalquest2010@gmail.com	8729947174	Abulyang, P.O/P.S Hapoli, Lower Subansiri District Arunachal Pradesh	Ziro	ARUNACHAL PRADESH, 	Education & Literacy,		
373	AR/2020/0257834	TRIBAL QUEST MULTIPURPOSE COOPERATIVE SOCIETY LIMITED	kidsquestschool@gmail.com	9856200941	HAPOLI, P.O	ZIRO				
374	AR/2017/0114978	TRIBAL WELFARE DEVELOPMENT SOCIETY	tribalwelfare864@gmail.com	9774134484	Chairman, Tribal Welfare Development Society Chatim Lodge 1st Floor Near P.K.Point PO/PS	Changlang	ARUNACHAL PRADESH, 	Animal Husbandry, Dairying  &  Fisheries,Aged/Elderly,Agriculture,Art & Culture,Biotechnology,Disaster Management,Drinking Water,Education & Literacy,Environment & Forests,Health & Family Welfare,HIV/AIDS,Housing,Information & Communication Technology,Legal Awareness & Aid,Micro Finance (SHGs),Micro Small & Medium Enterprises,New & Renewable Energy,Rural Development & Poverty Alleviation,Tribal Affairs,Tourism,Vocational Training,Water Resources,Women's Development & Empowerment,Youth Affairs,Any Other,		
375	AR/2019/0243184	TSONGKHAPA EDUCATION & CULTURAL SOCIETY	tsongkhapaeducs2014@gmail.com	9402632466	The Society is located at New Lumla,Manpat P.O/P.S-Lumla, District-Tawang, Arunachal Pradesh Pin code-790106	LUMLA				
376	AR/2016/0111427	Tsun Gon Thoog Jee Ling Society	tsun_gon@yahoo.com	8132977374	Tsun Gon Thoog Jee Ling Society  C/O Brahmadungchung  P.O. & P.S. Tawang  Distt. Tawang  Arunachal Pradesh  790104	Tawang	ARUNACHAL PRADESH, 	Art & Culture,Differently Abled,Education & Literacy,Environment & Forests,Tribal Affairs,		
377	AR/2018/0192867	TUKPEN CULTURE FOUNDATION	tenzingsep2@gmail.com	9402942168	VILL-JIGAON,PO/PS-RUPA, WEST KAMENG DISTRICT ARUNACHAL PRADESH-790003	RUPA				
378	AR/2018/0194746	TUKPEN WELFARE SOCIETY	tseringthongdok@gmail.com	9436045235	VILL-RUPA, PO/PS-RUPA, WEST KAMENG DISTRICT , ARUNACHAL PRADESH-790003	RUPA				
379	AR/2021/0273856	UNITED LEKANG MULTIPURPOSE SOCIETY	ulmsoct2020@gmail.com	9657424480	borsaapori, NH215, near JNV mahadevpur, namsai	Namsai	ARUNACHAL PRADESH, 	Animal Husbandry, Dairying  &  Fisheries,Micro Small & Medium Enterprises,Rural Development & Poverty Alleviation,Vocational Training,Women's Development & Empowerment,		
380	AR/2020/0259650	UNITRIBE MULTIPURPOSE COOPERATIVE SOCIETY LTD	lompsg19@gmail.com	8119053230	Pakam-II, PO/PS Aalo, District West, West Siang, Arunachal Pradesh	Aalo	ARUNACHAL PRADESH, 	Agriculture,Animal Husbandry, Dairying  &  Fisheries,Disaster Management,Education & Literacy,Environment & Forests,Food Processing,Labour & Employment,New & Renewable Energy,Scientific & Industrial Research,Urban Development & Poverty Alleviation,Vocational Training,Any Other,		
381	AR/2019/0240257	USU JANG -GU-LA CHARITABLE SOCIETY	rtthongchi2009@gmail.com	9402777930	Village- Mukhuthing P.S/P.O- Rupa District- West Kameng Arunachal Pradesh	RUPA				
382	AR/2018/0197182	Vistahunt Society	zioninstitute01@gmail.com	9436068366	E-sector Nirjuli	Nirjuli	ARUNACHAL PRADESH, 	Education & Literacy,Health & Family Welfare,Micro Finance (SHGs),Minority Issues,Nutrition,Tourism,Tribal Affairs,Vocational Training,Women's Development & Empowerment,		
383	AR/2017/0160503	Vivekananda Kendra Vidyalaya Arunachal Pradesh Trust	vkvnirjuli@vkvapt.org	9436254385	Vivekananda Kendra Vidyalaya Arunachal Pradesh Trust , VKV Nirjuli Campus PO/PS Nirjuli, Dist. Papum Pare, Arunachal Pradesh	Nirjuli	ARUNACHAL PRADESH, 	Education & Literacy,	http://vkvapt.org/	
384	AR/2018/0192461	VIVEKANANDA KENDRA VIDYALAYA ITANAGAR	vkvitanagar@vkvapt.org	9436059058	VIVEKANANDA KENDRA VIDYALAYA ITANAGAR CHIMPU,PO.- RK MISSION	ITANAGAR	ARUNACHAL PRADESH, 	Education & Literacy,Education & Literacy,	https://vkvapt.org/	
385	AR/2019/0247194	WOMEN AND CHILD DEVELOPMENT SOCIETY	bgogoinlp@gmail.com	9436226307	Kimin, District-Papum Pare, Arunachal Pradesh, Pin Code-791121	Kimin	ARUNACHAL PRADESH, 	Agriculture,Animal Husbandry, Dairying  &  Fisheries,Children,Civic Issues,Disaster Management,Education & Literacy,Environment & Forests,Health & Family Welfare,Human Rights,Legal Awareness & Aid,Rural Development & Poverty Alleviation,Sports,Vocational Training,Women's Development & Empowerment,Youth Affairs,		
386	AR/2016/0109585	WOMEN WELFARE SOCIETY	womenwelsoc@gmail.com	9774536850	VILL - NAHARLAGUN P.O/ P.S - NAHARLAGUN DIST - PAPUM PARE STATE - ARUNACHAL PRADESH PIN NO. - 791110	NAHARLAGUN	ARUNACHAL PRADESH, 	Animal Husbandry, Dairying  &  Fisheries,Agriculture,Art & Culture,Biotechnology,Children,Civic Issues,Disaster Management,Dalit Upliftment,Drinking Water,Education & Literacy,Environment & Forests,Food Processing,Legal Awareness & Aid,Labour & Employment,Land Resources,Micro Finance (SHGs),Nutrition,Panchayati Raj,Prisoner's Issues,Right to Information & Advocacy,Scientific & Industrial Research,Science & Technology,Sports,Tribal Affairs,Tourism,		
387	AR/2016/0107778	WOMENS WELFARE ASSOCIATION RUPA	wwarupa@gmail.com	9436045757	VILL RUPA, PO/PS-RUPA, WEST KAMENG DISTRICT ARUNACHAL PRADESH-790003	RUPA	ARUNACHAL PRADESH, 	Art & Culture,Children,Education & Literacy,Vocational Training,Women's Development & Empowerment,Youth Affairs,		
388	AR/2017/0165531	YIRNE GONE WELFARE SOCIETY	minlarraksap2017@gmail.com	7642033987	Head Office:- Darak, PO:- Darak, PS:- Kamba, District:- West Siang, Arunachal Pradesh PIN:- 791001 Branch Office:- H- Sector, Near Hollongi Market, Toko Building, Itanagar, Arunachal Pradesh PIN:- 791113	Darak	ARUNACHAL PRADESH, 	Agriculture,Animal Husbandry, Dairying  &  Fisheries,Art & Culture,Children,Civic Issues,Differently Abled,Aged/Elderly,Health & Family Welfare,HIV/AIDS,Human Rights,Micro Finance (SHGs),Sports,Vocational Training,Women's Development & Empowerment,Youth Affairs,Any Other,Disaster Management,Environment & Forests,Food Processing,Land Resources,New & Renewable Energy,Rural Development & Poverty Alleviation,Science & Technology,Tribal Affairs,Water Resources,	http://www.yg-society.com	
389	AR/2020/0251461	Young Mission Adventure Club	yomgammission@yahoo.com	9402212162	Gamlin building. yomgam tours	itanagar	ARUNACHAL PRADESH, 	Agriculture,Animal Husbandry, Dairying  &  Fisheries,Art & Culture,Rural Development & Poverty Alleviation,Sports,Tourism,Tribal Affairs,Vocational Training,Youth Affairs,Any Other,		
390	AP/2017/0115934	Youth Action for Social Welfare	yaswtawang@gmail.com	9436051009	medical colony, tawang	Tawang	ARUNACHAL PRADESH, 	Art & Culture,Drinking Water,Education & Literacy,Environment & Forests,Food Processing,Health & Family Welfare,HIV/AIDS,Human Rights,Information & Communication Technology,Legal Awareness & Aid,Land Resources,Micro Finance (SHGs),Minority Issues,Panchayati Raj,Rural Development & Poverty Alleviation,Science & Technology,Sports,Tribal Affairs,Tourism,Vocational Training,Water Resources,Animal Husbandry, Dairying  &  Fisheries,Children,Differently Abled,		
391	AR/2021/0272412	YOUTH MISSION FOR CLEAN RIVER - ARUNACHAL PRADESH	sdlonda@gmail.com	7628916973	NITI VIHAR ITANAGAR	ITANAGAR	ARUNACHAL PRADESH, 	Education & Literacy,Environment & Forests,Water Resources,		
392	AR/2020/0263024	YOUTH WELFARE AND HERITAGE PRESERVATION SOCIEY	ywhpsmkto2006@gmail.com	9402093060	MUKTO SERJONG VILLAGE PO.MUKTO PS.JANG , DISTT.TAWANG ARUNACHAL PRADESH PIN CODE 790105	TAWANG	ARUNACHAL PRADESH, 	Environment & Forests,Food Processing,Tourism,		
393	AR/2017/0159875	YUVA VIKASH SANGATHAN	yuvasarunachal@gmail.com	7086067866	MIJOM COMMERCIAL COMPLEX Army Road, Aalo West Siang District ARUNACHAL PRADESH Contact; 7085662977/ 9612432314	Itanagar	ARUNACHAL PRADESH, 	Agriculture,Animal Husbandry, Dairying  &  Fisheries,Children,Drinking Water,Education & Literacy,Aged/Elderly,Environment & Forests,Food Processing,Housing,Micro Finance (SHGs),Micro Small & Medium Enterprises,Panchayati Raj,Rural Development & Poverty Alleviation,Vocational Training,Water Resources,Women's Development & Empowerment,	htp://www.yvsarunachal.org	
394	AR/2018/0189956	ZANGDOKPALRI FOUNDATION FOR GREATER COMPASSION	masangzangdogpalri.org@gmail.com	7629962110	SANG-NGAG CHOEKHOR DARGYELING MONASTERY MASANG CHILLIPAM	RUPA	ARUNACHAL PRADESH, 	Art & Culture,Education & Literacy,Any Other,		
395	AR/2020/0267358	ZHENPHEN JANGCHUP FOUNDATION	zhenphenfoundation@gmail.com	8732068037	NAGMANDIR KAPSI, WEST KAMENG, ARUNACHAL PRADESH790003	ARUNACHAL PRADESH		Agriculture,Animal Husbandry, Dairying  &  Fisheries,Art & Culture,Biotechnology,Children,Civic Issues,Dalit Upliftment,Differently Abled,Disaster Management,Drinking Water,Education & Literacy,Aged/Elderly,Environment & Forests,Food Processing,Health & Family Welfare,HIV/AIDS,Housing,Human Rights,Information & Communication Technology,Labour & Employment,Land Resources,Legal Awareness & Aid,Micro Finance (SHGs),Micro Small & Medium Enterprises,Minority Issues,New & Renewable Energy,Nutrition,Panchayati Raj,Prisoner's Issues,Right to Information & Advocacy,Rural Development & Poverty Alleviation,Science & Technology,Scientific & Industrial Research,Sports,Tourism,Tribal Affairs,Urban Development & Poverty Alleviation,Vocational Training,Water Resources,Women's Development & Empowerment,		
396	AR/2020/0257862	ZION FOUNDATION WELFARE SOCIETY	boraete@gmail.com	7085398939	SENKIVIEW, NEAR C.R.P.F COLONY ROAD, P.O./P.S.-ITANAGAR, DISTRICT- PAPUMPARE,ARUNACHAL PRADESH - 791111	ITANAGAR	ARUNACHAL PRADESH, 	Children,Education & Literacy,		
397	AR/2018/0204185	Zion Mission	jt_techi@yahoo.co.in	8837357150	E-sector Nirjuli	Itanagar	ARUNACHAL PRADESH, 	Education & Literacy,Health & Family Welfare,Minority Issues,Tribal Affairs,Vocational Training,Youth Affairs,		
398	AR/2019/0240176	Ziro Poultry Cooperative Farmers Society Ltd 	baminsiri@ymail.com	9436047205	Ziro Poultry Cooperative Farmers Society Ltd. Lower Subansiri District, Arunachal Pradesh. Headquarter: Ziro. Pin:791120	Ziro	ARUNACHAL PRADESH, 	Agriculture,Animal Husbandry, Dairying  &  Fisheries,Women's Development & Empowerment,Any Other,Aged/Elderly,Minority Issues,		
399	AR/2017/0116953	ziro valley charity mission society	zirovalleyschool@rediffmail.com	8014518601	Ziro Valley Charity Mission Society, P.O/P.S. Ziro, 791120	Ziro	ARUNACHAL PRADESH, 	Animal Husbandry, Dairying  &  Fisheries,Art & Culture,Biotechnology,Children,Civic Issues,Disaster Management,Education & Literacy,Environment & Forests,Health & Family Welfare,Any Other,	http://www.zvcms.blogspot.com	
400	AR/2018/0207969	ZOHAI TINGSHO HUTHAM	zohaitingshohutham.longding@gmail.com	9774052917	AtPumao, DistrictLongding	LOGNDING	ARUNACHAL PRADESH, 	Children,Civic Issues,Differently Abled,Drinking Water,Education & Literacy,		
