S.no.	ID	Name	Email-id	Mobile no.	Address	City	State	Sector	Website
1	CH/2019/0237979	AADESH DIGITAL SOLUTIONS PRIVATE LIMITED	ADSPLRFP2019@GMAIL.COM	9041229530	sco 188-190, sector 354-a	chandigarh	CHANDIGARH, 			
2	CH/2010/0031437	Acharyakul Chandigarh	acharyakul.chd@gmail.com	947852233	Acharyakul ChandigarhGandhi Smarak Bhawan, Sector16-A, Chandigarh (U.T.) 160015	Chandigarh	CHANDIGARH, 	Art & Culture,Children,Environment & Forests,Health & Family Welfare,Legal Awareness & Aid,Vocational Training,Women's Development & Empowerment,Youth Affairs,	http://www.acharyakul.org	
3	CH/2018/0208763	ADARSH SHIKSHA SAMITI ASSANDH	project.assa04@gmail.com	9996550010	HARYANA, CHANDIGARH	HARYANA				
4	CH/2019/0241488	AHSAS: Association For Health Systems Analysis & Strengthening	aggak63@gmail.com	9316133882	Department of Community Medicine, School of Public Health, PGIMER, Chandigarh	Chandigarh	CHANDIGARH, 	Health & Family Welfare,Any Other,	https://www.ahsas-pgichd.org/	
5	CH/2018/0188212	Alankartheatrechd	alankartheatreofficial@gmail.com	8195008982	H. no -3184 , Housing Board Complex, EWS Society , sector -52 d , chandigarh	chandigarh	BIHAR, HARYANA, HIMACHAL PRADESH, PUNJAB, RAJASTHAN, UTTAR PRADESH, 	Agriculture,Art & Culture,Children,Education & Literacy,Human Rights,Labour & Employment,Panchayati Raj,Urban Development & Poverty Alleviation,Women's Development & Empowerment,	http://www.alankartheatre.com	
6	CH/2018/0222155	ALLIANCE FRANCAISE LE CORBUSIER DE CHANDIGARH	vipneshb@gmail.com	9814615100	NEXT TO HIBISCUS GARDEN , SECTOR-36 A CHANDIGARH	CHANDIGARH	CHANDIGARH, 	Art & Culture,Civic Issues,Education & Literacy,		
7	CH/2019/0224203	AMRIT CANCER FOUNDATION	sewasimran35@gmail.com	9914466666	353 SECTOR 44-A	CHANDIGARH	CHANDIGARH, 	Health & Family Welfare,		
8	CH/2018/0203179	Appworx IT Solutions Private Limited	gagan@appworx.in	8283806888	Netsmartz House, Plot Number 10, Rajiv Gandhi Technology Park, Chandigarh-160101	Chandigarh			http://www.appworx.in	
9	CH/2017/0156589	Armaan Foundation Chandigarh	armaanfoundationchandigarh@gmail.com	9530910007	Office 2682, Sector 40 C, Chandigarh, India	Chandigarh	CHANDIGARH, 	Art & Culture,Children,Education & Literacy,Aged/Elderly,Sports,Tourism,Urban Development & Poverty Alleviation,Vocational Training,Women's Development & Empowerment,	http://thetributetothepast.com/armaan-foundation/	
10	CH/2013/0056119	Artscapes	contact@artscapesindia.com	9814600107	Artscapes SCO 7 II Floor Sector 30 D	Chandigarh	CHANDIGARH, PUNJAB, 	Art & Culture,	http://www.artscapesindia.com	
11	CH/2018/0221578	Aruna Asaf Ali Memorial Trust	arunaasafalitrust44@yahoo.in	9876601573	ARUNA ASAF ALI BHAWAN SECTOR 44-A CHANDIGARH	CHANDIGARH	CHANDIGARH, 	Children,Civic Issues,Vocational Training,Women's Development & Empowerment,		
12	CH/2017/0161414	Asian Education Society	ashwiniluthra1946@gmail.com	9818701625	House no.2044, sector15. C, Chandigarh	chandigarh			http://www.asianeducationsociety.org	
13	CH/2018/0185150	Assembly of Believers Trust	assemblyofbelieverstrust@gmail.com	8289016677	2288 Astha Apartments, Sector 48 C	Chandigarh	CHANDIGARH, HARYANA, PUNJAB, 	Art & Culture,Children,Civic Issues,Differently Abled,Disaster Management,Drinking Water,Education & Literacy,Aged/Elderly,Environment & Forests,Health & Family Welfare,HIV/AIDS,Human Rights,Legal Awareness & Aid,Minority Issues,Nutrition,Science & Technology,Sports,Urban Development & Poverty Alleviation,Water Resources,		
14	CH/2016/0103919	Association For Social Health in India Punjab State Branch	punjabashi@gmail.com	9814648480	C/o The New Public School, Sector 18-B, Chandigarh, 160018	Chandigarh	CHANDIGARH, PUNJAB, 	Children,Women's Development & Empowerment,	http://ashipunjab.blogspot.com	
15	CH/2017/0163923	ASSOCIATION For SOCIAL HEALTH of India	ashianap@gmail.com	9779041168	ASSOCIATION FOR SOCIAL HEALTH IN INDIA, HARYANA STATE BRANCH, ASHIANA CHILDREN HOME, SECTOR-16, PANCHKULA -134109 (HARYANA)	CHANDIGARH	HARYANA, 	Children,	https://ashi-haryana.org/	
16	CH/2014/0085255	ASSOCIATION OF PROFESSIONAL SOCIAL WORKERS AND DEVELOPMENT PRACTITIONERS	apswdp@gmail.com	9417170356	REGD ADDRESS . P. BOX No. 363 11.A, CHANDIGARH 160011Correspondence Address: 530 F.F. Krishna Enclave, Zirakpur, SAS Nagar (Tri-city Chandigarh)CONTACT : REKHA TRIVEDI H NO 3530, SECTOR-23-D, CHANDIGARH-16002391 7087060356	CHANDIGARH	CHANDIGARH, PUNJAB, 	Civic Issues,Differently Abled,Disaster Management,Education & Literacy,Environment & Forests,HIV/AIDS,Human Rights,Information & Communication Technology,Legal Awareness & Aid,Micro Finance (SHGs),Micro Small & Medium Enterprises,Panchayati Raj,Prisoner's Issues,Right to Information & Advocacy,Rural Development & Poverty Alleviation,Urban Development & Poverty Alleviation,Vocational Training,Women's Development & Empowerment,	http://www.apswdp.org	
17	CH/2018/0219044	BABA NANAK EDUCATIONAL SOCIETY	inderjitsinghjaijee@yahoo.com	9780030306	House No 1501, Sector 36 D	Chandigarh	CHANDIGARH, 	Education & Literacy,		
18	CH/2018/0189110	Bahra Educational & Charitable Society	niladry_chem@yahoo.co.in	8894144966	House No. 3024, Phase-VII, Mohali	Mohali	CHANDIGARH, 			
19	CH/2017/0177235	BHAI JAITAJEE FOUNDATION INDIA	bjfindia@gmail.com	9815100656	PLOT NO 1 MADHYA MARG SGGS BHAWAN SECTOR 28 A CHANDIGARH	CHANDIGARH	CHANDIGARH, 	Education & Literacy,		
20	CH/2019/0235256	Capital Christian Welfare Association	ccwa02@yahoo.co.in	9815664646	Sampark Centre, First Floor, Behlana, Chandigarh	Chandigarh	CHANDIGARH, HARYANA, HIMACHAL PRADESH, PUNJAB, 	Agriculture,Animal Husbandry, Dairying  &  Fisheries,Children,Differently Abled,Education & Literacy,Aged/Elderly,Environment & Forests,Food Processing,Health & Family Welfare,HIV/AIDS,Micro Finance (SHGs),Rural Development & Poverty Alleviation,Urban Development & Poverty Alleviation,Vocational Training,Women's Development & Empowerment,Youth Affairs,		
21	CH/2010/0028285	Centre for Education and Voluntary Action	chanikohli@gmail.com	9815185225	Room No. 3 & 4, IInd Floor, Karuna Sadan, Sector 11B, Chandigarh-16001	Chandigarh		Art & Culture,Children,Education & Literacy,Environment & Forests,HIV/AIDS,Human Rights,Right to Information & Advocacy,Science & Technology,Tribal Affairs,Tourism,Women's Development & Empowerment,Youth Affairs,		
22	CH/2017/0166176	Centre For Research in Rural and Indus Development	crridaccounts@gmail.com	9855502283	Plot No. 2-A, Sector 19-A, Madhya Marg, Chandigarh	Chandigarh	CHANDIGARH, 	Agriculture,Drinking Water,Education & Literacy,Health & Family Welfare,Any Other,	http://www.crrid.res.in/	
23	CH/2017/0162752	CHANDIGARH INDUSTRIAL YOUTH ASSOCIATION	ciya.chandigarh@gmail.com	9815100055	Plot No. 438, Industrial Area, Phase-2, Chandigarh	Chandigarh	CHANDIGARH, 	Civic Issues,Micro Small & Medium Enterprises,		
24	CH/2018/0191479	Chandigarh Vigyan Parishad	chandigarhvigyan@gmail.com	8283084499	F-22, Sector-25 Panjab University South CampusChandigarh -160014	Chandigarh				
25	CH/2017/0158925	CHAUDHARY DEVI LAL MEMORIAL TRUST	cdcl.saleshead@gmail.com	9653457032	CDCL, PLot not 5, Madhya Marg Sector 28 B Chandigarh	Chandigarh	CHANDIGARH, 	Urban Development & Poverty Alleviation,Vocational Training,	http://cdcl.org.in	
26	CH/2018/0201332	Chaudhary Dewan Chand Foundation	gargml@gmail.com	9815466527	6132, MHC, Manimajra, Chandigarh	Chandigarh	PUNJAB, HARYANA, 	Education & Literacy,Health & Family Welfare,Children,Information & Communication Technology,Science & Technology,Vocational Training,Women's Development & Empowerment,	http://www.cdctrust.com/	
27	CH/2017/0156450	Chhayakritipratibhatrust	chhayaschoolofart@gmail.com	9888889960	Sector 45 A 378	Chandigarh	CHANDIGARH, 	Art & Culture,	http:www.chhayaschoolofart.org	
28	CH/2016/0097764	CHILD WELFARE COUNCIL	cwcpunjab@gmail.com	9888516131	3rd Floor, Karuna Sadan, Sector 11-B	Chandigarh	CHANDIGARH, 	Children,	http://www.cwcpunjab.org	
29	CH/2017/0156588	Chitkara Educational Trust	c.prakasam@chitkarauniversity.edu.in	8628800475	Corporate Office Saraswati Kendra, SCO 160161 Sector 9 C, Chandigarh160009	CHANDIGARH				
30	CH/2018/0211522	Christian Science Society	d_maitreyee@yahoo.co.in	9815612274	C/o Administrator YWCA, Sector 11-B Chandigarh	CHANDIGARH	CHANDIGARH, 	Any Other,		
31	CH/2010/0028293	Community Theatre Workshop	asandhu_14@rediffmail.com	9872032656	305, Sector 35A, Chandigarh-160022	Chandigarh		Art & Culture,Children,Education & Literacy,Environment & Forests,Human Rights,Right to Information & Advocacy,Women's Development & Empowerment,Youth Affairs,		
32	CH/2020/0255416	COUNTENANCE & EXEGESIS FOUNDATION	countenance.exegesis@gmail.com	8837527854	HOUSE NO. 1019 SECTOR 19 B CHANDIGARH	CHANDIGARH	CHANDIGARH, 	Civic Issues,Disaster Management,Environment & Forests,Health & Family Welfare,HIV/AIDS,Human Rights,Labour & Employment,Rural Development & Poverty Alleviation,Science & Technology,Scientific & Industrial Research,Youth Affairs,Art & Culture,Education & Literacy,Nutrition,Right to Information & Advocacy,Urban Development & Poverty Alleviation,Vocational Training,Women's Development & Empowerment,		
33	CH/2020/0267042	DAV COLLEGE CHANDIGARH	chd10dav@gmail.com	9872313583	SECTOR-10, CHANDIGARH	CHANDIGARH	CHANDIGARH, 	Education & Literacy,		
34	CH/2017/0178033	Developing Indigenous Resources India	admin@dir.ngo	9646461468	705-C ADARSH NAGAR, NAYAGAON, MOHALI, PUNJAB	Chandigarh	PUNJAB, 	Health & Family Welfare,Nutrition,Women's Development & Empowerment,Drinking Water,Education & Literacy,Labour & Employment,Children,	https://www.facebook.com/DIRINDIA	
35	CH/2018/0198150	DIVINE FOUNDATION 	abhishekverma131@yahoo.com	8146770044	PLOT NUMBER 44 INDUSTRIAL AREA PHASE 1 CHANDIGARH	Chandigarh	CHANDIGARH, HARYANA, PUNJAB, 	Education & Literacy,Environment & Forests,Health & Family Welfare,Sports,		
36	CH/2017/0175007	DIVYA SHIKSHA SANSTHAN TRUST	research@ugichd.edu.in	9216277018	HOUSE NO. 221 SEC 51 CHANDIGARH	Chandigarh	CHANDIGARH, 	Children,Dalit Upliftment,Education & Literacy,Health & Family Welfare,Information & Communication Technology,Labour & Employment,Legal Awareness & Aid,Micro Finance (SHGs),Minority Issues,New & Renewable Energy,Nutrition,Panchayati Raj,Right to Information & Advocacy,Rural Development & Poverty Alleviation,Science & Technology,Sports,Tourism,Tribal Affairs,Urban Development & Poverty Alleviation,Vocational Training,Women's Development & Empowerment,		
37	CH/2010/0029541	Don Bosco Navjeevan	dbchandigarh24@gmail.com	9915638969	Don Bosco Navjeevan, Don Bosco Church, Sector 24,Chandigarh - 160023	Chandigarh	CHANDIGARH, HIMACHAL PRADESH, HARYANA, PUNJAB, 	Aged/Elderly,Children,Differently Abled,Education & Literacy,Environment & Forests,Health & Family Welfare,HIV/AIDS,Housing,Human Rights,Micro Finance (SHGs),Nutrition,Prisoner's Issues,Rural Development & Poverty Alleviation,Urban Development & Poverty Alleviation,Vocational Training,Women's Development & Empowerment,Youth Affairs,	http://www.dbcnavjeevan.ngo/	
38	CH/2019/0237893	Dr Inder Kaur Charitable Trust (Regd)	raggarwal1949@gmail.com	9815693305	1482/29 B/Chandigarh	CHANDIGARH	PUNJAB, 	Education & Literacy,Health & Family Welfare,Women's Development & Empowerment,Any Other,		
39	CH/2019/0232721	Eidos Learning Systems Pvt Ltd	sonal@alphaair.co.in	8860959492	Flat no 3411, Chandigarh police society, sector 51-D, Chandigarh, 160047 India	Chandigarh			http://www.alphaair.co.in/	
40	CH/2018/0217683	ELL AAR MEMORIAL EDUCATIONAL TRUST	dr.h.vashisht18@gmail.com	9216102880	ELL AAR MEMORIAL EDUCATIONAL TRUST, CHANDIGARG, 160101.	Chandigarh	CHANDIGARH, HARYANA, HIMACHAL PRADESH, PUNJAB, 	Education & Literacy,Children,Dalit Upliftment,Health & Family Welfare,Science & Technology,Sports,Vocational Training,		
41	CH/2018/0188292	End Incest Trust	endincest@gmail.com	9814007294	1385, Sector 40-B	Chandigarh	CHANDIGARH, 	Any Other,	https://www.endincest.org	
42	CH/2018/0185904	ENERGY HARVEST CHARITABLE TRUST	sukhmeet.singh@gmail.com	8146659318	SCO 50-51, Third Floor, SECTOR 34 A, CHANDIGARH 160022	CHANDIGARH	CHANDIGARH, 	Any Other,Environment & Forests,New & Renewable Energy,		
43	CH/2017/0158551	ENLIVEN SKILLS INDIA PRIVATE LIMITED	amitoz.dogra@enlivenskills.com	9888300765	2nd Floor, Plot No. 5, Madhya Marg, Sector 28B, Chandigarh	Chandigarh	CHANDIGARH, HARYANA, 	Urban Development & Poverty Alleviation,Vocational Training,Women's Development & Empowerment,Education & Literacy,Information & Communication Technology,Rural Development & Poverty Alleviation,Urban Development & Poverty Alleviation,Vocational Training,	http://enlivenskills.com/	
44	CH/2016/0100662	Environment Society of India	esichd@yahoo.co.uk	9417004937	Karuna Sadan, Sector 11-B,	Chandigarh	CHANDIGARH, HARYANA, HIMACHAL PRADESH, PUNJAB, 	Disaster Management,Environment & Forests,Science & Technology,		
45	CH/2018/0218725	FAITH IMPACT SOCIETY	aaryan0638@gmail.com	7696297218	MANIMAJRA CHURCH, 5TH STREET, SHANTI NAGAR, MANIMAJRA	CHANDIGARH	CHANDIGARH, 	Children,Education & Literacy,		
46	CH/2017/0119229	Feel For Human Charitable Trust	trust@feelforhuman.com	8288012224	1030, Dayal Baug Society, Sector 51-B, Chandigarh 160047	Chandigarh		Education & Literacy,Legal Awareness & Aid,Labour & Employment,Micro Finance (SHGs),Urban Development & Poverty Alleviation,		
47	CH/2017/0156779	Foundation For Developmental Research	fdrppsingh@gmail.com	9872894422	SCO- 415-416, 1st Floor, Sector- 35-C, Chandigarh, C/o 3069, Sector-21-D, Chandigarh	Chandigarh	CHANDIGARH, 	Children,Dalit Upliftment,Differently Abled,Education & Literacy,Aged/Elderly,Health & Family Welfare,Minority Issues,Panchayati Raj,Scientific & Industrial Research,Women's Development & Empowerment,Youth Affairs,Children,Dalit Upliftment,Aged/Elderly,Panchayati Raj,Scientific & Industrial Research,Tribal Affairs,Women's Development & Empowerment,Youth Affairs,	http://www.fdrresearch.org	
48	CH/2018/0203695	G.C.S. COMPUTER TECHNOLOGY PRIVATE LIMITED	GM@GCSGROUP.CO.IN	9814567895	SCO-19,SECOND FLOOR ,SECTOR 26,MADHYA MARGMARG,CHANDIGARH-160019	CHANDIGARH			http://www.gcsgroup.co.in/	
49	CH/2017/0117666	GandhiSmarakNidhi punjab haryana himachal pardesh	contact@gandhismaraknidhi.org	91941600553	Gandhi Smarak Bhawan  sector-16 chandigarh  Pin code-160015	chandigarh		Agriculture,Education & Literacy,Health & Family Welfare,Youth Affairs,	http://WWW.gandhismaraknidhi.org	
50	CH/2019/0239967	Global Federation of the Doyens & Industries	dg@gfdi-india.org	9780012344	129/1, Industrial area phase 1	Chandigarh	DELHI, 	Micro Small & Medium Enterprises,New & Renewable Energy,Science & Technology,Scientific & Industrial Research,Tribal Affairs,Any Other,Art & Culture,Biotechnology,Education & Literacy,Vocational Training,Women's Development & Empowerment,	http://www.gfdi-india.org/	
51	CH/2009/0015121	Godwin Education Society	godwineducationsociety@gmail.com	9915985854	50, Hallomajra, Chandigarh PIN 160002	Chandigarh	CHANDIGARH, HARYANA, HIMACHAL PRADESH, PUNJAB, 	Children,Education & Literacy,Health & Family Welfare,HIV/AIDS,Women's Development & Empowerment,Civic Issues,Any Other,		
52	CH/2017/0159555	Goswami Ganesh Dutta S D College	bhushan2816@yahoo.com	9646002816	SECTOR-32	Chandigarh	CHANDIGARH, 	Education & Literacy,		
53	CH/2017/0118618	GUR AASRA TRUST	gat.palsora@gmail.com	9815595500	GUR AASRA TRUST (Regd.), Gurdwara complex, Village- Palsora, Sector-55, Chandigarh (U.T) Pin code-160055	Chandigarh		Children,	http://www.guraasrapalsora.com	
54	CH/2017/0178093	GURU NANAK COMPUTER TRAINING CENTRE	gurunanakctc@gmail.com	8360176511	404, MOULIPIND, MOULI MANIMAJRA, CHANDIGARH 160101	manimajra				
55	CH/2016/0099656	GYANM EDUCATION AND TRAINING INSTITUTE PVT LTD	grover.vms@gmail.com	9888666322	SCO 13-14-15, 2ND FLOOR, SECTOR 34-A, CHANDIGARH - 160022	CHANDIGARH	CHANDIGARH, 	Education & Literacy,	http://www.gyanm.in	
56	CH/2017/0175084	HANS RAJ TRUST	hansrajtrust@gmail.com	9815495653	SCO 49-50 SECTOR-26	CHANDIGARH	CHANDIGARH, 	Agriculture,Children,Education & Literacy,Health & Family Welfare,Human Rights,Labour & Employment,New & Renewable Energy,Rural Development & Poverty Alleviation,Sports,Vocational Training,Women's Development & Empowerment,		
57	CH/2018/0200508	HARCHAND SINGH BAINS FOUNDATION	sjsbains@gmail.com	9814149534	2154 -A, SECTOR-63, CHANDIGARH	CHANDIGARH	CHANDIGARH, PUNJAB, 	Education & Literacy,		
58	CH/2019/0242387	I am Still Human	vivek.iamstillhuman@gmail.com	9646295623	3601 Second Floor, Sector 46 D, Chandigarh	chandigarh	CHANDIGARH, DELHI, HARYANA, PUNJAB, 	Art & Culture,Children,Education & Literacy,Aged/Elderly,Environment & Forests,Health & Family Welfare,Information & Communication Technology,Legal Awareness & Aid,Rural Development & Poverty Alleviation,Science & Technology,Sports,Urban Development & Poverty Alleviation,Vocational Training,Women's Development & Empowerment,Youth Affairs,Any Other,	http://www.iamstillhuman.org	
59	CH/2019/0224207	INDIAN COUNCIL OF SOCIAL WELFARE	ICSWCHD@YAHOO.COM	8288949781	ROOM NO. 5	CHANDIGARH				
60	CH/2016/0097653	Indian Council of Social Welfare Punjab	branch.icswpb@gmail.com	9417881812	Room No 3 First Floor Karuna Sadan Building Sector 11 B Chandigarh Pin Code 160011	Chandigarh	CHANDIGARH, 	Women's Development & Empowerment,	http://icswpunjab.in/	
61	CH/2010/0026864	Indian National Portage Association	tehalkohli@gmail.com	9417372091	Prof. (Dr.) Tehal Kohli, Chairperson,Indian National Portage AssociationKaruna Sadan, First Floor,Room No. 14-15, Sector: 11-B,Chandigarh, Pin: 160011. India.	Chandigarh	CHANDIGARH, HARYANA, PUNJAB, 	Children,Differently Abled,Education & Literacy,Health & Family Welfare,Women's Development & Empowerment,	http://www.inpa.org.in	
62	CH/2017/0153024	INDUSTRIES ASSOCIATION OF CHANDIGARH	industriesassociationchd@gmail.com	9855480687	INDUSTRIES ASSOCIATION OF CHANDIGARH 187-A, Industrial Area, Phase 1, Chandigarh-160002	Chandigarh	CHANDIGARH, 	Micro Small & Medium Enterprises,		
63	CH/2020/0254705	INFOMATHS STUDIES PRIVATE LIMITED	infomaths32@gmail.com	9872124534	QUITE OFFICE NO.10 SECTOR 35 A CHANDIGARH	CHANDIGARH	HIMACHAL PRADESH, 	Education & Literacy,	http://www.infomathsonline.com	
64	CH/2015/0085767	Institute for Social Research and Development	isrdchd@gmail.com	9872709772	Registered Office Address: H. No. 1111, Sector 15 B, Chandigarh-160015,Present Office Address: H. No. 1110, 2nd Floor Sector 15-B, Chandigarh-160015	Chandigarh	CHANDIGARH, DELHI, 	Aged/Elderly,Agriculture,Children,Differently Abled,Disaster Management,Education & Literacy,Environment & Forests,Health & Family Welfare,HIV/AIDS,Human Rights,Legal Awareness & Aid,Labour & Employment,Micro Finance (SHGs),Minority Issues,Panchayati Raj,Prisoner's Issues,Right to Information & Advocacy,Rural Development & Poverty Alleviation,Scientific & Industrial Research,Tribal Affairs,Urban Development & Poverty Alleviation,Women's Development & Empowerment,Youth Affairs,		
65	CH/2020/0252487	Integrated Association of Medical, Basic and Social Scientists (IAMBSS)	iambssa@gmail.com	9915659342	SCO 140, 2nd Floor, Sector 24 D, Chandigarh	Chandigarh	CHANDIGARH, 	Education & Literacy,Environment & Forests,Health & Family Welfare,HIV/AIDS,Nutrition,Science & Technology,Scientific & Industrial Research,	https://www.iambss.org/	
66	CH/2017/0155891	INTERNATIONAL BRAHMRISHI MISSION	jaiviratindia@gmail.com	9888581081	International Brahmrishi Mission Sector-19-A, Madhya Marg, Chandigarh-160019	Chandigarh	CHANDIGARH, 	Art & Culture,Civic Issues,Education & Literacy,Health & Family Welfare,	htttp://www.ibmchd.com	
67	CH/2014/0076994	JAN JAGRTI SOCIETY CHANDIGARH	mrverma2119@gmail.com	9988592119	HOUSE NO : 2119 SECTOR- 19-C CHANDIGARH 160019	CHANDIGARH	CHANDIGARH, 	Art & Culture,Children,Civic Issues,Dalit Upliftment,Differently Abled,Education & Literacy,Aged/Elderly,Environment & Forests,Health & Family Welfare,HIV/AIDS,Human Rights,Labour & Employment,Legal Awareness & Aid,Micro Small & Medium Enterprises,Minority Issues,Right to Information & Advocacy,Tribal Affairs,Urban Development & Poverty Alleviation,Vocational Training,Micro Finance (SHGs),Women's Development & Empowerment,		
68	CH/2016/0104434	Jan Shikshan Sansthan Chandigarh	janshikshansansthan_chd@yahoo.co.in	9888609069	Jan Shikshan Sansthan, Near Parjapati Bhawan, Sector 38 A,	Chandigarh	CHANDIGARH, 	Vocational Training,		
69	HR/2018/0192179	Jangid Brahman Sabha	jangidbschd@gmail.com	9115797300	Near GH 92, Sector 20, Panchkula, Haryana	Chandigarh	CHANDIGARH, HARYANA, PUNJAB, 	Education & Literacy,Health & Family Welfare,Youth Affairs,		
70	CH/2017/0173641	JAT SABHA	jat_sabha@yahoo.com	9056787532	Plot No. 2-B, Madhya Marg, Sector 27-A	Chandigarh	CHANDIGARH, 	Art & Culture,	http://www.jatsabha.org	
71	CH/2020/0267727	KARTAR AASRA TRUST 	1KARTAR13AASRA@GMAIL.COM	9888908766	KARTAR AASRA OLD AGE HOME , SECTOR 1 CHANDIGARH	CHANDIGARH	CHANDIGARH, 	Aged/Elderly,		
72	CH/2017/0170696	KHELSHALA	JAIMALBHATOL@GMAIL.COM	9815496452	193, VILLAGE ATTAWA, SECTOR 42 B,	CHANDIGARH	CHANDIGARH, 	Education & Literacy,Sports,	http://www.khelshala.in/	
73	CH/2017/0170468	Know Thyself as Soul Foundation	ktsfoundationchd@gmail.com	8146542778	H.No. 2323/1, Mariwala Town, Manimajra, Chandigarh	Manimajra	CHANDIGARH, 	Any Other,		
74	PB/2016/0098569	Lakshya Forum For Competitions Pvt Ltd	ravinder.garg@lakshyainstitute.com	9004608002	Lakshya Forum for Competitions Pvt Ltd SCO 350-352, Ground Floor, Sector 34 A, Chandigarh -160022.	Chandigarh 	CHANDIGARH, 	Education & Literacy,Minority Issues,Vocational Training,		
75	CH/2017/0164438	M/S Uttar Pradesh Welfare Association	singh.bali54@gmail.com	8708218019	UTTAR PRADESH WELFARE ASSOCIATION (REGD.) (REGD. NO. 3038 OF 2000) CHANDIGARH SCO-8 15(2ND FLOOR), NAC MANIMAJRA,CHANDIGARH-160101	CHANDIGARH	UTTARAKHAND, 	Education & Literacy,Health & Family Welfare,		
76	CH/2018/0219491	MAAT PITAH GOW DHAM	gaumaakagian@gmail.com	9592100959	PLOT NO. 959, INDL. AREA-2, CHANDIGARH	CHANDIGARH				
77	KA/2019/0244620	MAHA BODHI MAITRI MANDAL	maha546@gmail.com	8548843539	xxxxxx, xxxx, Chattisgadha	Chattisgadha	CHANDIGARH, 	Children,		
78	CH/2018/0185611	Mahatma Gandhi State Institute of Public Administration	dalbirdhadwal1958@gmail.com	9888037966	Institutional Area, Sector-26, Chandigarh	Chandigarh	PUNJAB, 	Any Other,	http://mgsipap.org/	
79	CH/2017/0165472	Mentor Skills India	sukrit.bansal@mentorindia.com	8872006888	Mentor Skills IndiaS.C.O 13-14-15, 2nd FloorSector 34 AChandigarh	chandigarh	PUNJAB, 	Differently Abled,Vocational Training,		
80	CH/2017/0177510	MILKHA CHARITABLE TRUST	dimplebansal@gmail.com	8146760114	HOUSE NO 725,SECTOR 8 C CHANDIGARH	CHANDIGARH	CHANDIGARH, 	Education & Literacy,Sports,Education & Literacy,Sports,	http://milkha.in/	
81	CH/2017/0169345	Mind Tree Eduvation Private Limited	marketing@hitbullseye.com	9216279992	SCO 90-92, 2nd Floor Sector 8C Madhya Marg	Chandigarh			http://www.hitbullseye.com/	
82	CH/2017/0157363	MMCC Skill Foundation	mmcskill@gmail.com	9465380013	House no.3057, Sector-28D	chandigarh	HARYANA, 	Education & Literacy,Vocational Training,		
83	CH/2017/0166693	Morning Star Fellow Ship Society	msfsngo@gmail.com	9041565562	SCF 174,FIRST FLOOR GRAIN MARKET MADHYA MARG. SECTOR 26. CHANDIGARH PIN: 160019	CHANDIGARH	CHANDIGARH, PUNJAB, 	Children,Differently Abled,Education & Literacy,Aged/Elderly,Environment & Forests,Human Rights,Legal Awareness & Aid,Nutrition,Vocational Training,Women's Development & Empowerment,Children,Education & Literacy,Aged/Elderly,Health & Family Welfare,Legal Awareness & Aid,Science & Technology,Vocational Training,Women's Development & Empowerment,Any Other,	http://www.msfsngo.com	
84	CH/2017/0151994	Motivating Youth Welfare Organisation	mywochandigarh@gmail.com	9417090829	House No- 1017/C Small Flats Dhanas,Chandigarh,UT PIN-160014	Dhanas	CHANDIGARH, 	Health & Family Welfare,	http://www.domain.com	
85	CH/2017/0163938	MUJADDIDI EDUCATIONAL SOCIETY 	meschandigarh@gmail.com	9417069294	MUJADDIDI EDUCATIONAL SOCIETY (REG.) 114, JAMA MASJI DMANIMAJRA CHANDIGARH PIN CODE 160101	CHANDIGARH	CHANDIGARH, 	Education & Literacy,		
86	CH/2019/0234987	Nanhe kadam 	home.mapa@gmail.com	9357800074	SCO 36 SECTOR 26 CHANDIGARH	Chandigarh				
87	CH/2017/0163913	National Adventure Club (India)	nacindia@yahoo.com	9417785874	Room No.17(FF), Karuna Sadan, Sector-11, Chandigarh	Chandigarh	CHANDIGARH, 	Youth Affairs,	http://www.nacindia.in	
88	CH/2016/0095112	National Association for the Blind Chandigarh and Punjab Branch	nabchd@yahoo.co.in	9779377377	National Association for the Blind, KARUNA SADAN, Sector 11-B, Chandigarh - PIN 160011	CHANDIGARH	CHANDIGARH, PUNJAB, 	Differently Abled,Vocational Training,Any Other,	http://www.nabchandigarh.com	
89	CH/2016/0097798	National Association of Psychological Science	napsyindia@gmail.com	9417882789	Correspondence- Dept of Psychology, Panjab University, Chandigarh-160014 Permanent Address:535 A, Upper Ground Floor, Ambrosia, Omax, New Chandigarh	CHANDIGARH	CHANDIGARH, 	Women's Development & Empowerment,Youth Affairs,Any Other,	http://www.napsindia.org	
90	CH/2019/0240137	National Corruption Control & Human Welfare Organisation	ncchwo@gmail.com	9878442664	463/1, Sector 32A, Chandigarh	Chandi		Any Other,		
91	CH/2017/0173635	NEW LIFELINE CHARITABLE MINISTRIES	newlifelinecharitable@gmail.com	9878979992	930/1, HOUSING BOARD COLONY, DHANAS, CHANDIGARH,	CHANDIGARH	CHANDIGARH, 	Children,Health & Family Welfare,Women's Development & Empowerment,		
92	CH/2017/0175879	NITCON Limited	projects@nitcon.org	9650134790	IFCI Bhawan, Plot No.1C, Madhya Marg, Sector 27-A, Chandigarh	Chandigarh	HARYANA, HIMACHAL PRADESH, PUNJAB, UTTAR PRADESH, TRIPURA, 	Food Processing,Information & Communication Technology,Science & Technology,Urban Development & Poverty Alleviation,Vocational Training,Women's Development & Empowerment,		
93	CH/2017/0167597	NORTH WEST INDIA BAPTIST ASSOCIATION	ttannujj@gmail.com	8427101981	First Baptist Church, Sector 44C, Chandigarh 160047	Chandigarh				
94	CH/2019/0234859	OPEN EYES FOUNDATION MANIMAJRA CHANDIGARH	openeyesfoundation1@gmail.com	7508408205	House No. 2227/1,Pipli Wala Town , Mani Majra , Chandigarh, Pin Code 160101	CHANDIGARH	CHANDIGARH, 	Education & Literacy,Health & Family Welfare,Urban Development & Poverty Alleviation,Vocational Training,Women's Development & Empowerment,	http://www.openeyesfoundation.org.in	
95	CH/2017/0160416	Overair Technologies private Limited	shashigoswami50@gmail.com	9872502361	2385, Sector- 22C, Chandigarh.	Chandigarh			http://www.overairtechnologies.com	
96	CH/2019/0223656	parivartan	parivartanchd2008@gmail.com	9872138786	DART Building,Sector 32 , Chandigarh	Chandigarh	CHANDIGARH, 	Dalit Upliftment,Differently Abled,Aged/Elderly,Health & Family Welfare,HIV/AIDS,Human Rights,Labour & Employment,Legal Awareness & Aid,Scientific & Industrial Research,Vocational Training,Women's Development & Empowerment,Any Other,		
97	CH/2019/0239118	PARWAAZ FOUNDATION 	parwaaz.14.foundation@gmail.com	9988007140	H. No. 3126, Sec 21-C, Chandigarh	CHANDIGARH	CHANDIGARH, HARYANA, PUNJAB, 	Children,Civic Issues,Dalit Upliftment,Education & Literacy,Environment & Forests,Health & Family Welfare,Human Rights,Legal Awareness & Aid,Micro Finance (SHGs),New & Renewable Energy,Right to Information & Advocacy,Rural Development & Poverty Alleviation,Sports,Urban Development & Poverty Alleviation,Water Resources,Women's Development & Empowerment,Youth Affairs,Art & Culture,Differently Abled,Disaster Management,Drinking Water,Aged/Elderly,HIV/AIDS,Labour & Employment,Minority Issues,Nutrition,Prisoner's Issues,Vocational Training,		
98	CH/2017/0162301	pedestal of the art of dance and music	padamchd@gmail.com	9316135613	Old Address:-House no. 2038/1, Sector 47-C, Chandigarh-160047 New Address :- S.C.O 78-79, 3rd floor, Sector 17-C, Chandigarh-160017	Chandigarh	CHANDIGARH, 	Art & Culture,		
99	CH/2017/0164155	People for Human Rights Council	phrc.contact@gmail.com	9888204947	REGD. Chandigarh. SCO 38-39 Basement cabin No. 14 Sector 17 Chandigarh 160017. INDIA.................................office Cum R/o 1067 ,near MINI ROSE GARDEN Sector 24-B, Chandigarh	chandigarh	CHANDIGARH, 	Children,Education & Literacy,Aged/Elderly,HIV/AIDS,Legal Awareness & Aid,Women's Development & Empowerment,Agriculture,Civic Issues,Dalit Upliftment,Differently Abled,Drinking Water,Environment & Forests,Food Processing,Health & Family Welfare,Human Rights,Information & Communication Technology,Minority Issues,Nutrition,Prisoner's Issues,Right to Information & Advocacy,Urban Development & Poverty Alleviation,Vocational Training,Youth Affairs,Any Other,Rural Development & Poverty Alleviation,	http://peopleforhumanrightscouncil.org/	
100	CH/2019/0223540	PINDI DINKASH CHARITABLE FOUNDATION	foundationpindi@gmail.com	8847415469	11, Karuna Sadan, Sector 11, Chandigarh	Chandigarh	CHANDIGARH, HIMACHAL PRADESH, 	Education & Literacy,Aged/Elderly,Health & Family Welfare,Women's Development & Empowerment,		
101	CH/2009/0010444	PRACHEEN KALA KENDRA	pracheenkalakendra@gmail.com	9915005537	Pracheen Kala Kendra,Head Office: Sector 35/B, Chandigarh 160022.	Chandigarh	CHANDIGARH, 	Art & Culture,Education & Literacy,Vocational Training,	http://www.pracheenkalakendra.org	
102	CH/2017/0120258	Pracheen Shree Shiv Mandir Charitable Trust	pssmct.mj@gmail.com	9417313689	Village Mauli Jagran, Chandigarh, Pin Code-160102	Mauli Jagran	CHANDIGARH, 	Animal Husbandry, Dairying  &  Fisheries,Agriculture,Drinking Water,Education & Literacy,Environment & Forests,Health & Family Welfare,Human Rights,Legal Awareness & Aid,Labour & Employment,Micro Finance (SHGs),Vocational Training,Women's Development & Empowerment,	http://www.pssmct.in/	
103	CH/2016/0098048	Prakritik Chiktisa Samiti Chandigarh	gandhichd@gmail.com	9478522333	Gandhi Smarak Bhawan, Sector 16A	Chandigarh				
104	CH/2018/0214406	PRARTHANA FOUNDATION	meena_organisation@yahoo.com	8427979463	HOUSE NO 3049, TOP FLOOR, SECTOR 38D	CHANDIGARH	CHANDIGARH, 	Women's Development & Empowerment,		
105	CH/2018/0201039	prayatan	rpskapur@gmail.com	9888502587	PRAYATAN (A Mental Health Movement) NGO for Mental Health Care Half way Home Ashreya Building (Near Ram Mandir) Sector-47-D, Chandigarh M:-09888502587, 08360496850 Email Address :- prayatan47@gmail.com Web Address : www.prayatan.co.in	Chandigarh	CHANDIGARH, HARYANA, PUNJAB, 	Differently Abled,Vocational Training,	https://www.prayatan.co.in	
106	CH/2017/0157108	PUKAAR WELFARE ASSOCIATION	deepaksharmachd27@gmail.com	9878416792	SECTOR 20, CHANDIGARH	CHANDIGARH	CHANDIGARH, 	Education & Literacy,Legal Awareness & Aid,Any Other,		
107	CH/2018/0195858	PUNJAB ENGINEERING COLLEGE OLD STUDENTS ASSOCIATION	KKV1951@gmail.com	9646123237	PEC CAMPUS SECTOR 12 CHANDIGARH160012	CHANDIGARH	CHANDIGARH, 	Any Other,	http://www.pecosa.in	
108	CH/2016/0102793	Railway Senior Citizens Welfare Society	rscws1991@gmail.com	9316131598	President RSCWS, 1023, Sector 15 B, Chandigarh - 160015 Secretary General RSCWS, 32, Phase 6, Mohali 160055	Chandigarh	CHANDIGARH, 	Aged/Elderly,	http://rscws.com	
109	CH/2018/0214723	RAM GARHIA SABHA CHD (REGD.)	rajive612@gmail.com	9557235898	RAMGARHIA BHAWAN SECTOR 27D, CHANDIGARH	CHANDIGARH				
110	WB/2017/0167161	RAMAKRISHNA MISSION	chandigarh@rkmm.org	7837673314	Ramakrishna Mission Ashrama Sector 15-B, Madhya Marg	Chandigarh	CHANDIGARH, 	Children,Education & Literacy,Health & Family Welfare,Youth Affairs,		
111	CH/2017/0151033	Regional Centre for Entrepreneurship Development 	rcedindia@gmail.com	9814132455	SCO: 315-316, IInd floor, Sector 35-B,Chandigarh -160022	Chandigarh 	CHANDIGARH, 	Vocational Training,		
112	CH/2018/0210218	ROTARY AND BLOOD BANK SOCIETY RESOURCE CENTRE	rbbsrc_mks@yahoo.co.in	8683867062	PLOT NO: 4DAKSHIN MARG, SECTOR-37A NEAR BATRA CINEMA U.T CHANDIGARH	CHANDIGARH	CHANDIGARH, 	Any Other,		
113	CH/2020/0260761	SAANJH FOUNDATION	infosaanjhfoundation@gmail.com	9873447176	H. NO. 256, SEC9	CHANDIGARH	CHANDIGARH, DELHI, PUNJAB, 	Agriculture,Children,Women's Development & Empowerment,		
114	CH/2017/0175532	Sacha Industrial Training Centre	sitc_1@rediffmail.com	9818278817	29 , Bank Colony Manimajra Chandigarh Punjab	Chandigarh	UTTAR PRADESH, 	Education & Literacy,Vocational Training,		
115	CH/2020/0250542	SADHANA SOCIETY FOR MENTALLY HANDICAPPED	bhavna.sadhna@gmail.com	9592999112	RAEN BASERA BUILDING, NEAR HOUSING BOARD CHOWNK, MANIMAJRA, CHANDIGARH.	CHANDIGARH	CHANDIGARH, 	Differently Abled,Vocational Training,	http://www.sadhnasociety.org/	
116	CH/2018/0214459	Sahayta Charitable Welfare Society 	sahayta2106@gmail.com	8968355994	Sahayta Cancer Kendra, Sector 15, Chandigarh	Chandigarh	CHANDIGARH, 	Any Other,		
117	CH/2016/0098883	Sai Aasra Paraplegic Rehab Centre	nickypkaur@gmail.com	9876987044	Sai Aasra Paraplegic Rehab CentreSri Guru Granth Sahib Bhawan,Plot No. 1, Sector 28 - A, Madhya Marg, Chandigarh - 16002	Chandigarh	CHANDIGARH, 	Differently Abled,	http://chandigarhspinalrehab.com	
118	CH/2018/0216529	SAMARTH JIYO	pooja1964@yahoo.com	7696050973	Basement, International Boys Hostel, Near Punjab Congress Bhavan, Madhya Marg, Sector15 A, Chandigarh	Chandigarh	CHANDIGARH, 	Differently Abled,		
119	CH/2017/0152525	SAMVAAD THEATRE 	samvaadtheatre@gmail.com	9988259200	SCF 36 FF SECTOR 29 D CHANDIGARH160030	chandigarh				
120	CH/2018/0207471	Sanjay Gandhi Educational Society	thebritishschool44bchd@gmail.com	9876541354	The British schoolsector 44 B Chandigarh 160047	Chandigarh				
121	CH/2018/0198322	Sarswati vidiarthi mandir	info@smarttalk.in	9216222407	SCO-361, top floor, sector 44D	chandigarh	PUNJAB, 	Education & Literacy,Health & Family Welfare,Information & Communication Technology,Labour & Employment,Urban Development & Poverty Alleviation,Vocational Training,Any Other,		
122	CH/2018/0182062	SARVHITKARI EDUCATIONAL SOCIETY	SES.JLD@GMAIL.COM	9780011657	Shri Kulwant Rai Sarhitkari Vidya Mandir,Near Mini Market, Sector 43-B,Chandigarh	Chandigarh	CHANDIGARH, PUNJAB, 	Education & Literacy,		
123	CH/2017/0166979	Satnam Sarab Kalyan Trust	sskt39@rediffmail.com	9501133705	Head Office: HNo 1595 Sector 36-D	Chandigarh	PUNJAB, 	Education & Literacy,		
124	CH/2018/0196689	satvik art society	satvikarts@gmail.com	9888117871	House number 3184 Housing Board Complex sector 52 Chandigarh.	Chandigarh	CHANDIGARH, 	Art & Culture,	http://www.satvikarts.com	
125	CH/2018/0206970	SENSIBLE HUMAN SOCIAL WELFARE CHANDIGARH	Kaushikpuneet09@gmail.com	7888683803	HOUSE NO 3327 F.F SECTOR 32 DCHANDIGARH	CHANDIGARH	CHANDIGARH, 	Differently Abled,Drinking Water,Education & Literacy,Aged/Elderly,Environment & Forests,Health & Family Welfare,HIV/AIDS,Nutrition,Women's Development & Empowerment,Any Other,		
126	CH/2018/0197237	SHRI BABA NAND SINGH JI JAN KALYAN CHARITABLE TRUST	casubhashthakur@gmail.com	9915706688	SHRI BABA NAND SINGH JI JAN KALYAN CHARITABLE TRUSTGURUDWARA NANAKSAR, SECTOR 28, CHANDIGARH (U.T.) â€“ 160002	CHANDIGARH	CHANDIGARH, 	Education & Literacy,		
127	CH/2017/0152381	Shri Dhanwantry Ayurvedic College and Dabur Dhanwantry Hospital	dhanwantry@rediffmail.com	9316111123	Plot No. M-688, Beside Sanathan Dharma Mandir, Sector 46 B,	Chandigarh	CHANDIGARH, 	Education & Literacy,Health & Family Welfare,		
128	CH/2020/0256918	Shri Gurudev Photo Colors	shrigurudev17@gmail.com	9814006079	SCO 80-81, SECTOR 17-D	CHANDIGARH	CHANDIGARH, 	Any Other,Any Other,		
129	CH/2018/0216933	SIKHYA FOUNDATION	skauroffice@gmail.com	9915100001	S.C.O.63, FIRST FLOOR, SECTOR-20C, CHANDIGARH	CHANDIGARH	CHANDIGARH, 	Children,Education & Literacy,Women's Development & Empowerment,		
130	CH/2017/0181634	SIMLA CATHOLIC DIOCESE	ashoksaldanha75@gmail.com	9501254868	catholic church,sector 19 A Chnadigarh	Chandigarh				
131	CH/2017/0181543	Simla Chandigarh Diocese Society	frambrosed3@gmail.com	9417494714	catholic church,sector 19 A Chnadigarh	Chandigarh				
132	CH/2018/0194692	SIMLA CHANDIGARH EDUCATIONAL SOCIETY	arosechd19@gmail.com	9915813494	catholic church,sector 19 A Chnadigarh	Chandigarh				
133	CH/2016/0098504	SIOC Education and Charitable Trust	mail@seemainstitute.com	9872079084	SIOC(Seemas Institute of Competition) S.C.O: 208, 2nd Floor, Sector No: 36D, Chandigarh-160036	Chandigarh	PUNJAB, 	Education & Literacy,Information & Communication Technology,Minority Issues,Scientific & Industrial Research,Science & Technology,Tribal Affairs,Vocational Training,Women's Development & Empowerment,Youth Affairs,	http://www.seemainstitute.com	
134	CH/2020/0262390	SKD Learning Private Limited 	deepika.garg0786@gmail.com	8591818500	1020 Sector 46B Chandigarh	Chandigarh				
135	CH/2019/0229936	SMT KAUSHALAYA DEVI MEMORIAL EDUCATIONAL AND CHARITABLE TRUST	mkamalmahajan@drit.in	8198088885	SCO 61 , Madhya Marg , Sector 26 , Chandigarh	CHANDIGARH	PUNJAB, CHANDIGARH, 	Education & Literacy,Vocational Training,Any Other,		
136	CH/2017/0153117	Snehanchal Charitable Society	hoodanandita@gmail.com	8968188887	210, Sector-11A, Chandigarh	Chandigarh	HARYANA, CHANDIGARH, 	Children,Education & Literacy,Health & Family Welfare,Vocational Training,Women's Development & Empowerment,Children,Education & Literacy,Health & Family Welfare,Vocational Training,Women's Development & Empowerment,		
137	CH/2016/0108684	Society for Archaeological and Anthropological Research	saar_21@hotmail.com	9478691347	Society for Archaeological and Anthropological Research  1447, Sector 22-B  Chandigarh - 160022	Chandigarh		Art & Culture,Vocational Training,Any Other,		
138	CH/2010/0029895	Society for Education in Health and Allied Trainings	ramsehat@gmail.com	9417192834	Society for Education in Health and Allied Trainings (SEHAT) Kothi No. 776, Phase 6 SAS NagerMohali (Punjab)	Chandigarh	CHANDIGARH, 	HIV/AIDS,		
139	CH/2018/0216993	Society for Promotion and Conservation of Environment	drgrewal0114@yahoo.com	9417655612	1594/36-D, Chandigarh	Chandigarh	CHANDIGARH, HARYANA, PUNJAB, RAJASTHAN, 	Agriculture,Animal Husbandry, Dairying  &  Fisheries,Children,Education & Literacy,Health & Family Welfare,Vocational Training,Women's Development & Empowerment,Any Other,		
140	CH/2016/0105234	Society for Service to Voluntary Agencies North	sosvachd@gmail.com	9815711654	Society for Service To Voluntary Agencies North Room no. 18-20, 1st Floor, Karuna Sadan Bldg., Sector-11B, Chandigarh-160011	Chandigarh		Health & Family Welfare,HIV/AIDS,		
141	CH/2009/0007347	Society For Social Health Chandigarh	sofosh@yahoo.co.in	9417088236	Society For Social Health (SOFOSH)206/2 Sector 41 Chandigarh-160036	CHANDIGARH	CHANDIGARH, 	HIV/AIDS,Legal Awareness & Aid,Vocational Training,		
142	CH/2017/0167845	Society for the Care of the Blind	blind_institute_chd@yahoo.com	9417579962	Sector26 (Near Homeopathy College)	Chandigarh	CHANDIGARH, 	Differently Abled,	http://www.instituteforblind.org	
143	CH/2019/0237089	sood sewa bhawan trust	soodsabhapanchkula@gmail.com	9872000137	Sood Bhawan, Sector-44, Chandigarh	CHANDIGARH	CHANDIGARH, 	Health & Family Welfare,Any Other,Drinking Water,Education & Literacy,		
144	CG/2017/0154561	SOSS INFRA WELFARE SOCIETY	sossinfrapvt@gmail.com	7697840369	VILL-KAUSHALPUR,DIST-SURAJPUR , POST-RAMANUJNAGAR , (CG)	SURAJPUR	CHHATTISGARH, 	Education & Literacy,	http://www.sossinfraindia.com	
145	CH/2018/0185324	sri Guru Amardas Chartiable Trust	palhardial@gmail.com	9316676994	KOTHI NO 519, SECTOR 10D, CHANDIGARH 160011	CHANDIGARH	CHANDIGARH, PUNJAB, 	Any Other,		
146	CH/2017/0164642	SRI SATHYA SAI GRAMIN JAGRITI	saijagriti@yahoo.com	9416157930	House No 551, Sai SadanSector 8B Chandigarh 160018	Chandigarh	HARYANA, 	Education & Literacy,Health & Family Welfare,Vocational Training,	htp://www.saijagriti.org	
147	CH/2020/0272146	SRI SATHYA SAI TRUST HARYANA & CHANDIGARH (REGD.)	murarilalverma55@gmail.com	9416239813	SRI SATHYA SAI SEVA CENTER/ OLD AGE HOME SECTOR 30 BCHANDIGARH	CHANDIGARH				
148	AP/2016/0112043	SRISAICULTURALDEVELOPMENTSOCIETY	srisaicds2000@gmail.com	8701843732	NAYANAPALLI VILLAGE, KALLURU POST, LEPAKSHI MANDAL, ANANTAPUR DISTRICT.	BANGALORE	ASSAM, 	Animal Husbandry, Dairying  &  Fisheries,Aged/Elderly,Agriculture,Art & Culture,Biotechnology,Children,Civic Issues,Differently Abled,Disaster Management,Dalit Upliftment,Drinking Water,Education & Literacy,Environment & Forests,Food Processing,Health & Family Welfare,HIV/AIDS,Housing,Human Rights,Information & Communication Technology,Legal Awareness & Aid,Labour & Employment,Land Resources,Micro Finance (SHGs),Minority Issues,Micro Small & Medium Enterprises,		
149	CH/2017/0173594	Stellar Edge Solutions Private Limited	stellaredgensdc@gmail.com	9988999838	Stellalredge Solutions Pvt. Ltd. SCO-371-373, 2nd floor Sector-34 A Chandigarh	Chandigarh	CHANDIGARH, 	Education & Literacy,Information & Communication Technology,Rural Development & Poverty Alleviation,Vocational Training,Women's Development & Empowerment,		
150	CH/2019/0239641	STRATEGIC INSTITUTE FOR PUBLIC HEALTH, EDUCATION AND RESEARCH (SIPHER)	sipher2018@gmail.com	8872090018	H.NO.2297, SECTOR 35-C CHANDIGARH	Chandigarh	CHANDIGARH, DELHI, HARYANA, HIMACHAL PRADESH, PUNJAB, 	Health & Family Welfare,Any Other,	http://www.sipherglobal.org	
151	CH/2018/0204593	SUAS EDUCATIONAL FOUNDATION	sargunbabuta@hotmail.com	9814170707	240 SECTOR 21-A	CHANDIGARH				
152	CH/2018/0209111	Survival of Young & Adolescent Foundation	suryafoundation40@gmail.com	9814105154	House no 3139, Sector 28 D, Chandigarh.	Chandigarh	CHANDIGARH, 	Children,Aged/Elderly,Health & Family Welfare,HIV/AIDS,Human Rights,Legal Awareness & Aid,Vocational Training,Women's Development & Empowerment,		
153	CH/2017/0153246	SWAMI RAM TIRTHA MEMORIAL SOCIETY	siddharth45@gmail.com	9815235045	Plot No. 28-29, Sector-24-C, Chandigarh	Chandigarh				
154	CH/2019/0233568	SWARMANI YOUTH WELFARE ASSOCIATION CHANDIGARH 	sywa45@gmail.com	8837774220	HOUSE NUMBER:1969, NEAR SAINI GURUDWARA VILLAGE BURAIL SECTOR-45 B,	CHANDIGARH				
155	CH/2019/0233387	T3S Foundation	rakeshbalooni@gmail.com	9816081360	SCO910, NAC Manimajra, Chandigarh - 160101	Chandigarh	CHANDIGARH, HIMACHAL PRADESH, DELHI, 	Education & Literacy,Labour & Employment,Vocational Training,Any Other,	http://t3sfoundation.com	
156	CH/2019/0228310	TAMIL MANRAM	chdtamilsangam@gmail.com	8054261916	Bharati Bhawan, Sector 30B, Chandigarh	chandigarh	CHANDIGARH, 	Art & Culture,Children,Civic Issues,Dalit Upliftment,Disaster Management,Education & Literacy,Aged/Elderly,Health & Family Welfare,Information & Communication Technology,Nutrition,Vocational Training,Women's Development & Empowerment,Youth Affairs,		
157	CH/2019/0236913	TDS Placements and Services Private Limited	rakeshbalooni@tdsjob.com	7009989734	SCO-910 NAC Manimajra Chandigarh	Chandigarh			https://tdsjob.com	
158	CH/2016/0103857	THE ASSOCIATION OF RETIRED OFFICERS OF THE INDIAN AUDIT AND ACCOUNTS DEPARTMENT CHANDIGARH	AOROCHD@GMAIL.COM	9872983093	ACCOUNTANT GENERAL HARYANA BUILDING PLOT NO 4 AND 5 SECTOR 33 B CHANDIGARH 160020	CHANDIGARH		Any Other,		
159	CH/2012/0051288	The Centre of Music Performing Arts Natya Yatris	neelammansingh@yahoo.com	9814202344	9 Sector 4	Chandigarh		Art & Culture,		
160	CH/2020/0258306	The Drugless Practioners Association	drking070@gmail.com	9316810015	Booth no. 49, Phase-2, Ramdarbar, Chandigarh. U.T. (india)	Chandigarh	CHANDIGARH, 	Art & Culture,Children,Education & Literacy,Environment & Forests,Health & Family Welfare,HIV/AIDS,Human Rights,Legal Awareness & Aid,Nutrition,Sports,Tribal Affairs,Vocational Training,Women's Development & Empowerment,Youth Affairs,Any Other,Right to Information & Advocacy,		
161	CH/2017/0166811	THE INDUS ENTREPRENEURS CHANDIGARH	harpreet@tiechandigarh.org	9988005124	SCO-105-106, 4th Floor, Sector- 34 A Chandigarh 160022	Chandigarh			http://www.chandigarh.tie.org	
162	CH/2017/0176155	The Lohia Karpoori Institute of Technology for Social Change	panchdeo_lkit@yahoo.com	9888515170	Manimajra, behind of BSNL Office, Chandigarh, UT	Chandigarh	CHANDIGARH, 			
163	CH/2017/0151646	THEATRE FOR THEATRE	saintysaini@gmail.com	9417011651	H.No. 2929 Sector 42-C Chandigarh	Chandigarh 			http://www.theatrefortheatre.com	
164	CH/2018/0185426	TRIKAL DARSHI SEWA DAL	ddtripathi25@gmail.com	9464395716	808-A, Pandit Deen Dayal Upadhyay Complex, Ind-Area,Phase-1,	Chandigarh	CHANDIGARH, 	Dalit Upliftment,Education & Literacy,Urban Development & Poverty Alleviation,Women's Development & Empowerment,		
165	CH/2018/0219381	TRUE LIFE MISSION	aaryan0624@gmail.com	9988890341	H.NO. 132 , KHUDDA JASSU, CHANDIGARH	CHANDIGARH	CHANDIGARH, 	Children,Civic Issues,Dalit Upliftment,Education & Literacy,		
166	CH/2016/0095212	Umeed Society Chandigarh	umeedsociety31@gmail.com	9646121611	GRIID, AASHADEEP BUILDING, SECTOR-31 , CHANDIGARH-160031	Chandigarh	CHANDIGARH, PUNJAB, 	Differently Abled,	http://www.umeedsociety.com	
167	CH/2017/0174619	VEERANWALI FOUNDATION	veeranwalifoundation@gmail.com	8558070000	S.C.O. 343-345SECTOR-34A CHANDIGARH	CHANDIGARH	CHANDIGARH, 	Children,Differently Abled,Education & Literacy,Aged/Elderly,Health & Family Welfare,HIV/AIDS,Human Rights,		
168	CH/2019/0234169	Vishal Himachal Mahasangh Chandigarh	vishalhimachal44@gmail.com	7986124742	1343, sector 26 panchkula	Panchkula	HARYANA, 	Education & Literacy,Agriculture,Science & Technology,Vocational Training,		
169	CH/2017/0152138	vishav shiksha nikean sansthan	yoggurukaran@gmail.com	9797937319	VISHAV SHIKSHA NIKETAN PINJORE CHANDIGARH	CHANDIGARH				
170	CH/2009/0016215	Voluntary Health Association of Punjab	Vhapunjab@gmail.com	8146666185	SCF -18/1 Sector-10 D   Chandigarh Pin Code-160011	Chandigarh	CHANDIGARH, HIMACHAL PRADESH, testingswss, HIMACHAL PRADESH, HARYANA, JAMMU &amp; KASHMIR, LADAKH, JAMMU &amp; KASHMIR, LADAKH, JAMMU &amp; KASHMIR, PUNJAB, RAJASTHAN, UTTARAKHAND, JAMMU &amp; KASHMIR, PUNJAB, RAJASTHAN, 	Aged/Elderly,Agriculture,Art & Culture,Children,Civic Issues,Differently Abled,Disaster Management,Dalit Upliftment,Drinking Water,Education & Literacy,Environment & Forests,Health & Family Welfare,HIV/AIDS,Housing,Human Rights,Legal Awareness & Aid,Labour & Employment,Micro Finance (SHGs),Minority Issues,Micro Small & Medium Enterprises,New & Renewable Energy,Nutrition,Panchayati Raj,Prisoner's Issues,Right to Information & Advocacy,	http://www.vhapunjab.org	
171	CH/2020/0258079	Welm Foundation	werespectwater@gmail.com	9041381674	Booth No. 15, Sector 33 C, Chandigarh	Chandigarh	CHANDIGARH, HARYANA, HIMACHAL PRADESH, PUNJAB, 	Drinking Water,Water Resources,Education & Literacy,Health & Family Welfare,	http://www.welmfoundation.in	
172	CH/2018/0202086	World NCD Federation	worldncdfederation@gmail.com	9463602173	11, Karuna Sadan, Sector 11, Chandigarh	Chandigarh	CHANDIGARH, 	Health & Family Welfare,Nutrition,Scientific & Industrial Research,	http://www.wworldncdfederation.org	
173	CH/2019/0222657	WORLD PEACE MISSION TRUST	UPKARUSA@GMAIL.COM	9814069404	House No.277 Sector 46-A Chandigarh Pincode-160047	Chandigarh	CHANDIGARH, 	Children,Education & Literacy,Vocational Training,		
174	CH/2018/0211978	WORLD SELF SERVERS TRUST	CAJUNEJA@GMAIL.COM	9915003944	HOUSE NO 6 SECTOR 27 A	CHANDIGARH	CHANDIGARH, HARYANA, HIMACHAL PRADESH, JAMMU &amp; KASHMIR, LADAKH, JAMMU &amp; KASHMIR, PUNJAB, 	Education & Literacy,Aged/Elderly,Environment & Forests,Health & Family Welfare,Information & Communication Technology,Labour & Employment,Legal Awareness & Aid,Micro Finance (SHGs),Micro Small & Medium Enterprises,Nutrition,Rural Development & Poverty Alleviation,Vocational Training,Women's Development & Empowerment,Youth Affairs,Any Other,		
175	CH/2018/0210588	YOUTH INNOVATIVESOCIETY	youthinnovativesociety@gmail.com	9872511411	HOUSE NO 151 SECTOR-21A CHANDIGARH	CHANDIGARH	CHANDIGARH, 	Education & Literacy,Environment & Forests,Information & Communication Technology,Science & Technology,Sports,Tourism,Women's Development & Empowerment,Youth Affairs,		
176	CH/2009/0005230	Youth Technical Training Society	ytts.chandigarh@gmail.com	9417068048	Room No 13 (GF), Karuna Sadan Building, Sector 11-B	Chandigarh	CHANDIGARH, HIMACHAL PRADESH, HARYANA, PUNJAB, 	Health & Family Welfare,HIV/AIDS,Rural Development & Poverty Alleviation,Urban Development & Poverty Alleviation,Women's Development & Empowerment,Youth Affairs,Children,Vocational Training,	http://www.ytts.org	
177	CH/2020/0257317	Youth United	jyotindranath@youthunited.in	7892041772	No 3556 Sector 37D	Chandigarh	CHANDIGARH, DELHI, HARYANA, KARNATAKA, KERALA, TAMIL NADU, UTTAR PRADESH, 	Animal Husbandry, Dairying  &  Fisheries,Art & Culture,Children,Civic Issues,Disaster Management,Education & Literacy,Environment & Forests,Health & Family Welfare,Human Rights,Information & Communication Technology,Legal Awareness & Aid,Right to Information & Advocacy,Science & Technology,Vocational Training,Women's Development & Empowerment,Youth Affairs,	http://www.youthunited.in	
178	CH/2017/0160623	YUVA BHARAT SKILL DEVELOPMENT AND EDUCATIONAL TRUST	yuvabharat.skills@gmail.com	9646307603	3318, Sector 25D, Chandigarh	Chandigarh	CHANDIGARH, 	Education & Literacy,Labour & Employment,Rural Development & Poverty Alleviation,Urban Development & Poverty Alleviation,Vocational Training,Women's Development & Empowerment,		
179	CH/2009/0015740	YUVSATTA	yuvsatta@gmail.com	9872609816	YUVSATTA R. No. 12, 16, Karuna Sadan, Sector 11, Chandigarh Pin-160 011	Chandigarh	CHANDIGARH, 	Art & Culture,Children,Civic Issues,Drinking Water,Education & Literacy,Environment & Forests,HIV/AIDS,Human Rights,Information & Communication Technology,Legal Awareness & Aid,Science & Technology,Tourism,Urban Development & Poverty Alleviation,Vocational Training,Water Resources,Women's Development & Empowerment,Youth Affairs,	http://www.volunteeratyuvsatta.in	
